id,Bar,Street,City,State,Phone,License,id,Name,Street,City,State,Phone,SSN,DriverLicense
125,"THE GREENE TURTLE","Ap #706-512 Odio Street",Glendale,Arizona,557-558-1128,272426-2650,28,"Zephr Holmes","521-7674 Facilisis Road",Chandler,Arizona,218-877-9466,725-27-05,2AE1A76E-4C6F-7F9E-D521-F2E258B3967C
154,"CANA BEER & WINE","Ap #793-5862 Eu, St.",Tucson,Arizona,960-479-8390,192695-6895,28,"Zephr Holmes","521-7674 Facilisis Road",Chandler,Arizona,218-877-9466,725-27-05,2AE1A76E-4C6F-7F9E-D521-F2E258B3967C
125,"THE GREENE TURTLE","Ap #706-512 Odio Street",Glendale,Arizona,557-558-1128,272426-2650,46,"Lynn Watts","6382 Eleifend St.",Chandler,Arizona,667-673-0803,816-44-07,41E8CCB1-B2E5-DAC1-B6E2-EC55FDAE8662
154,"CANA BEER & WINE","Ap #793-5862 Eu, St.",Tucson,Arizona,960-479-8390,192695-6895,46,"Lynn Watts","6382 Eleifend St.",Chandler,Arizona,667-673-0803,816-44-07,41E8CCB1-B2E5-DAC1-B6E2-EC55FDAE8662
125,"THE GREENE TURTLE","Ap #706-512 Odio Street",Glendale,Arizona,557-558-1128,272426-2650,67,"Peter Potts","5076 Elit. Rd.",Glendale,Arizona,404-375-4198,088-61-01,1105F0F5-155F-EA23-9F81-9157779E7781
154,"CANA BEER & WINE","Ap #793-5862 Eu, St.",Tucson,Arizona,960-479-8390,192695-6895,67,"Peter Potts","5076 Elit. Rd.",Glendale,Arizona,404-375-4198,088-61-01,1105F0F5-155F-EA23-9F81-9157779E7781
125,"THE GREENE TURTLE","Ap #706-512 Odio Street",Glendale,Arizona,557-558-1128,272426-2650,72,"Ivy Stanley","Ap #777-5938 Hendrerit Rd.",Tucson,Arizona,611-284-0034,121-29-00,377783EC-FBC0-4883-539B-B7F0E4039CE8
154,"CANA BEER & WINE","Ap #793-5862 Eu, St.",Tucson,Arizona,960-479-8390,192695-6895,72,"Ivy Stanley","Ap #777-5938 Hendrerit Rd.",Tucson,Arizona,611-284-0034,121-29-00,377783EC-FBC0-4883-539B-B7F0E4039CE8
125,"THE GREENE TURTLE","Ap #706-512 Odio Street",Glendale,Arizona,557-558-1128,272426-2650,98,"Deanna Calhoun","P.O. Box 386, 2799 Nisl. Avenue",Glendale,Arizona,922-801-7150,170-38-02,9E26A5B1-408F-B4A6-51A0-98B68108B187
154,"CANA BEER & WINE","Ap #793-5862 Eu, St.",Tucson,Arizona,960-479-8390,192695-6895,98,"Deanna Calhoun","P.O. Box 386, 2799 Nisl. Avenue",Glendale,Arizona,922-801-7150,170-38-02,9E26A5B1-408F-B4A6-51A0-98B68108B187
125,"THE GREENE TURTLE","Ap #706-512 Odio Street",Glendale,Arizona,557-558-1128,272426-2650,154,"Omar Hughes","2309 Ullamcorper, St.",Tucson,Arizona,589-277-2021,223-97-04,BD24E092-C5B9-E0C0-A342-05B8B07C8557
154,"CANA BEER & WINE","Ap #793-5862 Eu, St.",Tucson,Arizona,960-479-8390,192695-6895,154,"Omar Hughes","2309 Ullamcorper, St.",Tucson,Arizona,589-277-2021,223-97-04,BD24E092-C5B9-E0C0-A342-05B8B07C8557
125,"THE GREENE TURTLE","Ap #706-512 Odio Street",Glendale,Arizona,557-558-1128,272426-2650,253,"Jana Clarke","5104 Dictum Street",Chandler,Arizona,680-988-7976,401-29-03,5248378D-C136-49D1-367E-A624313DA7F8
154,"CANA BEER & WINE","Ap #793-5862 Eu, St.",Tucson,Arizona,960-479-8390,192695-6895,253,"Jana Clarke","5104 Dictum Street",Chandler,Arizona,680-988-7976,401-29-03,5248378D-C136-49D1-367E-A624313DA7F8
125,"THE GREENE TURTLE","Ap #706-512 Odio Street",Glendale,Arizona,557-558-1128,272426-2650,293,"Kay Griffith","235-3689 Dolor Rd.",Glendale,Arizona,563-842-3463,349-60-03,D0CF9984-BE55-FFCD-0770-912898C514C5
154,"CANA BEER & WINE","Ap #793-5862 Eu, St.",Tucson,Arizona,960-479-8390,192695-6895,293,"Kay Griffith","235-3689 Dolor Rd.",Glendale,Arizona,563-842-3463,349-60-03,D0CF9984-BE55-FFCD-0770-912898C514C5
125,"THE GREENE TURTLE","Ap #706-512 Odio Street",Glendale,Arizona,557-558-1128,272426-2650,333,"Dara Barrett","446-8788 Elementum St.",Glendale,Arizona,203-843-6419,328-84-03,12DB2990-1E51-D758-0A0A-79B29113D99D
154,"CANA BEER & WINE","Ap #793-5862 Eu, St.",Tucson,Arizona,960-479-8390,192695-6895,333,"Dara Barrett","446-8788 Elementum St.",Glendale,Arizona,203-843-6419,328-84-03,12DB2990-1E51-D758-0A0A-79B29113D99D
125,"THE GREENE TURTLE","Ap #706-512 Odio Street",Glendale,Arizona,557-558-1128,272426-2650,462,"Zeus Whitaker","P.O. Box 428, 4512 Dolor Road",Chandler,Arizona,808-213-0526,145-05-05,8029ACBA-8E00-A2E4-7977-D2C64A7F744A
154,"CANA BEER & WINE","Ap #793-5862 Eu, St.",Tucson,Arizona,960-479-8390,192695-6895,462,"Zeus Whitaker","P.O. Box 428, 4512 Dolor Road",Chandler,Arizona,808-213-0526,145-05-05,8029ACBA-8E00-A2E4-7977-D2C64A7F744A
125,"THE GREENE TURTLE","Ap #706-512 Odio Street",Glendale,Arizona,557-558-1128,272426-2650,466,"Cyrus Noel","Ap #994-9948 Luctus Street",Tucson,Arizona,962-585-6235,777-77-06,AF466067-D760-3A04-F25F-936FA803BAA1
154,"CANA BEER & WINE","Ap #793-5862 Eu, St.",Tucson,Arizona,960-479-8390,192695-6895,466,"Cyrus Noel","Ap #994-9948 Luctus Street",Tucson,Arizona,962-585-6235,777-77-06,AF466067-D760-3A04-F25F-936FA803BAA1
125,"THE GREENE TURTLE","Ap #706-512 Odio Street",Glendale,Arizona,557-558-1128,272426-2650,525,"Kelly Wooten","P.O. Box 756, 4787 Risus. Rd.",Mesa,Arizona,258-318-7798,544-22-08,DAB98195-5F6F-E145-6715-D24F78C45F1C
154,"CANA BEER & WINE","Ap #793-5862 Eu, St.",Tucson,Arizona,960-479-8390,192695-6895,525,"Kelly Wooten","P.O. Box 756, 4787 Risus. Rd.",Mesa,Arizona,258-318-7798,544-22-08,DAB98195-5F6F-E145-6715-D24F78C45F1C
125,"THE GREENE TURTLE","Ap #706-512 Odio Street",Glendale,Arizona,557-558-1128,272426-2650,534,"Ayanna Griffin","179-8874 Vitae Road",Tucson,Arizona,956-682-5217,294-94-06,050B6B17-9D1F-2D7E-AAF8-93CD54625ACE
154,"CANA BEER & WINE","Ap #793-5862 Eu, St.",Tucson,Arizona,960-479-8390,192695-6895,534,"Ayanna Griffin","179-8874 Vitae Road",Tucson,Arizona,956-682-5217,294-94-06,050B6B17-9D1F-2D7E-AAF8-93CD54625ACE
125,"THE GREENE TURTLE","Ap #706-512 Odio Street",Glendale,Arizona,557-558-1128,272426-2650,543,"Lars Hartman","960 Nonummy Rd.",Tucson,Arizona,483-192-2617,529-95-03,BD4C1389-4C95-786C-422D-83190350667D
154,"CANA BEER & WINE","Ap #793-5862 Eu, St.",Tucson,Arizona,960-479-8390,192695-6895,543,"Lars Hartman","960 Nonummy Rd.",Tucson,Arizona,483-192-2617,529-95-03,BD4C1389-4C95-786C-422D-83190350667D
125,"THE GREENE TURTLE","Ap #706-512 Odio Street",Glendale,Arizona,557-558-1128,272426-2650,556,"Myles Neal","3688 In, Street",Mesa,Arizona,811-792-8046,173-69-01,81ABC295-AD9B-E94B-B995-9327D5BAB7A6
154,"CANA BEER & WINE","Ap #793-5862 Eu, St.",Tucson,Arizona,960-479-8390,192695-6895,556,"Myles Neal","3688 In, Street",Mesa,Arizona,811-792-8046,173-69-01,81ABC295-AD9B-E94B-B995-9327D5BAB7A6
125,"THE GREENE TURTLE","Ap #706-512 Odio Street",Glendale,Arizona,557-558-1128,272426-2650,585,"Justine Browning","P.O. Box 339, 9646 At, Rd.",Glendale,Arizona,915-788-7849,773-07-04,36339F05-3884-0070-858C-802EF73EC915
154,"CANA BEER & WINE","Ap #793-5862 Eu, St.",Tucson,Arizona,960-479-8390,192695-6895,585,"Justine Browning","P.O. Box 339, 9646 At, Rd.",Glendale,Arizona,915-788-7849,773-07-04,36339F05-3884-0070-858C-802EF73EC915
125,"THE GREENE TURTLE","Ap #706-512 Odio Street",Glendale,Arizona,557-558-1128,272426-2650,597,"Amethyst Fitzpatrick","1590 Consequat Road",Chandler,Arizona,285-978-3123,162-50-03,FD11AE6A-CBFD-5F69-D96E-FFCFAF0730F8
154,"CANA BEER & WINE","Ap #793-5862 Eu, St.",Tucson,Arizona,960-479-8390,192695-6895,597,"Amethyst Fitzpatrick","1590 Consequat Road",Chandler,Arizona,285-978-3123,162-50-03,FD11AE6A-CBFD-5F69-D96E-FFCFAF0730F8
125,"THE GREENE TURTLE","Ap #706-512 Odio Street",Glendale,Arizona,557-558-1128,272426-2650,612,"Logan Young","Ap #615-3109 Fringilla St.",Glendale,Arizona,644-148-8744,442-85-07,F41B2F81-BE08-2EAE-6C12-7FABEC355A85
154,"CANA BEER & WINE","Ap #793-5862 Eu, St.",Tucson,Arizona,960-479-8390,192695-6895,612,"Logan Young","Ap #615-3109 Fringilla St.",Glendale,Arizona,644-148-8744,442-85-07,F41B2F81-BE08-2EAE-6C12-7FABEC355A85
125,"THE GREENE TURTLE","Ap #706-512 Odio Street",Glendale,Arizona,557-558-1128,272426-2650,628,"Jade Kirk","7988 Orci. Ave",Glendale,Arizona,251-874-3503,285-07-02,125C4954-3B1E-2EB8-EB77-AB1EE3EBDC3A
154,"CANA BEER & WINE","Ap #793-5862 Eu, St.",Tucson,Arizona,960-479-8390,192695-6895,628,"Jade Kirk","7988 Orci. Ave",Glendale,Arizona,251-874-3503,285-07-02,125C4954-3B1E-2EB8-EB77-AB1EE3EBDC3A
125,"THE GREENE TURTLE","Ap #706-512 Odio Street",Glendale,Arizona,557-558-1128,272426-2650,972,"Aretha Bruce","880-8180 Aliquam Avenue",Phoenix,Arizona,434-690-6903,089-95-00,041160AD-D563-74E7-981A-DA08A0314F30
154,"CANA BEER & WINE","Ap #793-5862 Eu, St.",Tucson,Arizona,960-479-8390,192695-6895,972,"Aretha Bruce","880-8180 Aliquam Avenue",Phoenix,Arizona,434-690-6903,089-95-00,041160AD-D563-74E7-981A-DA08A0314F30
125,"THE GREENE TURTLE","Ap #706-512 Odio Street",Glendale,Arizona,557-558-1128,272426-2650,991,"Kameko Keith","722-6155 Porttitor Street",Chandler,Arizona,265-702-9903,717-77-04,1974370A-D79E-808A-7D50-5409F46986EA
154,"CANA BEER & WINE","Ap #793-5862 Eu, St.",Tucson,Arizona,960-479-8390,192695-6895,991,"Kameko Keith","722-6155 Porttitor Street",Chandler,Arizona,265-702-9903,717-77-04,1974370A-D79E-808A-7D50-5409F46986EA
125,"THE GREENE TURTLE","Ap #706-512 Odio Street",Glendale,Arizona,557-558-1128,272426-2650,1027,"Samantha Tucker","6505 Sem, Avenue",Chandler,Arizona,588-856-7810,148-05-02,8D79996B-B2FE-35AC-C539-410EC475736D
154,"CANA BEER & WINE","Ap #793-5862 Eu, St.",Tucson,Arizona,960-479-8390,192695-6895,1027,"Samantha Tucker","6505 Sem, Avenue",Chandler,Arizona,588-856-7810,148-05-02,8D79996B-B2FE-35AC-C539-410EC475736D
125,"THE GREENE TURTLE","Ap #706-512 Odio Street",Glendale,Arizona,557-558-1128,272426-2650,1046,"Harper Patton","3733 Sem Road",Glendale,Arizona,155-419-4455,172-94-00,66114F3D-7592-9509-6C1C-76AAE2325302
154,"CANA BEER & WINE","Ap #793-5862 Eu, St.",Tucson,Arizona,960-479-8390,192695-6895,1046,"Harper Patton","3733 Sem Road",Glendale,Arizona,155-419-4455,172-94-00,66114F3D-7592-9509-6C1C-76AAE2325302
125,"THE GREENE TURTLE","Ap #706-512 Odio Street",Glendale,Arizona,557-558-1128,272426-2650,1161,"Iliana Harrison","1031 Vitae, Ave",Chandler,Arizona,856-369-0892,285-29-07,FCF05575-A973-BB78-A2F2-2F010EE839EC
154,"CANA BEER & WINE","Ap #793-5862 Eu, St.",Tucson,Arizona,960-479-8390,192695-6895,1161,"Iliana Harrison","1031 Vitae, Ave",Chandler,Arizona,856-369-0892,285-29-07,FCF05575-A973-BB78-A2F2-2F010EE839EC
125,"THE GREENE TURTLE","Ap #706-512 Odio Street",Glendale,Arizona,557-558-1128,272426-2650,1269,"Ira Hodges","1904 Sed St.",Glendale,Arizona,562-862-1352,328-62-06,5EE1410A-F68C-3CD7-1D62-405C6549DF20
154,"CANA BEER & WINE","Ap #793-5862 Eu, St.",Tucson,Arizona,960-479-8390,192695-6895,1269,"Ira Hodges","1904 Sed St.",Glendale,Arizona,562-862-1352,328-62-06,5EE1410A-F68C-3CD7-1D62-405C6549DF20
125,"THE GREENE TURTLE","Ap #706-512 Odio Street",Glendale,Arizona,557-558-1128,272426-2650,1286,"Byron Conrad","P.O. Box 762, 6896 Ligula Avenue",Chandler,Arizona,701-346-0095,868-38-00,3F962C71-7EFA-7FFA-6053-90619F394215
154,"CANA BEER & WINE","Ap #793-5862 Eu, St.",Tucson,Arizona,960-479-8390,192695-6895,1286,"Byron Conrad","P.O. Box 762, 6896 Ligula Avenue",Chandler,Arizona,701-346-0095,868-38-00,3F962C71-7EFA-7FFA-6053-90619F394215
125,"THE GREENE TURTLE","Ap #706-512 Odio Street",Glendale,Arizona,557-558-1128,272426-2650,1414,"Declan Cleveland","P.O. Box 125, 8219 Consectetuer Rd.",Tucson,Arizona,600-271-3952,532-10-02,B81B1D56-F978-45B5-0E71-71F515AB1E2A
154,"CANA BEER & WINE","Ap #793-5862 Eu, St.",Tucson,Arizona,960-479-8390,192695-6895,1414,"Declan Cleveland","P.O. Box 125, 8219 Consectetuer Rd.",Tucson,Arizona,600-271-3952,532-10-02,B81B1D56-F978-45B5-0E71-71F515AB1E2A
125,"THE GREENE TURTLE","Ap #706-512 Odio Street",Glendale,Arizona,557-558-1128,272426-2650,1507,"Bruce Cervantes","395-7351 Magnis Rd.",Tucson,Arizona,381-516-0571,621-50-00,FD0FEBD9-1A46-EA09-96AF-6C6A5BD7995E
154,"CANA BEER & WINE","Ap #793-5862 Eu, St.",Tucson,Arizona,960-479-8390,192695-6895,1507,"Bruce Cervantes","395-7351 Magnis Rd.",Tucson,Arizona,381-516-0571,621-50-00,FD0FEBD9-1A46-EA09-96AF-6C6A5BD7995E
125,"THE GREENE TURTLE","Ap #706-512 Odio Street",Glendale,Arizona,557-558-1128,272426-2650,1539,"Roanna Valenzuela","438-328 Nunc Ave",Chandler,Arizona,531-712-1702,858-34-04,5319797D-CADE-590C-D6A9-F3B3328752FB
154,"CANA BEER & WINE","Ap #793-5862 Eu, St.",Tucson,Arizona,960-479-8390,192695-6895,1539,"Roanna Valenzuela","438-328 Nunc Ave",Chandler,Arizona,531-712-1702,858-34-04,5319797D-CADE-590C-D6A9-F3B3328752FB
125,"THE GREENE TURTLE","Ap #706-512 Odio Street",Glendale,Arizona,557-558-1128,272426-2650,1545,"Melodie Olsen","Ap #925-3416 Nunc Rd.",Mesa,Arizona,287-189-2457,005-46-05,C135B0FC-7FF2-ED15-69BD-8462F4AA004A
154,"CANA BEER & WINE","Ap #793-5862 Eu, St.",Tucson,Arizona,960-479-8390,192695-6895,1545,"Melodie Olsen","Ap #925-3416 Nunc Rd.",Mesa,Arizona,287-189-2457,005-46-05,C135B0FC-7FF2-ED15-69BD-8462F4AA004A
125,"THE GREENE TURTLE","Ap #706-512 Odio Street",Glendale,Arizona,557-558-1128,272426-2650,1552,"Geraldine Spencer","Ap #225-4027 Vitae Rd.",Chandler,Arizona,819-516-4376,868-38-08,EC23B896-2ABC-3C22-0FBA-E0200525068E
154,"CANA BEER & WINE","Ap #793-5862 Eu, St.",Tucson,Arizona,960-479-8390,192695-6895,1552,"Geraldine Spencer","Ap #225-4027 Vitae Rd.",Chandler,Arizona,819-516-4376,868-38-08,EC23B896-2ABC-3C22-0FBA-E0200525068E
125,"THE GREENE TURTLE","Ap #706-512 Odio Street",Glendale,Arizona,557-558-1128,272426-2650,1574,"Stephanie Rich","3172 Phasellus Road",Chandler,Arizona,274-732-2773,789-57-07,00E7BEDD-BFA5-ED1A-03E9-837F1A577DB3
154,"CANA BEER & WINE","Ap #793-5862 Eu, St.",Tucson,Arizona,960-479-8390,192695-6895,1574,"Stephanie Rich","3172 Phasellus Road",Chandler,Arizona,274-732-2773,789-57-07,00E7BEDD-BFA5-ED1A-03E9-837F1A577DB3
125,"THE GREENE TURTLE","Ap #706-512 Odio Street",Glendale,Arizona,557-558-1128,272426-2650,1611,"Lesley Kane","P.O. Box 485, 8429 Adipiscing Ave",Chandler,Arizona,795-690-6216,534-23-01,59F1B15F-867C-7054-9917-77638B9F761C
154,"CANA BEER & WINE","Ap #793-5862 Eu, St.",Tucson,Arizona,960-479-8390,192695-6895,1611,"Lesley Kane","P.O. Box 485, 8429 Adipiscing Ave",Chandler,Arizona,795-690-6216,534-23-01,59F1B15F-867C-7054-9917-77638B9F761C
125,"THE GREENE TURTLE","Ap #706-512 Odio Street",Glendale,Arizona,557-558-1128,272426-2650,1617,"Axel Burke","P.O. Box 525, 963 Quis, Avenue",Phoenix,Arizona,101-431-4641,025-79-00,52F9D2C6-5024-7827-DE43-E039DAEAF4D3
154,"CANA BEER & WINE","Ap #793-5862 Eu, St.",Tucson,Arizona,960-479-8390,192695-6895,1617,"Axel Burke","P.O. Box 525, 963 Quis, Avenue",Phoenix,Arizona,101-431-4641,025-79-00,52F9D2C6-5024-7827-DE43-E039DAEAF4D3
125,"THE GREENE TURTLE","Ap #706-512 Odio Street",Glendale,Arizona,557-558-1128,272426-2650,1748,"Marsden Reed","P.O. Box 665, 3654 Felis Street",Chandler,Arizona,419-465-3195,239-25-03,4418DFB0-8E78-1720-3610-4EF94885C7B9
154,"CANA BEER & WINE","Ap #793-5862 Eu, St.",Tucson,Arizona,960-479-8390,192695-6895,1748,"Marsden Reed","P.O. Box 665, 3654 Felis Street",Chandler,Arizona,419-465-3195,239-25-03,4418DFB0-8E78-1720-3610-4EF94885C7B9
125,"THE GREENE TURTLE","Ap #706-512 Odio Street",Glendale,Arizona,557-558-1128,272426-2650,1778,"Ronan Stevenson","Ap #242-5975 Tempus Road",Mesa,Arizona,411-512-3812,826-01-09,464ED53E-1A5B-A3F7-90E5-D428CCC29A95
154,"CANA BEER & WINE","Ap #793-5862 Eu, St.",Tucson,Arizona,960-479-8390,192695-6895,1778,"Ronan Stevenson","Ap #242-5975 Tempus Road",Mesa,Arizona,411-512-3812,826-01-09,464ED53E-1A5B-A3F7-90E5-D428CCC29A95
125,"THE GREENE TURTLE","Ap #706-512 Odio Street",Glendale,Arizona,557-558-1128,272426-2650,1800,"Colton Joseph","Ap #105-7436 Pede, St.",Phoenix,Arizona,483-832-9669,769-90-02,A787B8BE-2605-8A51-795D-99E17B0DC6E1
154,"CANA BEER & WINE","Ap #793-5862 Eu, St.",Tucson,Arizona,960-479-8390,192695-6895,1800,"Colton Joseph","Ap #105-7436 Pede, St.",Phoenix,Arizona,483-832-9669,769-90-02,A787B8BE-2605-8A51-795D-99E17B0DC6E1
125,"THE GREENE TURTLE","Ap #706-512 Odio Street",Glendale,Arizona,557-558-1128,272426-2650,1802,"Lionel Fuentes","P.O. Box 323, 9505 Cursus Street",Glendale,Arizona,312-130-8302,658-01-07,88573891-ED62-A52D-21F2-6320DF71E770
154,"CANA BEER & WINE","Ap #793-5862 Eu, St.",Tucson,Arizona,960-479-8390,192695-6895,1802,"Lionel Fuentes","P.O. Box 323, 9505 Cursus Street",Glendale,Arizona,312-130-8302,658-01-07,88573891-ED62-A52D-21F2-6320DF71E770
125,"THE GREENE TURTLE","Ap #706-512 Odio Street",Glendale,Arizona,557-558-1128,272426-2650,1831,"Lisandra Foreman","575-2650 Neque Rd.",Glendale,Arizona,374-912-8493,052-43-02,7AF7019A-BA64-B2DB-E067-A837A5291813
154,"CANA BEER & WINE","Ap #793-5862 Eu, St.",Tucson,Arizona,960-479-8390,192695-6895,1831,"Lisandra Foreman","575-2650 Neque Rd.",Glendale,Arizona,374-912-8493,052-43-02,7AF7019A-BA64-B2DB-E067-A837A5291813
125,"THE GREENE TURTLE","Ap #706-512 Odio Street",Glendale,Arizona,557-558-1128,272426-2650,1843,"Rhonda Davis","P.O. Box 256, 4780 Metus. Road",Mesa,Arizona,570-376-1764,518-79-01,5E1C2558-43E9-1D08-D52E-AB21914E5851
154,"CANA BEER & WINE","Ap #793-5862 Eu, St.",Tucson,Arizona,960-479-8390,192695-6895,1843,"Rhonda Davis","P.O. Box 256, 4780 Metus. Road",Mesa,Arizona,570-376-1764,518-79-01,5E1C2558-43E9-1D08-D52E-AB21914E5851
125,"THE GREENE TURTLE","Ap #706-512 Odio Street",Glendale,Arizona,557-558-1128,272426-2650,1947,"Akeem Gray","P.O. Box 577, 8121 Enim. St.",Glendale,Arizona,356-978-7356,322-44-01,2E19C9CF-CB8B-846C-1D93-0D4383481541
154,"CANA BEER & WINE","Ap #793-5862 Eu, St.",Tucson,Arizona,960-479-8390,192695-6895,1947,"Akeem Gray","P.O. Box 577, 8121 Enim. St.",Glendale,Arizona,356-978-7356,322-44-01,2E19C9CF-CB8B-846C-1D93-0D4383481541
125,"THE GREENE TURTLE","Ap #706-512 Odio Street",Glendale,Arizona,557-558-1128,272426-2650,1990,"Igor York","P.O. Box 659, 6720 Non St.",Mesa,Arizona,802-858-3356,076-65-01,9EDFB7D7-92DD-0A6B-319C-2FA8FA7E0D05
154,"CANA BEER & WINE","Ap #793-5862 Eu, St.",Tucson,Arizona,960-479-8390,192695-6895,1990,"Igor York","P.O. Box 659, 6720 Non St.",Mesa,Arizona,802-858-3356,076-65-01,9EDFB7D7-92DD-0A6B-319C-2FA8FA7E0D05
125,"THE GREENE TURTLE","Ap #706-512 Odio Street",Glendale,Arizona,557-558-1128,272426-2650,1991,"Wayne Gibson","P.O. Box 903, 6787 Sapien. Street",Glendale,Arizona,239-790-2814,475-82-01,5FE80464-6724-25A1-276C-C1CC63E38873
154,"CANA BEER & WINE","Ap #793-5862 Eu, St.",Tucson,Arizona,960-479-8390,192695-6895,1991,"Wayne Gibson","P.O. Box 903, 6787 Sapien. Street",Glendale,Arizona,239-790-2814,475-82-01,5FE80464-6724-25A1-276C-C1CC63E38873
125,"THE GREENE TURTLE","Ap #706-512 Odio Street",Glendale,Arizona,557-558-1128,272426-2650,2002,"Lael Duke","8541 Tincidunt St.",Phoenix,Arizona,243-938-9259,584-69-04,A6BD110A-F80B-2198-A45E-E2319E4012AB
154,"CANA BEER & WINE","Ap #793-5862 Eu, St.",Tucson,Arizona,960-479-8390,192695-6895,2002,"Lael Duke","8541 Tincidunt St.",Phoenix,Arizona,243-938-9259,584-69-04,A6BD110A-F80B-2198-A45E-E2319E4012AB
125,"THE GREENE TURTLE","Ap #706-512 Odio Street",Glendale,Arizona,557-558-1128,272426-2650,2019,"Galena Boyer","5460 Maecenas St.",Tucson,Arizona,714-694-5358,510-78-03,9A5757E5-C83D-570A-FCE8-440BE024739F
154,"CANA BEER & WINE","Ap #793-5862 Eu, St.",Tucson,Arizona,960-479-8390,192695-6895,2019,"Galena Boyer","5460 Maecenas St.",Tucson,Arizona,714-694-5358,510-78-03,9A5757E5-C83D-570A-FCE8-440BE024739F
125,"THE GREENE TURTLE","Ap #706-512 Odio Street",Glendale,Arizona,557-558-1128,272426-2650,2048,"Fulton Phillips","P.O. Box 851, 3308 Consequat, St.",Mesa,Arizona,527-414-4794,554-41-02,F67A91D4-0DD0-087A-937D-144EC5CD324F
154,"CANA BEER & WINE","Ap #793-5862 Eu, St.",Tucson,Arizona,960-479-8390,192695-6895,2048,"Fulton Phillips","P.O. Box 851, 3308 Consequat, St.",Mesa,Arizona,527-414-4794,554-41-02,F67A91D4-0DD0-087A-937D-144EC5CD324F
125,"THE GREENE TURTLE","Ap #706-512 Odio Street",Glendale,Arizona,557-558-1128,272426-2650,2111,"Oliver Page","Ap #699-7703 Vitae Avenue",Phoenix,Arizona,622-693-0921,819-14-01,30A5BC42-780C-5097-B828-5D3676AD8922
154,"CANA BEER & WINE","Ap #793-5862 Eu, St.",Tucson,Arizona,960-479-8390,192695-6895,2111,"Oliver Page","Ap #699-7703 Vitae Avenue",Phoenix,Arizona,622-693-0921,819-14-01,30A5BC42-780C-5097-B828-5D3676AD8922
125,"THE GREENE TURTLE","Ap #706-512 Odio Street",Glendale,Arizona,557-558-1128,272426-2650,2237,"Karyn Lopez","P.O. Box 654, 1437 Ut Av.",Mesa,Arizona,537-691-8612,775-58-01,633D0566-269E-2341-75B0-0BBCAD55FBC4
154,"CANA BEER & WINE","Ap #793-5862 Eu, St.",Tucson,Arizona,960-479-8390,192695-6895,2237,"Karyn Lopez","P.O. Box 654, 1437 Ut Av.",Mesa,Arizona,537-691-8612,775-58-01,633D0566-269E-2341-75B0-0BBCAD55FBC4
125,"THE GREENE TURTLE","Ap #706-512 Odio Street",Glendale,Arizona,557-558-1128,272426-2650,2266,"Justin Reilly","7932 Fermentum Rd.",Mesa,Arizona,212-968-2959,621-30-00,914875CD-32CD-893D-7BF9-746FB03FC5E5
154,"CANA BEER & WINE","Ap #793-5862 Eu, St.",Tucson,Arizona,960-479-8390,192695-6895,2266,"Justin Reilly","7932 Fermentum Rd.",Mesa,Arizona,212-968-2959,621-30-00,914875CD-32CD-893D-7BF9-746FB03FC5E5
125,"THE GREENE TURTLE","Ap #706-512 Odio Street",Glendale,Arizona,557-558-1128,272426-2650,2320,"Lucius Acosta","Ap #164-6858 Tincidunt, St.",Tucson,Arizona,433-476-9532,220-40-04,21A285D7-05F8-C45C-94F9-0D84277F8964
154,"CANA BEER & WINE","Ap #793-5862 Eu, St.",Tucson,Arizona,960-479-8390,192695-6895,2320,"Lucius Acosta","Ap #164-6858 Tincidunt, St.",Tucson,Arizona,433-476-9532,220-40-04,21A285D7-05F8-C45C-94F9-0D84277F8964
125,"THE GREENE TURTLE","Ap #706-512 Odio Street",Glendale,Arizona,557-558-1128,272426-2650,2355,"Zorita Robles","P.O. Box 216, 7982 Non, Road",Phoenix,Arizona,376-253-6186,450-94-01,229A30EF-6998-775C-9F15-1E523CEB779A
154,"CANA BEER & WINE","Ap #793-5862 Eu, St.",Tucson,Arizona,960-479-8390,192695-6895,2355,"Zorita Robles","P.O. Box 216, 7982 Non, Road",Phoenix,Arizona,376-253-6186,450-94-01,229A30EF-6998-775C-9F15-1E523CEB779A
125,"THE GREENE TURTLE","Ap #706-512 Odio Street",Glendale,Arizona,557-558-1128,272426-2650,2477,"Wynter Snider","Ap #842-5380 Erat. St.",Mesa,Arizona,943-732-5128,584-17-03,D59CF138-2FFD-EB43-72F5-C11A36E11F83
154,"CANA BEER & WINE","Ap #793-5862 Eu, St.",Tucson,Arizona,960-479-8390,192695-6895,2477,"Wynter Snider","Ap #842-5380 Erat. St.",Mesa,Arizona,943-732-5128,584-17-03,D59CF138-2FFD-EB43-72F5-C11A36E11F83
125,"THE GREENE TURTLE","Ap #706-512 Odio Street",Glendale,Arizona,557-558-1128,272426-2650,2551,"Kermit Wiley","P.O. Box 599, 2739 Metus. St.",Mesa,Arizona,161-611-8717,677-96-00,D4FAE95F-B145-FF88-99C4-8C1C624F3BC8
154,"CANA BEER & WINE","Ap #793-5862 Eu, St.",Tucson,Arizona,960-479-8390,192695-6895,2551,"Kermit Wiley","P.O. Box 599, 2739 Metus. St.",Mesa,Arizona,161-611-8717,677-96-00,D4FAE95F-B145-FF88-99C4-8C1C624F3BC8
125,"THE GREENE TURTLE","Ap #706-512 Odio Street",Glendale,Arizona,557-558-1128,272426-2650,2573,"Declan Gallegos","P.O. Box 377, 7794 Ipsum Road",Tucson,Arizona,378-949-8380,630-75-05,40BBD6B6-A146-86F7-6C0A-2489B57B87EB
154,"CANA BEER & WINE","Ap #793-5862 Eu, St.",Tucson,Arizona,960-479-8390,192695-6895,2573,"Declan Gallegos","P.O. Box 377, 7794 Ipsum Road",Tucson,Arizona,378-949-8380,630-75-05,40BBD6B6-A146-86F7-6C0A-2489B57B87EB
125,"THE GREENE TURTLE","Ap #706-512 Odio Street",Glendale,Arizona,557-558-1128,272426-2650,2620,"Hop Schmidt","P.O. Box 837, 2951 Eget Rd.",Mesa,Arizona,927-329-1552,545-21-09,37AD75DD-60F2-33B4-F4C8-2B3F0170A66B
154,"CANA BEER & WINE","Ap #793-5862 Eu, St.",Tucson,Arizona,960-479-8390,192695-6895,2620,"Hop Schmidt","P.O. Box 837, 2951 Eget Rd.",Mesa,Arizona,927-329-1552,545-21-09,37AD75DD-60F2-33B4-F4C8-2B3F0170A66B
125,"THE GREENE TURTLE","Ap #706-512 Odio Street",Glendale,Arizona,557-558-1128,272426-2650,2634,"Rae Pugh","P.O. Box 384, 548 Donec Av.",Glendale,Arizona,154-857-9663,618-91-01,DC3722D5-1FEA-4DC8-3179-DB1062F4A721
154,"CANA BEER & WINE","Ap #793-5862 Eu, St.",Tucson,Arizona,960-479-8390,192695-6895,2634,"Rae Pugh","P.O. Box 384, 548 Donec Av.",Glendale,Arizona,154-857-9663,618-91-01,DC3722D5-1FEA-4DC8-3179-DB1062F4A721
125,"THE GREENE TURTLE","Ap #706-512 Odio Street",Glendale,Arizona,557-558-1128,272426-2650,2656,"Jacqueline Golden","324-8791 Rutrum Ave",Mesa,Arizona,849-380-7493,766-91-01,7E152AB2-C6F0-FEA5-53A5-EC21210D8EBC
154,"CANA BEER & WINE","Ap #793-5862 Eu, St.",Tucson,Arizona,960-479-8390,192695-6895,2656,"Jacqueline Golden","324-8791 Rutrum Ave",Mesa,Arizona,849-380-7493,766-91-01,7E152AB2-C6F0-FEA5-53A5-EC21210D8EBC
125,"THE GREENE TURTLE","Ap #706-512 Odio Street",Glendale,Arizona,557-558-1128,272426-2650,2686,"Noble Scott","P.O. Box 420, 1013 Vel Street",Tucson,Arizona,893-412-1079,594-95-05,F8B4C6BE-025A-0523-A551-9690C3534CEA
154,"CANA BEER & WINE","Ap #793-5862 Eu, St.",Tucson,Arizona,960-479-8390,192695-6895,2686,"Noble Scott","P.O. Box 420, 1013 Vel Street",Tucson,Arizona,893-412-1079,594-95-05,F8B4C6BE-025A-0523-A551-9690C3534CEA
125,"THE GREENE TURTLE","Ap #706-512 Odio Street",Glendale,Arizona,557-558-1128,272426-2650,2717,"Ryder Carney","P.O. Box 396, 6433 Nisi St.",Chandler,Arizona,390-987-0602,714-71-06,D319249D-AD92-3924-667E-E49626F7FF04
154,"CANA BEER & WINE","Ap #793-5862 Eu, St.",Tucson,Arizona,960-479-8390,192695-6895,2717,"Ryder Carney","P.O. Box 396, 6433 Nisi St.",Chandler,Arizona,390-987-0602,714-71-06,D319249D-AD92-3924-667E-E49626F7FF04
125,"THE GREENE TURTLE","Ap #706-512 Odio Street",Glendale,Arizona,557-558-1128,272426-2650,3259,"Yardley Sanders","4118 Quisque Rd.",Tucson,Arizona,625-495-0916,751-27-06,EFD67473-9D96-0463-22C9-97A2A6A2BDD6
154,"CANA BEER & WINE","Ap #793-5862 Eu, St.",Tucson,Arizona,960-479-8390,192695-6895,3259,"Yardley Sanders","4118 Quisque Rd.",Tucson,Arizona,625-495-0916,751-27-06,EFD67473-9D96-0463-22C9-97A2A6A2BDD6
125,"THE GREENE TURTLE","Ap #706-512 Odio Street",Glendale,Arizona,557-558-1128,272426-2650,3287,"Ivy Carroll","1328 Id, Rd.",Glendale,Arizona,295-348-0225,830-20-06,0CAEB2BC-6AAF-1CC2-88C2-31B259C1366C
154,"CANA BEER & WINE","Ap #793-5862 Eu, St.",Tucson,Arizona,960-479-8390,192695-6895,3287,"Ivy Carroll","1328 Id, Rd.",Glendale,Arizona,295-348-0225,830-20-06,0CAEB2BC-6AAF-1CC2-88C2-31B259C1366C
125,"THE GREENE TURTLE","Ap #706-512 Odio Street",Glendale,Arizona,557-558-1128,272426-2650,3299,"Amethyst Hendrix","176-6590 Ultrices St.",Chandler,Arizona,721-989-9317,677-12-02,0BE27FB5-CA7F-97BC-E497-3EE51BCEA6A8
154,"CANA BEER & WINE","Ap #793-5862 Eu, St.",Tucson,Arizona,960-479-8390,192695-6895,3299,"Amethyst Hendrix","176-6590 Ultrices St.",Chandler,Arizona,721-989-9317,677-12-02,0BE27FB5-CA7F-97BC-E497-3EE51BCEA6A8
125,"THE GREENE TURTLE","Ap #706-512 Odio Street",Glendale,Arizona,557-558-1128,272426-2650,3315,"Vincent Roach","P.O. Box 437, 4449 Ridiculus St.",Phoenix,Arizona,668-122-9150,645-24-05,26E648ED-91D6-2ED8-EB6F-6E3CA3318F3A
154,"CANA BEER & WINE","Ap #793-5862 Eu, St.",Tucson,Arizona,960-479-8390,192695-6895,3315,"Vincent Roach","P.O. Box 437, 4449 Ridiculus St.",Phoenix,Arizona,668-122-9150,645-24-05,26E648ED-91D6-2ED8-EB6F-6E3CA3318F3A
125,"THE GREENE TURTLE","Ap #706-512 Odio Street",Glendale,Arizona,557-558-1128,272426-2650,3319,"Ralph Fulton","P.O. Box 647, 3925 Egestas. Ave",Mesa,Arizona,906-599-0429,487-33-01,A4F431D5-AD9B-CF2B-6E1A-035ADBFCEC1B
154,"CANA BEER & WINE","Ap #793-5862 Eu, St.",Tucson,Arizona,960-479-8390,192695-6895,3319,"Ralph Fulton","P.O. Box 647, 3925 Egestas. Ave",Mesa,Arizona,906-599-0429,487-33-01,A4F431D5-AD9B-CF2B-6E1A-035ADBFCEC1B
125,"THE GREENE TURTLE","Ap #706-512 Odio Street",Glendale,Arizona,557-558-1128,272426-2650,3322,"Tarik Norris","P.O. Box 715, 6637 Ultricies Rd.",Chandler,Arizona,795-840-4464,340-07-04,17EA400F-2340-2996-1E10-AEE697023AC8
154,"CANA BEER & WINE","Ap #793-5862 Eu, St.",Tucson,Arizona,960-479-8390,192695-6895,3322,"Tarik Norris","P.O. Box 715, 6637 Ultricies Rd.",Chandler,Arizona,795-840-4464,340-07-04,17EA400F-2340-2996-1E10-AEE697023AC8
125,"THE GREENE TURTLE","Ap #706-512 Odio Street",Glendale,Arizona,557-558-1128,272426-2650,3329,"Leah Melton","184-7960 Orci. Avenue",Glendale,Arizona,952-484-5708,877-68-01,E4E2C947-1FD7-4B6A-9B2D-5F836B164EF2
154,"CANA BEER & WINE","Ap #793-5862 Eu, St.",Tucson,Arizona,960-479-8390,192695-6895,3329,"Leah Melton","184-7960 Orci. Avenue",Glendale,Arizona,952-484-5708,877-68-01,E4E2C947-1FD7-4B6A-9B2D-5F836B164EF2
125,"THE GREENE TURTLE","Ap #706-512 Odio Street",Glendale,Arizona,557-558-1128,272426-2650,3342,"Kiayada Fuentes","143-1393 Sem, St.",Glendale,Arizona,161-413-6082,696-43-03,FD89FD4D-682B-80A0-8938-E45160E57431
154,"CANA BEER & WINE","Ap #793-5862 Eu, St.",Tucson,Arizona,960-479-8390,192695-6895,3342,"Kiayada Fuentes","143-1393 Sem, St.",Glendale,Arizona,161-413-6082,696-43-03,FD89FD4D-682B-80A0-8938-E45160E57431
125,"THE GREENE TURTLE","Ap #706-512 Odio Street",Glendale,Arizona,557-558-1128,272426-2650,3360,"Venus Weber","4587 Libero. St.",Chandler,Arizona,279-390-0857,688-14-00,69076213-7281-5A0C-80AD-0C9D18EBA047
154,"CANA BEER & WINE","Ap #793-5862 Eu, St.",Tucson,Arizona,960-479-8390,192695-6895,3360,"Venus Weber","4587 Libero. St.",Chandler,Arizona,279-390-0857,688-14-00,69076213-7281-5A0C-80AD-0C9D18EBA047
125,"THE GREENE TURTLE","Ap #706-512 Odio Street",Glendale,Arizona,557-558-1128,272426-2650,3430,"Deborah Hendricks","2685 Nullam St.",Mesa,Arizona,106-552-2043,596-55-05,CB33C7B3-FE4C-71C4-38AC-0EA258916F93
154,"CANA BEER & WINE","Ap #793-5862 Eu, St.",Tucson,Arizona,960-479-8390,192695-6895,3430,"Deborah Hendricks","2685 Nullam St.",Mesa,Arizona,106-552-2043,596-55-05,CB33C7B3-FE4C-71C4-38AC-0EA258916F93
125,"THE GREENE TURTLE","Ap #706-512 Odio Street",Glendale,Arizona,557-558-1128,272426-2650,3434,"Quinn Bell","248-3346 Nec Ave",Phoenix,Arizona,884-869-8855,671-18-07,00D7739B-D1C6-4CCD-5674-8698269EEEF5
154,"CANA BEER & WINE","Ap #793-5862 Eu, St.",Tucson,Arizona,960-479-8390,192695-6895,3434,"Quinn Bell","248-3346 Nec Ave",Phoenix,Arizona,884-869-8855,671-18-07,00D7739B-D1C6-4CCD-5674-8698269EEEF5
125,"THE GREENE TURTLE","Ap #706-512 Odio Street",Glendale,Arizona,557-558-1128,272426-2650,3448,"Sage Valentine","Ap #825-9958 Blandit St.",Glendale,Arizona,155-189-6403,267-34-08,95A5B5F1-2C5B-6A08-C8E5-97C3B7CCAA71
154,"CANA BEER & WINE","Ap #793-5862 Eu, St.",Tucson,Arizona,960-479-8390,192695-6895,3448,"Sage Valentine","Ap #825-9958 Blandit St.",Glendale,Arizona,155-189-6403,267-34-08,95A5B5F1-2C5B-6A08-C8E5-97C3B7CCAA71
125,"THE GREENE TURTLE","Ap #706-512 Odio Street",Glendale,Arizona,557-558-1128,272426-2650,3461,"Hakeem Combs","P.O. Box 463, 4436 Metus. Rd.",Tucson,Arizona,134-994-4764,242-91-02,4E78C093-30FB-0C2A-C0BD-2FE060122477
154,"CANA BEER & WINE","Ap #793-5862 Eu, St.",Tucson,Arizona,960-479-8390,192695-6895,3461,"Hakeem Combs","P.O. Box 463, 4436 Metus. Rd.",Tucson,Arizona,134-994-4764,242-91-02,4E78C093-30FB-0C2A-C0BD-2FE060122477
125,"THE GREENE TURTLE","Ap #706-512 Odio Street",Glendale,Arizona,557-558-1128,272426-2650,3510,"Althea Price","P.O. Box 656, 7542 Sed, Street",Chandler,Arizona,364-718-9782,606-85-01,E7FA2325-D271-BBC0-F057-CA02353FB99C
154,"CANA BEER & WINE","Ap #793-5862 Eu, St.",Tucson,Arizona,960-479-8390,192695-6895,3510,"Althea Price","P.O. Box 656, 7542 Sed, Street",Chandler,Arizona,364-718-9782,606-85-01,E7FA2325-D271-BBC0-F057-CA02353FB99C
125,"THE GREENE TURTLE","Ap #706-512 Odio Street",Glendale,Arizona,557-558-1128,272426-2650,3515,"Hilary Navarro","Ap #576-363 Sem. Rd.",Phoenix,Arizona,729-576-0840,504-34-09,C66925CE-EAB4-8B0C-452E-811A0329D68A
154,"CANA BEER & WINE","Ap #793-5862 Eu, St.",Tucson,Arizona,960-479-8390,192695-6895,3515,"Hilary Navarro","Ap #576-363 Sem. Rd.",Phoenix,Arizona,729-576-0840,504-34-09,C66925CE-EAB4-8B0C-452E-811A0329D68A
125,"THE GREENE TURTLE","Ap #706-512 Odio Street",Glendale,Arizona,557-558-1128,272426-2650,3550,"Ginger Hayes","P.O. Box 803, 7377 Velit Rd.",Chandler,Arizona,162-590-0255,775-83-09,44C2AEEF-BD35-32B1-F458-2D0616F52A0D
154,"CANA BEER & WINE","Ap #793-5862 Eu, St.",Tucson,Arizona,960-479-8390,192695-6895,3550,"Ginger Hayes","P.O. Box 803, 7377 Velit Rd.",Chandler,Arizona,162-590-0255,775-83-09,44C2AEEF-BD35-32B1-F458-2D0616F52A0D
125,"THE GREENE TURTLE","Ap #706-512 Odio Street",Glendale,Arizona,557-558-1128,272426-2650,3604,"Belle Espinoza","181-3218 Porttitor St.",Chandler,Arizona,259-136-0056,201-50-03,0FBD7FF1-93D1-7BF9-C4E8-1793B5FFB19A
154,"CANA BEER & WINE","Ap #793-5862 Eu, St.",Tucson,Arizona,960-479-8390,192695-6895,3604,"Belle Espinoza","181-3218 Porttitor St.",Chandler,Arizona,259-136-0056,201-50-03,0FBD7FF1-93D1-7BF9-C4E8-1793B5FFB19A
125,"THE GREENE TURTLE","Ap #706-512 Odio Street",Glendale,Arizona,557-558-1128,272426-2650,3609,"Neil Howard","4701 Sit Ave",Mesa,Arizona,869-190-4152,784-38-00,E7DF8840-831A-8687-1B25-82E1527C7B2F
154,"CANA BEER & WINE","Ap #793-5862 Eu, St.",Tucson,Arizona,960-479-8390,192695-6895,3609,"Neil Howard","4701 Sit Ave",Mesa,Arizona,869-190-4152,784-38-00,E7DF8840-831A-8687-1B25-82E1527C7B2F
125,"THE GREENE TURTLE","Ap #706-512 Odio Street",Glendale,Arizona,557-558-1128,272426-2650,3679,"India Drake","5943 Ut Street",Glendale,Arizona,812-721-1667,853-11-02,C6D2006A-D02A-F599-6F73-04F25432DAE0
154,"CANA BEER & WINE","Ap #793-5862 Eu, St.",Tucson,Arizona,960-479-8390,192695-6895,3679,"India Drake","5943 Ut Street",Glendale,Arizona,812-721-1667,853-11-02,C6D2006A-D02A-F599-6F73-04F25432DAE0
125,"THE GREENE TURTLE","Ap #706-512 Odio Street",Glendale,Arizona,557-558-1128,272426-2650,3690,"Raya Forbes","P.O. Box 325, 8880 Lobortis Av.",Tucson,Arizona,372-498-7483,523-55-03,F0DDEFC7-DE27-BABD-353C-E25840AAA101
154,"CANA BEER & WINE","Ap #793-5862 Eu, St.",Tucson,Arizona,960-479-8390,192695-6895,3690,"Raya Forbes","P.O. Box 325, 8880 Lobortis Av.",Tucson,Arizona,372-498-7483,523-55-03,F0DDEFC7-DE27-BABD-353C-E25840AAA101
125,"THE GREENE TURTLE","Ap #706-512 Odio Street",Glendale,Arizona,557-558-1128,272426-2650,3760,"Jonah Cole","4278 Vulputate Rd.",Chandler,Arizona,799-499-1987,525-06-07,BB76D9A1-86FE-C0F7-E95E-07399C18DA87
154,"CANA BEER & WINE","Ap #793-5862 Eu, St.",Tucson,Arizona,960-479-8390,192695-6895,3760,"Jonah Cole","4278 Vulputate Rd.",Chandler,Arizona,799-499-1987,525-06-07,BB76D9A1-86FE-C0F7-E95E-07399C18DA87
125,"THE GREENE TURTLE","Ap #706-512 Odio Street",Glendale,Arizona,557-558-1128,272426-2650,3772,"Jorden Sanchez","869-8234 Vivamus Av.",Mesa,Arizona,664-593-5095,392-66-09,EB3EF167-7E39-60AC-A8FF-2E91F7D68D3E
154,"CANA BEER & WINE","Ap #793-5862 Eu, St.",Tucson,Arizona,960-479-8390,192695-6895,3772,"Jorden Sanchez","869-8234 Vivamus Av.",Mesa,Arizona,664-593-5095,392-66-09,EB3EF167-7E39-60AC-A8FF-2E91F7D68D3E
125,"THE GREENE TURTLE","Ap #706-512 Odio Street",Glendale,Arizona,557-558-1128,272426-2650,3819,"Cedric Harrell","4997 Malesuada St.",Phoenix,Arizona,115-237-4711,502-22-01,52608F08-0227-77E0-6575-417A941372BC
154,"CANA BEER & WINE","Ap #793-5862 Eu, St.",Tucson,Arizona,960-479-8390,192695-6895,3819,"Cedric Harrell","4997 Malesuada St.",Phoenix,Arizona,115-237-4711,502-22-01,52608F08-0227-77E0-6575-417A941372BC
125,"THE GREENE TURTLE","Ap #706-512 Odio Street",Glendale,Arizona,557-558-1128,272426-2650,3839,"Echo Guthrie","P.O. Box 754, 3846 Vel St.",Chandler,Arizona,225-500-7446,558-49-04,438CF28E-DBC9-3A92-9424-E1F899703C2A
154,"CANA BEER & WINE","Ap #793-5862 Eu, St.",Tucson,Arizona,960-479-8390,192695-6895,3839,"Echo Guthrie","P.O. Box 754, 3846 Vel St.",Chandler,Arizona,225-500-7446,558-49-04,438CF28E-DBC9-3A92-9424-E1F899703C2A
125,"THE GREENE TURTLE","Ap #706-512 Odio Street",Glendale,Arizona,557-558-1128,272426-2650,3952,"Amethyst Carlson","Ap #741-2740 Semper Road",Glendale,Arizona,237-877-3324,171-31-08,EBD3D5B2-215E-6653-5B98-F5C9F0A05BD0
154,"CANA BEER & WINE","Ap #793-5862 Eu, St.",Tucson,Arizona,960-479-8390,192695-6895,3952,"Amethyst Carlson","Ap #741-2740 Semper Road",Glendale,Arizona,237-877-3324,171-31-08,EBD3D5B2-215E-6653-5B98-F5C9F0A05BD0
125,"THE GREENE TURTLE","Ap #706-512 Odio Street",Glendale,Arizona,557-558-1128,272426-2650,4006,"Lacey Holder","777 In St.",Phoenix,Arizona,681-470-7140,593-36-05,BDFE75AE-8248-01DD-91C0-49E1160A5A4B
154,"CANA BEER & WINE","Ap #793-5862 Eu, St.",Tucson,Arizona,960-479-8390,192695-6895,4006,"Lacey Holder","777 In St.",Phoenix,Arizona,681-470-7140,593-36-05,BDFE75AE-8248-01DD-91C0-49E1160A5A4B
125,"THE GREENE TURTLE","Ap #706-512 Odio Street",Glendale,Arizona,557-558-1128,272426-2650,4026,"Sawyer Barnett","P.O. Box 484, 6710 Rutrum St.",Chandler,Arizona,233-775-3848,228-99-04,3BDC9B52-3EC2-A85A-4D6A-E8A232B88028
154,"CANA BEER & WINE","Ap #793-5862 Eu, St.",Tucson,Arizona,960-479-8390,192695-6895,4026,"Sawyer Barnett","P.O. Box 484, 6710 Rutrum St.",Chandler,Arizona,233-775-3848,228-99-04,3BDC9B52-3EC2-A85A-4D6A-E8A232B88028
125,"THE GREENE TURTLE","Ap #706-512 Odio Street",Glendale,Arizona,557-558-1128,272426-2650,4060,"Fulton Buck","Ap #893-3605 Magna. Street",Phoenix,Arizona,638-469-1871,553-93-08,298C754B-0B95-FB97-3C30-FAABEFF00B62
154,"CANA BEER & WINE","Ap #793-5862 Eu, St.",Tucson,Arizona,960-479-8390,192695-6895,4060,"Fulton Buck","Ap #893-3605 Magna. Street",Phoenix,Arizona,638-469-1871,553-93-08,298C754B-0B95-FB97-3C30-FAABEFF00B62
125,"THE GREENE TURTLE","Ap #706-512 Odio Street",Glendale,Arizona,557-558-1128,272426-2650,4084,"Shaeleigh Martinez","P.O. Box 363, 402 Donec Ave",Tucson,Arizona,357-180-0675,468-28-04,2BF4F04B-5F3D-E967-410A-DC08C4CB3BC2
154,"CANA BEER & WINE","Ap #793-5862 Eu, St.",Tucson,Arizona,960-479-8390,192695-6895,4084,"Shaeleigh Martinez","P.O. Box 363, 402 Donec Ave",Tucson,Arizona,357-180-0675,468-28-04,2BF4F04B-5F3D-E967-410A-DC08C4CB3BC2
125,"THE GREENE TURTLE","Ap #706-512 Odio Street",Glendale,Arizona,557-558-1128,272426-2650,4121,"Elizabeth Mccray","P.O. Box 126, 3240 Amet, Road",Chandler,Arizona,122-700-4599,386-30-07,F4131864-29EF-F90F-325E-93B9AB4F87EF
154,"CANA BEER & WINE","Ap #793-5862 Eu, St.",Tucson,Arizona,960-479-8390,192695-6895,4121,"Elizabeth Mccray","P.O. Box 126, 3240 Amet, Road",Chandler,Arizona,122-700-4599,386-30-07,F4131864-29EF-F90F-325E-93B9AB4F87EF
125,"THE GREENE TURTLE","Ap #706-512 Odio Street",Glendale,Arizona,557-558-1128,272426-2650,4131,"Sheila David","1546 Semper St.",Mesa,Arizona,250-270-1276,634-74-02,BD28B9D2-B385-164A-DC36-3AE87AC33BAF
154,"CANA BEER & WINE","Ap #793-5862 Eu, St.",Tucson,Arizona,960-479-8390,192695-6895,4131,"Sheila David","1546 Semper St.",Mesa,Arizona,250-270-1276,634-74-02,BD28B9D2-B385-164A-DC36-3AE87AC33BAF
125,"THE GREENE TURTLE","Ap #706-512 Odio Street",Glendale,Arizona,557-558-1128,272426-2650,4259,"Selma Rios","P.O. Box 878, 1530 Montes, Rd.",Glendale,Arizona,930-212-2573,240-73-00,FFE1E0C3-8583-FB50-8C27-5229BDC40531
154,"CANA BEER & WINE","Ap #793-5862 Eu, St.",Tucson,Arizona,960-479-8390,192695-6895,4259,"Selma Rios","P.O. Box 878, 1530 Montes, Rd.",Glendale,Arizona,930-212-2573,240-73-00,FFE1E0C3-8583-FB50-8C27-5229BDC40531
125,"THE GREENE TURTLE","Ap #706-512 Odio Street",Glendale,Arizona,557-558-1128,272426-2650,4350,"Charlotte Atkins","Ap #916-3998 Id Avenue",Chandler,Arizona,589-462-0466,039-78-07,3A7E693A-E487-8EAE-991B-01EB6CDEFBE4
154,"CANA BEER & WINE","Ap #793-5862 Eu, St.",Tucson,Arizona,960-479-8390,192695-6895,4350,"Charlotte Atkins","Ap #916-3998 Id Avenue",Chandler,Arizona,589-462-0466,039-78-07,3A7E693A-E487-8EAE-991B-01EB6CDEFBE4
125,"THE GREENE TURTLE","Ap #706-512 Odio Street",Glendale,Arizona,557-558-1128,272426-2650,4469,"Troy Harmon","657-4392 Ac Avenue",Tucson,Arizona,624-663-7841,880-96-05,38D39735-7BA3-53A2-F55C-12CF1461FE91
154,"CANA BEER & WINE","Ap #793-5862 Eu, St.",Tucson,Arizona,960-479-8390,192695-6895,4469,"Troy Harmon","657-4392 Ac Avenue",Tucson,Arizona,624-663-7841,880-96-05,38D39735-7BA3-53A2-F55C-12CF1461FE91
125,"THE GREENE TURTLE","Ap #706-512 Odio Street",Glendale,Arizona,557-558-1128,272426-2650,4527,"Jillian Galloway","P.O. Box 134, 9183 Enim. Avenue",Tucson,Arizona,637-124-0262,600-75-07,EFAC8CF2-533B-D7D4-B306-0BECBB2A149A
154,"CANA BEER & WINE","Ap #793-5862 Eu, St.",Tucson,Arizona,960-479-8390,192695-6895,4527,"Jillian Galloway","P.O. Box 134, 9183 Enim. Avenue",Tucson,Arizona,637-124-0262,600-75-07,EFAC8CF2-533B-D7D4-B306-0BECBB2A149A
125,"THE GREENE TURTLE","Ap #706-512 Odio Street",Glendale,Arizona,557-558-1128,272426-2650,4549,"Kaden Galloway","Ap #735-4098 Ut, Ave",Phoenix,Arizona,104-211-0711,786-26-09,24A5641D-2E85-46E0-F33D-85E7F1BA48D0
154,"CANA BEER & WINE","Ap #793-5862 Eu, St.",Tucson,Arizona,960-479-8390,192695-6895,4549,"Kaden Galloway","Ap #735-4098 Ut, Ave",Phoenix,Arizona,104-211-0711,786-26-09,24A5641D-2E85-46E0-F33D-85E7F1BA48D0
125,"THE GREENE TURTLE","Ap #706-512 Odio Street",Glendale,Arizona,557-558-1128,272426-2650,4554,"Peter Giles","3366 Velit. Avenue",Glendale,Arizona,739-909-4998,103-33-09,59A1AE77-8F3F-E6ED-80F5-57689BAAEB86
154,"CANA BEER & WINE","Ap #793-5862 Eu, St.",Tucson,Arizona,960-479-8390,192695-6895,4554,"Peter Giles","3366 Velit. Avenue",Glendale,Arizona,739-909-4998,103-33-09,59A1AE77-8F3F-E6ED-80F5-57689BAAEB86
125,"THE GREENE TURTLE","Ap #706-512 Odio Street",Glendale,Arizona,557-558-1128,272426-2650,4627,"Jamal Gregory","Ap #116-1356 Massa Av.",Phoenix,Arizona,201-632-3286,153-53-04,813FC7EE-915A-477F-5EAB-4EFF4BF2BA4B
154,"CANA BEER & WINE","Ap #793-5862 Eu, St.",Tucson,Arizona,960-479-8390,192695-6895,4627,"Jamal Gregory","Ap #116-1356 Massa Av.",Phoenix,Arizona,201-632-3286,153-53-04,813FC7EE-915A-477F-5EAB-4EFF4BF2BA4B
125,"THE GREENE TURTLE","Ap #706-512 Odio Street",Glendale,Arizona,557-558-1128,272426-2650,4658,"Whitney Simmons","Ap #335-2720 Ut, Road",Chandler,Arizona,614-377-4294,667-15-07,050D7657-B5A6-018B-E245-A86FF47C9AC8
154,"CANA BEER & WINE","Ap #793-5862 Eu, St.",Tucson,Arizona,960-479-8390,192695-6895,4658,"Whitney Simmons","Ap #335-2720 Ut, Road",Chandler,Arizona,614-377-4294,667-15-07,050D7657-B5A6-018B-E245-A86FF47C9AC8
125,"THE GREENE TURTLE","Ap #706-512 Odio Street",Glendale,Arizona,557-558-1128,272426-2650,4676,"Jack Love","276-275 Sed Av.",Glendale,Arizona,796-401-8819,845-65-05,280708B9-53CC-B0AF-68A7-0486FE88680E
154,"CANA BEER & WINE","Ap #793-5862 Eu, St.",Tucson,Arizona,960-479-8390,192695-6895,4676,"Jack Love","276-275 Sed Av.",Glendale,Arizona,796-401-8819,845-65-05,280708B9-53CC-B0AF-68A7-0486FE88680E
125,"THE GREENE TURTLE","Ap #706-512 Odio Street",Glendale,Arizona,557-558-1128,272426-2650,4788,"Erasmus Mcfarland","Ap #772-1521 Magna. Av.",Mesa,Arizona,548-262-2385,790-93-06,3A769A6E-1C4E-BF7C-3249-993B009FDB35
154,"CANA BEER & WINE","Ap #793-5862 Eu, St.",Tucson,Arizona,960-479-8390,192695-6895,4788,"Erasmus Mcfarland","Ap #772-1521 Magna. Av.",Mesa,Arizona,548-262-2385,790-93-06,3A769A6E-1C4E-BF7C-3249-993B009FDB35
125,"THE GREENE TURTLE","Ap #706-512 Odio Street",Glendale,Arizona,557-558-1128,272426-2650,4835,"Jack Langley","9222 Nec, Rd.",Mesa,Arizona,371-669-9647,396-74-01,F747E879-DCE5-DFCF-CAA4-B71E6BDC7AAA
154,"CANA BEER & WINE","Ap #793-5862 Eu, St.",Tucson,Arizona,960-479-8390,192695-6895,4835,"Jack Langley","9222 Nec, Rd.",Mesa,Arizona,371-669-9647,396-74-01,F747E879-DCE5-DFCF-CAA4-B71E6BDC7AAA
125,"THE GREENE TURTLE","Ap #706-512 Odio Street",Glendale,Arizona,557-558-1128,272426-2650,4858,"Quamar Foreman","4667 Cursus Ave",Glendale,Arizona,551-945-8105,893-77-00,E5738EE4-76EF-D6BE-ADCB-07248DB0CE5D
154,"CANA BEER & WINE","Ap #793-5862 Eu, St.",Tucson,Arizona,960-479-8390,192695-6895,4858,"Quamar Foreman","4667 Cursus Ave",Glendale,Arizona,551-945-8105,893-77-00,E5738EE4-76EF-D6BE-ADCB-07248DB0CE5D
125,"THE GREENE TURTLE","Ap #706-512 Odio Street",Glendale,Arizona,557-558-1128,272426-2650,4954,"Solomon Snow","Ap #111-7935 Orci Av.",Chandler,Arizona,859-183-3938,769-86-00,02BB11B3-A62D-90E8-B12A-698B4EF62200
154,"CANA BEER & WINE","Ap #793-5862 Eu, St.",Tucson,Arizona,960-479-8390,192695-6895,4954,"Solomon Snow","Ap #111-7935 Orci Av.",Chandler,Arizona,859-183-3938,769-86-00,02BB11B3-A62D-90E8-B12A-698B4EF62200
125,"THE GREENE TURTLE","Ap #706-512 Odio Street",Glendale,Arizona,557-558-1128,272426-2650,4962,"Lael Harris","720-777 Felis, St.",Glendale,Arizona,587-855-0191,102-68-04,26605FCE-E251-8ED7-5838-62EEDEB505A8
154,"CANA BEER & WINE","Ap #793-5862 Eu, St.",Tucson,Arizona,960-479-8390,192695-6895,4962,"Lael Harris","720-777 Felis, St.",Glendale,Arizona,587-855-0191,102-68-04,26605FCE-E251-8ED7-5838-62EEDEB505A8
