id,Bar,Street,City,State,Phone,License,id,Name,Street,City,State,Phone,SSN,DriverLicense
85,"L'Avant Comptoir de la Mer","139-9166 Sociis Rd.",Fayetteville,Arkansas,852-145-9715,972787-2484,5,"Solomon Ratliff","P.O. Box 377, 4676 Arcu. Avenue",Jonesboro,Arkansas,546-950-1691,201-01-01,E00EADAD-DF6F-50F3-CA2C-91C977200350
92,"DOCK OF THE BAY","6134 Non, Rd.","Little Rock",Arkansas,790-526-9983,835167-6583,5,"Solomon Ratliff","P.O. Box 377, 4676 Arcu. Avenue",Jonesboro,Arkansas,546-950-1691,201-01-01,E00EADAD-DF6F-50F3-CA2C-91C977200350
98,"METRO CLUB","P.O. Box 753, 9068 In, Avenue","Little Rock",Arkansas,505-442-3555,289884-2378,5,"Solomon Ratliff","P.O. Box 377, 4676 Arcu. Avenue",Jonesboro,Arkansas,546-950-1691,201-01-01,E00EADAD-DF6F-50F3-CA2C-91C977200350
165,"CRISFIELD SEAFOOD RESTAURANT","P.O. Box 522, 3751 Ut Rd.",Springdale,Arkansas,889-988-7244,195256-6840,5,"Solomon Ratliff","P.O. Box 377, 4676 Arcu. Avenue",Jonesboro,Arkansas,546-950-1691,201-01-01,E00EADAD-DF6F-50F3-CA2C-91C977200350
237,"LA MADELEINE","2848 Tortor Rd.",Fayetteville,Arkansas,693-408-7304,027174-2033,5,"Solomon Ratliff","P.O. Box 377, 4676 Arcu. Avenue",Jonesboro,Arkansas,546-950-1691,201-01-01,E00EADAD-DF6F-50F3-CA2C-91C977200350
85,"L'Avant Comptoir de la Mer","139-9166 Sociis Rd.",Fayetteville,Arkansas,852-145-9715,972787-2484,44,"Clio Sampson","Ap #373-1197 Amet Avenue",Fayetteville,Arkansas,293-734-2169,747-65-06,F5105F91-5059-34D0-5BCF-D52D7563842C
92,"DOCK OF THE BAY","6134 Non, Rd.","Little Rock",Arkansas,790-526-9983,835167-6583,44,"Clio Sampson","Ap #373-1197 Amet Avenue",Fayetteville,Arkansas,293-734-2169,747-65-06,F5105F91-5059-34D0-5BCF-D52D7563842C
98,"METRO CLUB","P.O. Box 753, 9068 In, Avenue","Little Rock",Arkansas,505-442-3555,289884-2378,44,"Clio Sampson","Ap #373-1197 Amet Avenue",Fayetteville,Arkansas,293-734-2169,747-65-06,F5105F91-5059-34D0-5BCF-D52D7563842C
165,"CRISFIELD SEAFOOD RESTAURANT","P.O. Box 522, 3751 Ut Rd.",Springdale,Arkansas,889-988-7244,195256-6840,44,"Clio Sampson","Ap #373-1197 Amet Avenue",Fayetteville,Arkansas,293-734-2169,747-65-06,F5105F91-5059-34D0-5BCF-D52D7563842C
237,"LA MADELEINE","2848 Tortor Rd.",Fayetteville,Arkansas,693-408-7304,027174-2033,44,"Clio Sampson","Ap #373-1197 Amet Avenue",Fayetteville,Arkansas,293-734-2169,747-65-06,F5105F91-5059-34D0-5BCF-D52D7563842C
85,"L'Avant Comptoir de la Mer","139-9166 Sociis Rd.",Fayetteville,Arkansas,852-145-9715,972787-2484,123,"Andrew Craft","4776 Nulla Rd.",Springdale,Arkansas,370-571-4686,001-56-08,EA62D7C6-4F32-CF0A-4DBA-A80935B9B695
92,"DOCK OF THE BAY","6134 Non, Rd.","Little Rock",Arkansas,790-526-9983,835167-6583,123,"Andrew Craft","4776 Nulla Rd.",Springdale,Arkansas,370-571-4686,001-56-08,EA62D7C6-4F32-CF0A-4DBA-A80935B9B695
98,"METRO CLUB","P.O. Box 753, 9068 In, Avenue","Little Rock",Arkansas,505-442-3555,289884-2378,123,"Andrew Craft","4776 Nulla Rd.",Springdale,Arkansas,370-571-4686,001-56-08,EA62D7C6-4F32-CF0A-4DBA-A80935B9B695
165,"CRISFIELD SEAFOOD RESTAURANT","P.O. Box 522, 3751 Ut Rd.",Springdale,Arkansas,889-988-7244,195256-6840,123,"Andrew Craft","4776 Nulla Rd.",Springdale,Arkansas,370-571-4686,001-56-08,EA62D7C6-4F32-CF0A-4DBA-A80935B9B695
237,"LA MADELEINE","2848 Tortor Rd.",Fayetteville,Arkansas,693-408-7304,027174-2033,123,"Andrew Craft","4776 Nulla Rd.",Springdale,Arkansas,370-571-4686,001-56-08,EA62D7C6-4F32-CF0A-4DBA-A80935B9B695
85,"L'Avant Comptoir de la Mer","139-9166 Sociis Rd.",Fayetteville,Arkansas,852-145-9715,972787-2484,798,"Aurora Jensen","Ap #309-5123 Nulla St.",Springdale,Arkansas,548-272-4780,444-43-02,A008190B-F494-A443-A572-37623693BC60
92,"DOCK OF THE BAY","6134 Non, Rd.","Little Rock",Arkansas,790-526-9983,835167-6583,798,"Aurora Jensen","Ap #309-5123 Nulla St.",Springdale,Arkansas,548-272-4780,444-43-02,A008190B-F494-A443-A572-37623693BC60
98,"METRO CLUB","P.O. Box 753, 9068 In, Avenue","Little Rock",Arkansas,505-442-3555,289884-2378,798,"Aurora Jensen","Ap #309-5123 Nulla St.",Springdale,Arkansas,548-272-4780,444-43-02,A008190B-F494-A443-A572-37623693BC60
165,"CRISFIELD SEAFOOD RESTAURANT","P.O. Box 522, 3751 Ut Rd.",Springdale,Arkansas,889-988-7244,195256-6840,798,"Aurora Jensen","Ap #309-5123 Nulla St.",Springdale,Arkansas,548-272-4780,444-43-02,A008190B-F494-A443-A572-37623693BC60
237,"LA MADELEINE","2848 Tortor Rd.",Fayetteville,Arkansas,693-408-7304,027174-2033,798,"Aurora Jensen","Ap #309-5123 Nulla St.",Springdale,Arkansas,548-272-4780,444-43-02,A008190B-F494-A443-A572-37623693BC60
85,"L'Avant Comptoir de la Mer","139-9166 Sociis Rd.",Fayetteville,Arkansas,852-145-9715,972787-2484,817,"Lawrence Pratt","P.O. Box 902, 7647 Vestibulum St.",Fayetteville,Arkansas,980-271-1096,283-81-05,2B3530D3-62FF-0770-B3DE-6B0B694E108F
92,"DOCK OF THE BAY","6134 Non, Rd.","Little Rock",Arkansas,790-526-9983,835167-6583,817,"Lawrence Pratt","P.O. Box 902, 7647 Vestibulum St.",Fayetteville,Arkansas,980-271-1096,283-81-05,2B3530D3-62FF-0770-B3DE-6B0B694E108F
98,"METRO CLUB","P.O. Box 753, 9068 In, Avenue","Little Rock",Arkansas,505-442-3555,289884-2378,817,"Lawrence Pratt","P.O. Box 902, 7647 Vestibulum St.",Fayetteville,Arkansas,980-271-1096,283-81-05,2B3530D3-62FF-0770-B3DE-6B0B694E108F
165,"CRISFIELD SEAFOOD RESTAURANT","P.O. Box 522, 3751 Ut Rd.",Springdale,Arkansas,889-988-7244,195256-6840,817,"Lawrence Pratt","P.O. Box 902, 7647 Vestibulum St.",Fayetteville,Arkansas,980-271-1096,283-81-05,2B3530D3-62FF-0770-B3DE-6B0B694E108F
237,"LA MADELEINE","2848 Tortor Rd.",Fayetteville,Arkansas,693-408-7304,027174-2033,817,"Lawrence Pratt","P.O. Box 902, 7647 Vestibulum St.",Fayetteville,Arkansas,980-271-1096,283-81-05,2B3530D3-62FF-0770-B3DE-6B0B694E108F
85,"L'Avant Comptoir de la Mer","139-9166 Sociis Rd.",Fayetteville,Arkansas,852-145-9715,972787-2484,841,"Shay Kemp","Ap #282-5684 Vel Ave",Fayetteville,Arkansas,315-117-2504,292-52-08,A7CB6B3F-DEC3-E868-6581-4633CA1A4C84
92,"DOCK OF THE BAY","6134 Non, Rd.","Little Rock",Arkansas,790-526-9983,835167-6583,841,"Shay Kemp","Ap #282-5684 Vel Ave",Fayetteville,Arkansas,315-117-2504,292-52-08,A7CB6B3F-DEC3-E868-6581-4633CA1A4C84
98,"METRO CLUB","P.O. Box 753, 9068 In, Avenue","Little Rock",Arkansas,505-442-3555,289884-2378,841,"Shay Kemp","Ap #282-5684 Vel Ave",Fayetteville,Arkansas,315-117-2504,292-52-08,A7CB6B3F-DEC3-E868-6581-4633CA1A4C84
165,"CRISFIELD SEAFOOD RESTAURANT","P.O. Box 522, 3751 Ut Rd.",Springdale,Arkansas,889-988-7244,195256-6840,841,"Shay Kemp","Ap #282-5684 Vel Ave",Fayetteville,Arkansas,315-117-2504,292-52-08,A7CB6B3F-DEC3-E868-6581-4633CA1A4C84
237,"LA MADELEINE","2848 Tortor Rd.",Fayetteville,Arkansas,693-408-7304,027174-2033,841,"Shay Kemp","Ap #282-5684 Vel Ave",Fayetteville,Arkansas,315-117-2504,292-52-08,A7CB6B3F-DEC3-E868-6581-4633CA1A4C84
85,"L'Avant Comptoir de la Mer","139-9166 Sociis Rd.",Fayetteville,Arkansas,852-145-9715,972787-2484,889,"Basil Hutchinson","P.O. Box 438, 7107 Accumsan Avenue","Little Rock",Arkansas,913-689-2908,591-34-07,F3E1BEE8-ADC0-88B1-81DA-0049DE4D886F
92,"DOCK OF THE BAY","6134 Non, Rd.","Little Rock",Arkansas,790-526-9983,835167-6583,889,"Basil Hutchinson","P.O. Box 438, 7107 Accumsan Avenue","Little Rock",Arkansas,913-689-2908,591-34-07,F3E1BEE8-ADC0-88B1-81DA-0049DE4D886F
98,"METRO CLUB","P.O. Box 753, 9068 In, Avenue","Little Rock",Arkansas,505-442-3555,289884-2378,889,"Basil Hutchinson","P.O. Box 438, 7107 Accumsan Avenue","Little Rock",Arkansas,913-689-2908,591-34-07,F3E1BEE8-ADC0-88B1-81DA-0049DE4D886F
165,"CRISFIELD SEAFOOD RESTAURANT","P.O. Box 522, 3751 Ut Rd.",Springdale,Arkansas,889-988-7244,195256-6840,889,"Basil Hutchinson","P.O. Box 438, 7107 Accumsan Avenue","Little Rock",Arkansas,913-689-2908,591-34-07,F3E1BEE8-ADC0-88B1-81DA-0049DE4D886F
237,"LA MADELEINE","2848 Tortor Rd.",Fayetteville,Arkansas,693-408-7304,027174-2033,889,"Basil Hutchinson","P.O. Box 438, 7107 Accumsan Avenue","Little Rock",Arkansas,913-689-2908,591-34-07,F3E1BEE8-ADC0-88B1-81DA-0049DE4D886F
85,"L'Avant Comptoir de la Mer","139-9166 Sociis Rd.",Fayetteville,Arkansas,852-145-9715,972787-2484,950,"Brenden Boyle","716-4221 In St.",Springdale,Arkansas,638-662-1459,775-75-09,2E433C1B-B6CF-12BA-1A28-9E5C794DD9CA
92,"DOCK OF THE BAY","6134 Non, Rd.","Little Rock",Arkansas,790-526-9983,835167-6583,950,"Brenden Boyle","716-4221 In St.",Springdale,Arkansas,638-662-1459,775-75-09,2E433C1B-B6CF-12BA-1A28-9E5C794DD9CA
98,"METRO CLUB","P.O. Box 753, 9068 In, Avenue","Little Rock",Arkansas,505-442-3555,289884-2378,950,"Brenden Boyle","716-4221 In St.",Springdale,Arkansas,638-662-1459,775-75-09,2E433C1B-B6CF-12BA-1A28-9E5C794DD9CA
165,"CRISFIELD SEAFOOD RESTAURANT","P.O. Box 522, 3751 Ut Rd.",Springdale,Arkansas,889-988-7244,195256-6840,950,"Brenden Boyle","716-4221 In St.",Springdale,Arkansas,638-662-1459,775-75-09,2E433C1B-B6CF-12BA-1A28-9E5C794DD9CA
237,"LA MADELEINE","2848 Tortor Rd.",Fayetteville,Arkansas,693-408-7304,027174-2033,950,"Brenden Boyle","716-4221 In St.",Springdale,Arkansas,638-662-1459,775-75-09,2E433C1B-B6CF-12BA-1A28-9E5C794DD9CA
85,"L'Avant Comptoir de la Mer","139-9166 Sociis Rd.",Fayetteville,Arkansas,852-145-9715,972787-2484,965,"Gemma Guy","514-8217 Dictum St.",Jonesboro,Arkansas,799-994-4592,462-13-04,D24DE551-CA25-A7E6-AC52-B91190F65212
92,"DOCK OF THE BAY","6134 Non, Rd.","Little Rock",Arkansas,790-526-9983,835167-6583,965,"Gemma Guy","514-8217 Dictum St.",Jonesboro,Arkansas,799-994-4592,462-13-04,D24DE551-CA25-A7E6-AC52-B91190F65212
98,"METRO CLUB","P.O. Box 753, 9068 In, Avenue","Little Rock",Arkansas,505-442-3555,289884-2378,965,"Gemma Guy","514-8217 Dictum St.",Jonesboro,Arkansas,799-994-4592,462-13-04,D24DE551-CA25-A7E6-AC52-B91190F65212
165,"CRISFIELD SEAFOOD RESTAURANT","P.O. Box 522, 3751 Ut Rd.",Springdale,Arkansas,889-988-7244,195256-6840,965,"Gemma Guy","514-8217 Dictum St.",Jonesboro,Arkansas,799-994-4592,462-13-04,D24DE551-CA25-A7E6-AC52-B91190F65212
237,"LA MADELEINE","2848 Tortor Rd.",Fayetteville,Arkansas,693-408-7304,027174-2033,965,"Gemma Guy","514-8217 Dictum St.",Jonesboro,Arkansas,799-994-4592,462-13-04,D24DE551-CA25-A7E6-AC52-B91190F65212
85,"L'Avant Comptoir de la Mer","139-9166 Sociis Rd.",Fayetteville,Arkansas,852-145-9715,972787-2484,1026,"Warren Rivers","920-5171 Ut, Street",Springdale,Arkansas,883-545-6969,159-66-01,DBBAF22E-B3BD-D70E-0C54-7375BF6EB688
92,"DOCK OF THE BAY","6134 Non, Rd.","Little Rock",Arkansas,790-526-9983,835167-6583,1026,"Warren Rivers","920-5171 Ut, Street",Springdale,Arkansas,883-545-6969,159-66-01,DBBAF22E-B3BD-D70E-0C54-7375BF6EB688
98,"METRO CLUB","P.O. Box 753, 9068 In, Avenue","Little Rock",Arkansas,505-442-3555,289884-2378,1026,"Warren Rivers","920-5171 Ut, Street",Springdale,Arkansas,883-545-6969,159-66-01,DBBAF22E-B3BD-D70E-0C54-7375BF6EB688
165,"CRISFIELD SEAFOOD RESTAURANT","P.O. Box 522, 3751 Ut Rd.",Springdale,Arkansas,889-988-7244,195256-6840,1026,"Warren Rivers","920-5171 Ut, Street",Springdale,Arkansas,883-545-6969,159-66-01,DBBAF22E-B3BD-D70E-0C54-7375BF6EB688
237,"LA MADELEINE","2848 Tortor Rd.",Fayetteville,Arkansas,693-408-7304,027174-2033,1026,"Warren Rivers","920-5171 Ut, Street",Springdale,Arkansas,883-545-6969,159-66-01,DBBAF22E-B3BD-D70E-0C54-7375BF6EB688
85,"L'Avant Comptoir de la Mer","139-9166 Sociis Rd.",Fayetteville,Arkansas,852-145-9715,972787-2484,1069,"Acton Horn","3685 Nullam Street",Fayetteville,Arkansas,645-713-0443,129-74-07,60FCF143-0254-E229-9E3E-569BF573D2F1
92,"DOCK OF THE BAY","6134 Non, Rd.","Little Rock",Arkansas,790-526-9983,835167-6583,1069,"Acton Horn","3685 Nullam Street",Fayetteville,Arkansas,645-713-0443,129-74-07,60FCF143-0254-E229-9E3E-569BF573D2F1
98,"METRO CLUB","P.O. Box 753, 9068 In, Avenue","Little Rock",Arkansas,505-442-3555,289884-2378,1069,"Acton Horn","3685 Nullam Street",Fayetteville,Arkansas,645-713-0443,129-74-07,60FCF143-0254-E229-9E3E-569BF573D2F1
165,"CRISFIELD SEAFOOD RESTAURANT","P.O. Box 522, 3751 Ut Rd.",Springdale,Arkansas,889-988-7244,195256-6840,1069,"Acton Horn","3685 Nullam Street",Fayetteville,Arkansas,645-713-0443,129-74-07,60FCF143-0254-E229-9E3E-569BF573D2F1
237,"LA MADELEINE","2848 Tortor Rd.",Fayetteville,Arkansas,693-408-7304,027174-2033,1069,"Acton Horn","3685 Nullam Street",Fayetteville,Arkansas,645-713-0443,129-74-07,60FCF143-0254-E229-9E3E-569BF573D2F1
85,"L'Avant Comptoir de la Mer","139-9166 Sociis Rd.",Fayetteville,Arkansas,852-145-9715,972787-2484,1120,"Chester Malone","229-328 Sagittis Road",Springdale,Arkansas,895-200-2216,407-78-04,15D27B83-F7DA-DD9D-25DA-0041F79B9EA7
92,"DOCK OF THE BAY","6134 Non, Rd.","Little Rock",Arkansas,790-526-9983,835167-6583,1120,"Chester Malone","229-328 Sagittis Road",Springdale,Arkansas,895-200-2216,407-78-04,15D27B83-F7DA-DD9D-25DA-0041F79B9EA7
98,"METRO CLUB","P.O. Box 753, 9068 In, Avenue","Little Rock",Arkansas,505-442-3555,289884-2378,1120,"Chester Malone","229-328 Sagittis Road",Springdale,Arkansas,895-200-2216,407-78-04,15D27B83-F7DA-DD9D-25DA-0041F79B9EA7
165,"CRISFIELD SEAFOOD RESTAURANT","P.O. Box 522, 3751 Ut Rd.",Springdale,Arkansas,889-988-7244,195256-6840,1120,"Chester Malone","229-328 Sagittis Road",Springdale,Arkansas,895-200-2216,407-78-04,15D27B83-F7DA-DD9D-25DA-0041F79B9EA7
237,"LA MADELEINE","2848 Tortor Rd.",Fayetteville,Arkansas,693-408-7304,027174-2033,1120,"Chester Malone","229-328 Sagittis Road",Springdale,Arkansas,895-200-2216,407-78-04,15D27B83-F7DA-DD9D-25DA-0041F79B9EA7
85,"L'Avant Comptoir de la Mer","139-9166 Sociis Rd.",Fayetteville,Arkansas,852-145-9715,972787-2484,1162,"Carissa Henderson","5346 Velit. Rd.",Jonesboro,Arkansas,184-426-5120,026-78-02,EEF2AEAC-4FDD-CBBA-8EED-78B63A9E60C6
92,"DOCK OF THE BAY","6134 Non, Rd.","Little Rock",Arkansas,790-526-9983,835167-6583,1162,"Carissa Henderson","5346 Velit. Rd.",Jonesboro,Arkansas,184-426-5120,026-78-02,EEF2AEAC-4FDD-CBBA-8EED-78B63A9E60C6
98,"METRO CLUB","P.O. Box 753, 9068 In, Avenue","Little Rock",Arkansas,505-442-3555,289884-2378,1162,"Carissa Henderson","5346 Velit. Rd.",Jonesboro,Arkansas,184-426-5120,026-78-02,EEF2AEAC-4FDD-CBBA-8EED-78B63A9E60C6
165,"CRISFIELD SEAFOOD RESTAURANT","P.O. Box 522, 3751 Ut Rd.",Springdale,Arkansas,889-988-7244,195256-6840,1162,"Carissa Henderson","5346 Velit. Rd.",Jonesboro,Arkansas,184-426-5120,026-78-02,EEF2AEAC-4FDD-CBBA-8EED-78B63A9E60C6
237,"LA MADELEINE","2848 Tortor Rd.",Fayetteville,Arkansas,693-408-7304,027174-2033,1162,"Carissa Henderson","5346 Velit. Rd.",Jonesboro,Arkansas,184-426-5120,026-78-02,EEF2AEAC-4FDD-CBBA-8EED-78B63A9E60C6
85,"L'Avant Comptoir de la Mer","139-9166 Sociis Rd.",Fayetteville,Arkansas,852-145-9715,972787-2484,1175,"Samson Obrien","P.O. Box 964, 3089 Est. Avenue","Fort Smith",Arkansas,670-801-9168,382-86-01,2F3A28EC-21D7-AC6D-D29B-EF6FAACE59FF
92,"DOCK OF THE BAY","6134 Non, Rd.","Little Rock",Arkansas,790-526-9983,835167-6583,1175,"Samson Obrien","P.O. Box 964, 3089 Est. Avenue","Fort Smith",Arkansas,670-801-9168,382-86-01,2F3A28EC-21D7-AC6D-D29B-EF6FAACE59FF
98,"METRO CLUB","P.O. Box 753, 9068 In, Avenue","Little Rock",Arkansas,505-442-3555,289884-2378,1175,"Samson Obrien","P.O. Box 964, 3089 Est. Avenue","Fort Smith",Arkansas,670-801-9168,382-86-01,2F3A28EC-21D7-AC6D-D29B-EF6FAACE59FF
165,"CRISFIELD SEAFOOD RESTAURANT","P.O. Box 522, 3751 Ut Rd.",Springdale,Arkansas,889-988-7244,195256-6840,1175,"Samson Obrien","P.O. Box 964, 3089 Est. Avenue","Fort Smith",Arkansas,670-801-9168,382-86-01,2F3A28EC-21D7-AC6D-D29B-EF6FAACE59FF
237,"LA MADELEINE","2848 Tortor Rd.",Fayetteville,Arkansas,693-408-7304,027174-2033,1175,"Samson Obrien","P.O. Box 964, 3089 Est. Avenue","Fort Smith",Arkansas,670-801-9168,382-86-01,2F3A28EC-21D7-AC6D-D29B-EF6FAACE59FF
85,"L'Avant Comptoir de la Mer","139-9166 Sociis Rd.",Fayetteville,Arkansas,852-145-9715,972787-2484,1273,"Teagan Padilla","Ap #497-8752 Volutpat Road",Springdale,Arkansas,274-510-0515,552-77-07,0D79A2DC-8276-B6FE-BBCA-424218D867C0
92,"DOCK OF THE BAY","6134 Non, Rd.","Little Rock",Arkansas,790-526-9983,835167-6583,1273,"Teagan Padilla","Ap #497-8752 Volutpat Road",Springdale,Arkansas,274-510-0515,552-77-07,0D79A2DC-8276-B6FE-BBCA-424218D867C0
98,"METRO CLUB","P.O. Box 753, 9068 In, Avenue","Little Rock",Arkansas,505-442-3555,289884-2378,1273,"Teagan Padilla","Ap #497-8752 Volutpat Road",Springdale,Arkansas,274-510-0515,552-77-07,0D79A2DC-8276-B6FE-BBCA-424218D867C0
165,"CRISFIELD SEAFOOD RESTAURANT","P.O. Box 522, 3751 Ut Rd.",Springdale,Arkansas,889-988-7244,195256-6840,1273,"Teagan Padilla","Ap #497-8752 Volutpat Road",Springdale,Arkansas,274-510-0515,552-77-07,0D79A2DC-8276-B6FE-BBCA-424218D867C0
237,"LA MADELEINE","2848 Tortor Rd.",Fayetteville,Arkansas,693-408-7304,027174-2033,1273,"Teagan Padilla","Ap #497-8752 Volutpat Road",Springdale,Arkansas,274-510-0515,552-77-07,0D79A2DC-8276-B6FE-BBCA-424218D867C0
85,"L'Avant Comptoir de la Mer","139-9166 Sociis Rd.",Fayetteville,Arkansas,852-145-9715,972787-2484,1277,"Whoopi Barr","P.O. Box 283, 9186 Rutrum Avenue",Jonesboro,Arkansas,105-662-3411,204-28-07,F0324F61-D7EB-A568-C996-DB5EE7C58689
92,"DOCK OF THE BAY","6134 Non, Rd.","Little Rock",Arkansas,790-526-9983,835167-6583,1277,"Whoopi Barr","P.O. Box 283, 9186 Rutrum Avenue",Jonesboro,Arkansas,105-662-3411,204-28-07,F0324F61-D7EB-A568-C996-DB5EE7C58689
98,"METRO CLUB","P.O. Box 753, 9068 In, Avenue","Little Rock",Arkansas,505-442-3555,289884-2378,1277,"Whoopi Barr","P.O. Box 283, 9186 Rutrum Avenue",Jonesboro,Arkansas,105-662-3411,204-28-07,F0324F61-D7EB-A568-C996-DB5EE7C58689
165,"CRISFIELD SEAFOOD RESTAURANT","P.O. Box 522, 3751 Ut Rd.",Springdale,Arkansas,889-988-7244,195256-6840,1277,"Whoopi Barr","P.O. Box 283, 9186 Rutrum Avenue",Jonesboro,Arkansas,105-662-3411,204-28-07,F0324F61-D7EB-A568-C996-DB5EE7C58689
237,"LA MADELEINE","2848 Tortor Rd.",Fayetteville,Arkansas,693-408-7304,027174-2033,1277,"Whoopi Barr","P.O. Box 283, 9186 Rutrum Avenue",Jonesboro,Arkansas,105-662-3411,204-28-07,F0324F61-D7EB-A568-C996-DB5EE7C58689
85,"L'Avant Comptoir de la Mer","139-9166 Sociis Rd.",Fayetteville,Arkansas,852-145-9715,972787-2484,1282,"Xenos Stein","Ap #915-235 Ipsum. Avenue",Jonesboro,Arkansas,985-841-4041,594-86-01,0884FD69-E031-9E13-D5D5-7F060BC3887C
92,"DOCK OF THE BAY","6134 Non, Rd.","Little Rock",Arkansas,790-526-9983,835167-6583,1282,"Xenos Stein","Ap #915-235 Ipsum. Avenue",Jonesboro,Arkansas,985-841-4041,594-86-01,0884FD69-E031-9E13-D5D5-7F060BC3887C
98,"METRO CLUB","P.O. Box 753, 9068 In, Avenue","Little Rock",Arkansas,505-442-3555,289884-2378,1282,"Xenos Stein","Ap #915-235 Ipsum. Avenue",Jonesboro,Arkansas,985-841-4041,594-86-01,0884FD69-E031-9E13-D5D5-7F060BC3887C
165,"CRISFIELD SEAFOOD RESTAURANT","P.O. Box 522, 3751 Ut Rd.",Springdale,Arkansas,889-988-7244,195256-6840,1282,"Xenos Stein","Ap #915-235 Ipsum. Avenue",Jonesboro,Arkansas,985-841-4041,594-86-01,0884FD69-E031-9E13-D5D5-7F060BC3887C
237,"LA MADELEINE","2848 Tortor Rd.",Fayetteville,Arkansas,693-408-7304,027174-2033,1282,"Xenos Stein","Ap #915-235 Ipsum. Avenue",Jonesboro,Arkansas,985-841-4041,594-86-01,0884FD69-E031-9E13-D5D5-7F060BC3887C
85,"L'Avant Comptoir de la Mer","139-9166 Sociis Rd.",Fayetteville,Arkansas,852-145-9715,972787-2484,1366,"Lael Day","4947 In St.","Little Rock",Arkansas,770-714-7530,537-35-03,F33544E8-DE27-2865-90B7-8EC2FB034388
92,"DOCK OF THE BAY","6134 Non, Rd.","Little Rock",Arkansas,790-526-9983,835167-6583,1366,"Lael Day","4947 In St.","Little Rock",Arkansas,770-714-7530,537-35-03,F33544E8-DE27-2865-90B7-8EC2FB034388
98,"METRO CLUB","P.O. Box 753, 9068 In, Avenue","Little Rock",Arkansas,505-442-3555,289884-2378,1366,"Lael Day","4947 In St.","Little Rock",Arkansas,770-714-7530,537-35-03,F33544E8-DE27-2865-90B7-8EC2FB034388
165,"CRISFIELD SEAFOOD RESTAURANT","P.O. Box 522, 3751 Ut Rd.",Springdale,Arkansas,889-988-7244,195256-6840,1366,"Lael Day","4947 In St.","Little Rock",Arkansas,770-714-7530,537-35-03,F33544E8-DE27-2865-90B7-8EC2FB034388
237,"LA MADELEINE","2848 Tortor Rd.",Fayetteville,Arkansas,693-408-7304,027174-2033,1366,"Lael Day","4947 In St.","Little Rock",Arkansas,770-714-7530,537-35-03,F33544E8-DE27-2865-90B7-8EC2FB034388
85,"L'Avant Comptoir de la Mer","139-9166 Sociis Rd.",Fayetteville,Arkansas,852-145-9715,972787-2484,1502,"Abel Black","203-4461 Erat Street",Fayetteville,Arkansas,114-115-6791,040-52-04,18FAE24B-AA5B-21DD-CD1C-16F34ACFA66A
92,"DOCK OF THE BAY","6134 Non, Rd.","Little Rock",Arkansas,790-526-9983,835167-6583,1502,"Abel Black","203-4461 Erat Street",Fayetteville,Arkansas,114-115-6791,040-52-04,18FAE24B-AA5B-21DD-CD1C-16F34ACFA66A
98,"METRO CLUB","P.O. Box 753, 9068 In, Avenue","Little Rock",Arkansas,505-442-3555,289884-2378,1502,"Abel Black","203-4461 Erat Street",Fayetteville,Arkansas,114-115-6791,040-52-04,18FAE24B-AA5B-21DD-CD1C-16F34ACFA66A
165,"CRISFIELD SEAFOOD RESTAURANT","P.O. Box 522, 3751 Ut Rd.",Springdale,Arkansas,889-988-7244,195256-6840,1502,"Abel Black","203-4461 Erat Street",Fayetteville,Arkansas,114-115-6791,040-52-04,18FAE24B-AA5B-21DD-CD1C-16F34ACFA66A
237,"LA MADELEINE","2848 Tortor Rd.",Fayetteville,Arkansas,693-408-7304,027174-2033,1502,"Abel Black","203-4461 Erat Street",Fayetteville,Arkansas,114-115-6791,040-52-04,18FAE24B-AA5B-21DD-CD1C-16F34ACFA66A
85,"L'Avant Comptoir de la Mer","139-9166 Sociis Rd.",Fayetteville,Arkansas,852-145-9715,972787-2484,1541,"Lane Stanton","Ap #934-9098 Libero Avenue","Little Rock",Arkansas,611-104-6339,863-88-03,0DBF009E-776B-6BB7-48C4-8DD56411BE6A
92,"DOCK OF THE BAY","6134 Non, Rd.","Little Rock",Arkansas,790-526-9983,835167-6583,1541,"Lane Stanton","Ap #934-9098 Libero Avenue","Little Rock",Arkansas,611-104-6339,863-88-03,0DBF009E-776B-6BB7-48C4-8DD56411BE6A
98,"METRO CLUB","P.O. Box 753, 9068 In, Avenue","Little Rock",Arkansas,505-442-3555,289884-2378,1541,"Lane Stanton","Ap #934-9098 Libero Avenue","Little Rock",Arkansas,611-104-6339,863-88-03,0DBF009E-776B-6BB7-48C4-8DD56411BE6A
165,"CRISFIELD SEAFOOD RESTAURANT","P.O. Box 522, 3751 Ut Rd.",Springdale,Arkansas,889-988-7244,195256-6840,1541,"Lane Stanton","Ap #934-9098 Libero Avenue","Little Rock",Arkansas,611-104-6339,863-88-03,0DBF009E-776B-6BB7-48C4-8DD56411BE6A
237,"LA MADELEINE","2848 Tortor Rd.",Fayetteville,Arkansas,693-408-7304,027174-2033,1541,"Lane Stanton","Ap #934-9098 Libero Avenue","Little Rock",Arkansas,611-104-6339,863-88-03,0DBF009E-776B-6BB7-48C4-8DD56411BE6A
85,"L'Avant Comptoir de la Mer","139-9166 Sociis Rd.",Fayetteville,Arkansas,852-145-9715,972787-2484,1547,"Zelda James","7445 Nisl. St.",Springdale,Arkansas,884-356-8044,456-99-08,0FA98DEB-7B33-376A-6EB5-B073BEF2033C
92,"DOCK OF THE BAY","6134 Non, Rd.","Little Rock",Arkansas,790-526-9983,835167-6583,1547,"Zelda James","7445 Nisl. St.",Springdale,Arkansas,884-356-8044,456-99-08,0FA98DEB-7B33-376A-6EB5-B073BEF2033C
98,"METRO CLUB","P.O. Box 753, 9068 In, Avenue","Little Rock",Arkansas,505-442-3555,289884-2378,1547,"Zelda James","7445 Nisl. St.",Springdale,Arkansas,884-356-8044,456-99-08,0FA98DEB-7B33-376A-6EB5-B073BEF2033C
165,"CRISFIELD SEAFOOD RESTAURANT","P.O. Box 522, 3751 Ut Rd.",Springdale,Arkansas,889-988-7244,195256-6840,1547,"Zelda James","7445 Nisl. St.",Springdale,Arkansas,884-356-8044,456-99-08,0FA98DEB-7B33-376A-6EB5-B073BEF2033C
237,"LA MADELEINE","2848 Tortor Rd.",Fayetteville,Arkansas,693-408-7304,027174-2033,1547,"Zelda James","7445 Nisl. St.",Springdale,Arkansas,884-356-8044,456-99-08,0FA98DEB-7B33-376A-6EB5-B073BEF2033C
85,"L'Avant Comptoir de la Mer","139-9166 Sociis Rd.",Fayetteville,Arkansas,852-145-9715,972787-2484,1568,"Vielka Good","4858 Sit St.",Springdale,Arkansas,503-200-5563,789-69-04,9831A01A-C1C6-AEAA-FAE3-85BF382DCE54
92,"DOCK OF THE BAY","6134 Non, Rd.","Little Rock",Arkansas,790-526-9983,835167-6583,1568,"Vielka Good","4858 Sit St.",Springdale,Arkansas,503-200-5563,789-69-04,9831A01A-C1C6-AEAA-FAE3-85BF382DCE54
98,"METRO CLUB","P.O. Box 753, 9068 In, Avenue","Little Rock",Arkansas,505-442-3555,289884-2378,1568,"Vielka Good","4858 Sit St.",Springdale,Arkansas,503-200-5563,789-69-04,9831A01A-C1C6-AEAA-FAE3-85BF382DCE54
165,"CRISFIELD SEAFOOD RESTAURANT","P.O. Box 522, 3751 Ut Rd.",Springdale,Arkansas,889-988-7244,195256-6840,1568,"Vielka Good","4858 Sit St.",Springdale,Arkansas,503-200-5563,789-69-04,9831A01A-C1C6-AEAA-FAE3-85BF382DCE54
237,"LA MADELEINE","2848 Tortor Rd.",Fayetteville,Arkansas,693-408-7304,027174-2033,1568,"Vielka Good","4858 Sit St.",Springdale,Arkansas,503-200-5563,789-69-04,9831A01A-C1C6-AEAA-FAE3-85BF382DCE54
85,"L'Avant Comptoir de la Mer","139-9166 Sociis Rd.",Fayetteville,Arkansas,852-145-9715,972787-2484,1572,"Whitney Palmer","P.O. Box 666, 8974 Blandit Av.",Fayetteville,Arkansas,703-816-2074,563-52-00,369050B0-7A0E-822C-B9F6-BA71E02A18CE
92,"DOCK OF THE BAY","6134 Non, Rd.","Little Rock",Arkansas,790-526-9983,835167-6583,1572,"Whitney Palmer","P.O. Box 666, 8974 Blandit Av.",Fayetteville,Arkansas,703-816-2074,563-52-00,369050B0-7A0E-822C-B9F6-BA71E02A18CE
98,"METRO CLUB","P.O. Box 753, 9068 In, Avenue","Little Rock",Arkansas,505-442-3555,289884-2378,1572,"Whitney Palmer","P.O. Box 666, 8974 Blandit Av.",Fayetteville,Arkansas,703-816-2074,563-52-00,369050B0-7A0E-822C-B9F6-BA71E02A18CE
165,"CRISFIELD SEAFOOD RESTAURANT","P.O. Box 522, 3751 Ut Rd.",Springdale,Arkansas,889-988-7244,195256-6840,1572,"Whitney Palmer","P.O. Box 666, 8974 Blandit Av.",Fayetteville,Arkansas,703-816-2074,563-52-00,369050B0-7A0E-822C-B9F6-BA71E02A18CE
237,"LA MADELEINE","2848 Tortor Rd.",Fayetteville,Arkansas,693-408-7304,027174-2033,1572,"Whitney Palmer","P.O. Box 666, 8974 Blandit Av.",Fayetteville,Arkansas,703-816-2074,563-52-00,369050B0-7A0E-822C-B9F6-BA71E02A18CE
85,"L'Avant Comptoir de la Mer","139-9166 Sociis Rd.",Fayetteville,Arkansas,852-145-9715,972787-2484,1638,"Griffin Aguilar","P.O. Box 841, 798 Amet Rd.",Springdale,Arkansas,354-613-6567,745-34-05,F6D10A87-AED0-8CA1-7A67-6339A65133BE
92,"DOCK OF THE BAY","6134 Non, Rd.","Little Rock",Arkansas,790-526-9983,835167-6583,1638,"Griffin Aguilar","P.O. Box 841, 798 Amet Rd.",Springdale,Arkansas,354-613-6567,745-34-05,F6D10A87-AED0-8CA1-7A67-6339A65133BE
98,"METRO CLUB","P.O. Box 753, 9068 In, Avenue","Little Rock",Arkansas,505-442-3555,289884-2378,1638,"Griffin Aguilar","P.O. Box 841, 798 Amet Rd.",Springdale,Arkansas,354-613-6567,745-34-05,F6D10A87-AED0-8CA1-7A67-6339A65133BE
165,"CRISFIELD SEAFOOD RESTAURANT","P.O. Box 522, 3751 Ut Rd.",Springdale,Arkansas,889-988-7244,195256-6840,1638,"Griffin Aguilar","P.O. Box 841, 798 Amet Rd.",Springdale,Arkansas,354-613-6567,745-34-05,F6D10A87-AED0-8CA1-7A67-6339A65133BE
237,"LA MADELEINE","2848 Tortor Rd.",Fayetteville,Arkansas,693-408-7304,027174-2033,1638,"Griffin Aguilar","P.O. Box 841, 798 Amet Rd.",Springdale,Arkansas,354-613-6567,745-34-05,F6D10A87-AED0-8CA1-7A67-6339A65133BE
85,"L'Avant Comptoir de la Mer","139-9166 Sociis Rd.",Fayetteville,Arkansas,852-145-9715,972787-2484,1641,"Brian Bush","7656 Ut Ave","Little Rock",Arkansas,657-429-1919,603-98-05,5E4CD756-2A4D-3761-F7F8-1B1D27CC7344
92,"DOCK OF THE BAY","6134 Non, Rd.","Little Rock",Arkansas,790-526-9983,835167-6583,1641,"Brian Bush","7656 Ut Ave","Little Rock",Arkansas,657-429-1919,603-98-05,5E4CD756-2A4D-3761-F7F8-1B1D27CC7344
98,"METRO CLUB","P.O. Box 753, 9068 In, Avenue","Little Rock",Arkansas,505-442-3555,289884-2378,1641,"Brian Bush","7656 Ut Ave","Little Rock",Arkansas,657-429-1919,603-98-05,5E4CD756-2A4D-3761-F7F8-1B1D27CC7344
165,"CRISFIELD SEAFOOD RESTAURANT","P.O. Box 522, 3751 Ut Rd.",Springdale,Arkansas,889-988-7244,195256-6840,1641,"Brian Bush","7656 Ut Ave","Little Rock",Arkansas,657-429-1919,603-98-05,5E4CD756-2A4D-3761-F7F8-1B1D27CC7344
237,"LA MADELEINE","2848 Tortor Rd.",Fayetteville,Arkansas,693-408-7304,027174-2033,1641,"Brian Bush","7656 Ut Ave","Little Rock",Arkansas,657-429-1919,603-98-05,5E4CD756-2A4D-3761-F7F8-1B1D27CC7344
85,"L'Avant Comptoir de la Mer","139-9166 Sociis Rd.",Fayetteville,Arkansas,852-145-9715,972787-2484,1646,"Wynne Fitzgerald","P.O. Box 464, 152 Ante Avenue","Little Rock",Arkansas,226-259-2440,583-84-00,3C4CDAD3-69A3-EB26-FC28-CD4BD2B511FA
92,"DOCK OF THE BAY","6134 Non, Rd.","Little Rock",Arkansas,790-526-9983,835167-6583,1646,"Wynne Fitzgerald","P.O. Box 464, 152 Ante Avenue","Little Rock",Arkansas,226-259-2440,583-84-00,3C4CDAD3-69A3-EB26-FC28-CD4BD2B511FA
98,"METRO CLUB","P.O. Box 753, 9068 In, Avenue","Little Rock",Arkansas,505-442-3555,289884-2378,1646,"Wynne Fitzgerald","P.O. Box 464, 152 Ante Avenue","Little Rock",Arkansas,226-259-2440,583-84-00,3C4CDAD3-69A3-EB26-FC28-CD4BD2B511FA
165,"CRISFIELD SEAFOOD RESTAURANT","P.O. Box 522, 3751 Ut Rd.",Springdale,Arkansas,889-988-7244,195256-6840,1646,"Wynne Fitzgerald","P.O. Box 464, 152 Ante Avenue","Little Rock",Arkansas,226-259-2440,583-84-00,3C4CDAD3-69A3-EB26-FC28-CD4BD2B511FA
237,"LA MADELEINE","2848 Tortor Rd.",Fayetteville,Arkansas,693-408-7304,027174-2033,1646,"Wynne Fitzgerald","P.O. Box 464, 152 Ante Avenue","Little Rock",Arkansas,226-259-2440,583-84-00,3C4CDAD3-69A3-EB26-FC28-CD4BD2B511FA
85,"L'Avant Comptoir de la Mer","139-9166 Sociis Rd.",Fayetteville,Arkansas,852-145-9715,972787-2484,1678,"Shay Barrera","6068 Mauris Ave","Little Rock",Arkansas,657-880-3296,747-62-07,AAF2A00F-3D68-2B08-E1C3-49E9ADCDCEE9
92,"DOCK OF THE BAY","6134 Non, Rd.","Little Rock",Arkansas,790-526-9983,835167-6583,1678,"Shay Barrera","6068 Mauris Ave","Little Rock",Arkansas,657-880-3296,747-62-07,AAF2A00F-3D68-2B08-E1C3-49E9ADCDCEE9
98,"METRO CLUB","P.O. Box 753, 9068 In, Avenue","Little Rock",Arkansas,505-442-3555,289884-2378,1678,"Shay Barrera","6068 Mauris Ave","Little Rock",Arkansas,657-880-3296,747-62-07,AAF2A00F-3D68-2B08-E1C3-49E9ADCDCEE9
165,"CRISFIELD SEAFOOD RESTAURANT","P.O. Box 522, 3751 Ut Rd.",Springdale,Arkansas,889-988-7244,195256-6840,1678,"Shay Barrera","6068 Mauris Ave","Little Rock",Arkansas,657-880-3296,747-62-07,AAF2A00F-3D68-2B08-E1C3-49E9ADCDCEE9
237,"LA MADELEINE","2848 Tortor Rd.",Fayetteville,Arkansas,693-408-7304,027174-2033,1678,"Shay Barrera","6068 Mauris Ave","Little Rock",Arkansas,657-880-3296,747-62-07,AAF2A00F-3D68-2B08-E1C3-49E9ADCDCEE9
85,"L'Avant Comptoir de la Mer","139-9166 Sociis Rd.",Fayetteville,Arkansas,852-145-9715,972787-2484,1746,"Shay Pacheco","Ap #549-9673 Nec St.",Springdale,Arkansas,566-182-4552,100-73-03,CAC70B75-0CFE-83BB-1BC1-2475E41F3256
92,"DOCK OF THE BAY","6134 Non, Rd.","Little Rock",Arkansas,790-526-9983,835167-6583,1746,"Shay Pacheco","Ap #549-9673 Nec St.",Springdale,Arkansas,566-182-4552,100-73-03,CAC70B75-0CFE-83BB-1BC1-2475E41F3256
98,"METRO CLUB","P.O. Box 753, 9068 In, Avenue","Little Rock",Arkansas,505-442-3555,289884-2378,1746,"Shay Pacheco","Ap #549-9673 Nec St.",Springdale,Arkansas,566-182-4552,100-73-03,CAC70B75-0CFE-83BB-1BC1-2475E41F3256
165,"CRISFIELD SEAFOOD RESTAURANT","P.O. Box 522, 3751 Ut Rd.",Springdale,Arkansas,889-988-7244,195256-6840,1746,"Shay Pacheco","Ap #549-9673 Nec St.",Springdale,Arkansas,566-182-4552,100-73-03,CAC70B75-0CFE-83BB-1BC1-2475E41F3256
237,"LA MADELEINE","2848 Tortor Rd.",Fayetteville,Arkansas,693-408-7304,027174-2033,1746,"Shay Pacheco","Ap #549-9673 Nec St.",Springdale,Arkansas,566-182-4552,100-73-03,CAC70B75-0CFE-83BB-1BC1-2475E41F3256
85,"L'Avant Comptoir de la Mer","139-9166 Sociis Rd.",Fayetteville,Arkansas,852-145-9715,972787-2484,1801,"Yoshi Thompson","Ap #473-1549 Pede, Ave",Fayetteville,Arkansas,544-973-7657,693-92-04,8D0FA2F6-A8CC-D8A6-AD41-8AE06C2FA76F
92,"DOCK OF THE BAY","6134 Non, Rd.","Little Rock",Arkansas,790-526-9983,835167-6583,1801,"Yoshi Thompson","Ap #473-1549 Pede, Ave",Fayetteville,Arkansas,544-973-7657,693-92-04,8D0FA2F6-A8CC-D8A6-AD41-8AE06C2FA76F
98,"METRO CLUB","P.O. Box 753, 9068 In, Avenue","Little Rock",Arkansas,505-442-3555,289884-2378,1801,"Yoshi Thompson","Ap #473-1549 Pede, Ave",Fayetteville,Arkansas,544-973-7657,693-92-04,8D0FA2F6-A8CC-D8A6-AD41-8AE06C2FA76F
165,"CRISFIELD SEAFOOD RESTAURANT","P.O. Box 522, 3751 Ut Rd.",Springdale,Arkansas,889-988-7244,195256-6840,1801,"Yoshi Thompson","Ap #473-1549 Pede, Ave",Fayetteville,Arkansas,544-973-7657,693-92-04,8D0FA2F6-A8CC-D8A6-AD41-8AE06C2FA76F
237,"LA MADELEINE","2848 Tortor Rd.",Fayetteville,Arkansas,693-408-7304,027174-2033,1801,"Yoshi Thompson","Ap #473-1549 Pede, Ave",Fayetteville,Arkansas,544-973-7657,693-92-04,8D0FA2F6-A8CC-D8A6-AD41-8AE06C2FA76F
85,"L'Avant Comptoir de la Mer","139-9166 Sociis Rd.",Fayetteville,Arkansas,852-145-9715,972787-2484,1853,"Bert Carrillo","Ap #754-6850 Enim Road","Fort Smith",Arkansas,612-800-8615,641-42-09,0D4C5B3D-9FCA-D207-ECFA-B578FD6E5ECE
92,"DOCK OF THE BAY","6134 Non, Rd.","Little Rock",Arkansas,790-526-9983,835167-6583,1853,"Bert Carrillo","Ap #754-6850 Enim Road","Fort Smith",Arkansas,612-800-8615,641-42-09,0D4C5B3D-9FCA-D207-ECFA-B578FD6E5ECE
98,"METRO CLUB","P.O. Box 753, 9068 In, Avenue","Little Rock",Arkansas,505-442-3555,289884-2378,1853,"Bert Carrillo","Ap #754-6850 Enim Road","Fort Smith",Arkansas,612-800-8615,641-42-09,0D4C5B3D-9FCA-D207-ECFA-B578FD6E5ECE
165,"CRISFIELD SEAFOOD RESTAURANT","P.O. Box 522, 3751 Ut Rd.",Springdale,Arkansas,889-988-7244,195256-6840,1853,"Bert Carrillo","Ap #754-6850 Enim Road","Fort Smith",Arkansas,612-800-8615,641-42-09,0D4C5B3D-9FCA-D207-ECFA-B578FD6E5ECE
237,"LA MADELEINE","2848 Tortor Rd.",Fayetteville,Arkansas,693-408-7304,027174-2033,1853,"Bert Carrillo","Ap #754-6850 Enim Road","Fort Smith",Arkansas,612-800-8615,641-42-09,0D4C5B3D-9FCA-D207-ECFA-B578FD6E5ECE
85,"L'Avant Comptoir de la Mer","139-9166 Sociis Rd.",Fayetteville,Arkansas,852-145-9715,972787-2484,1904,"Lucy Sullivan","Ap #438-9497 Varius. Ave","Fort Smith",Arkansas,852-734-5728,654-77-02,E5F3B113-FD47-884E-4342-13622F22B028
92,"DOCK OF THE BAY","6134 Non, Rd.","Little Rock",Arkansas,790-526-9983,835167-6583,1904,"Lucy Sullivan","Ap #438-9497 Varius. Ave","Fort Smith",Arkansas,852-734-5728,654-77-02,E5F3B113-FD47-884E-4342-13622F22B028
98,"METRO CLUB","P.O. Box 753, 9068 In, Avenue","Little Rock",Arkansas,505-442-3555,289884-2378,1904,"Lucy Sullivan","Ap #438-9497 Varius. Ave","Fort Smith",Arkansas,852-734-5728,654-77-02,E5F3B113-FD47-884E-4342-13622F22B028
165,"CRISFIELD SEAFOOD RESTAURANT","P.O. Box 522, 3751 Ut Rd.",Springdale,Arkansas,889-988-7244,195256-6840,1904,"Lucy Sullivan","Ap #438-9497 Varius. Ave","Fort Smith",Arkansas,852-734-5728,654-77-02,E5F3B113-FD47-884E-4342-13622F22B028
237,"LA MADELEINE","2848 Tortor Rd.",Fayetteville,Arkansas,693-408-7304,027174-2033,1904,"Lucy Sullivan","Ap #438-9497 Varius. Ave","Fort Smith",Arkansas,852-734-5728,654-77-02,E5F3B113-FD47-884E-4342-13622F22B028
85,"L'Avant Comptoir de la Mer","139-9166 Sociis Rd.",Fayetteville,Arkansas,852-145-9715,972787-2484,1940,"Barrett Barker","P.O. Box 434, 4954 Tellus Street",Jonesboro,Arkansas,287-287-8141,560-87-00,5AC56A22-3FE2-5D2B-37D8-057B13EFA7F0
92,"DOCK OF THE BAY","6134 Non, Rd.","Little Rock",Arkansas,790-526-9983,835167-6583,1940,"Barrett Barker","P.O. Box 434, 4954 Tellus Street",Jonesboro,Arkansas,287-287-8141,560-87-00,5AC56A22-3FE2-5D2B-37D8-057B13EFA7F0
98,"METRO CLUB","P.O. Box 753, 9068 In, Avenue","Little Rock",Arkansas,505-442-3555,289884-2378,1940,"Barrett Barker","P.O. Box 434, 4954 Tellus Street",Jonesboro,Arkansas,287-287-8141,560-87-00,5AC56A22-3FE2-5D2B-37D8-057B13EFA7F0
165,"CRISFIELD SEAFOOD RESTAURANT","P.O. Box 522, 3751 Ut Rd.",Springdale,Arkansas,889-988-7244,195256-6840,1940,"Barrett Barker","P.O. Box 434, 4954 Tellus Street",Jonesboro,Arkansas,287-287-8141,560-87-00,5AC56A22-3FE2-5D2B-37D8-057B13EFA7F0
237,"LA MADELEINE","2848 Tortor Rd.",Fayetteville,Arkansas,693-408-7304,027174-2033,1940,"Barrett Barker","P.O. Box 434, 4954 Tellus Street",Jonesboro,Arkansas,287-287-8141,560-87-00,5AC56A22-3FE2-5D2B-37D8-057B13EFA7F0
85,"L'Avant Comptoir de la Mer","139-9166 Sociis Rd.",Fayetteville,Arkansas,852-145-9715,972787-2484,1950,"Phyllis Juarez","6465 Eget Road",Jonesboro,Arkansas,603-890-6556,154-13-06,AE59CC54-3AB2-18DB-4AE4-FA8C59B72197
92,"DOCK OF THE BAY","6134 Non, Rd.","Little Rock",Arkansas,790-526-9983,835167-6583,1950,"Phyllis Juarez","6465 Eget Road",Jonesboro,Arkansas,603-890-6556,154-13-06,AE59CC54-3AB2-18DB-4AE4-FA8C59B72197
98,"METRO CLUB","P.O. Box 753, 9068 In, Avenue","Little Rock",Arkansas,505-442-3555,289884-2378,1950,"Phyllis Juarez","6465 Eget Road",Jonesboro,Arkansas,603-890-6556,154-13-06,AE59CC54-3AB2-18DB-4AE4-FA8C59B72197
165,"CRISFIELD SEAFOOD RESTAURANT","P.O. Box 522, 3751 Ut Rd.",Springdale,Arkansas,889-988-7244,195256-6840,1950,"Phyllis Juarez","6465 Eget Road",Jonesboro,Arkansas,603-890-6556,154-13-06,AE59CC54-3AB2-18DB-4AE4-FA8C59B72197
237,"LA MADELEINE","2848 Tortor Rd.",Fayetteville,Arkansas,693-408-7304,027174-2033,1950,"Phyllis Juarez","6465 Eget Road",Jonesboro,Arkansas,603-890-6556,154-13-06,AE59CC54-3AB2-18DB-4AE4-FA8C59B72197
85,"L'Avant Comptoir de la Mer","139-9166 Sociis Rd.",Fayetteville,Arkansas,852-145-9715,972787-2484,2024,"Erin Hewitt","439-7974 Eu, Road",Jonesboro,Arkansas,830-107-1004,190-55-03,561419AD-07B2-FF2B-1FD1-77C70172B742
92,"DOCK OF THE BAY","6134 Non, Rd.","Little Rock",Arkansas,790-526-9983,835167-6583,2024,"Erin Hewitt","439-7974 Eu, Road",Jonesboro,Arkansas,830-107-1004,190-55-03,561419AD-07B2-FF2B-1FD1-77C70172B742
98,"METRO CLUB","P.O. Box 753, 9068 In, Avenue","Little Rock",Arkansas,505-442-3555,289884-2378,2024,"Erin Hewitt","439-7974 Eu, Road",Jonesboro,Arkansas,830-107-1004,190-55-03,561419AD-07B2-FF2B-1FD1-77C70172B742
165,"CRISFIELD SEAFOOD RESTAURANT","P.O. Box 522, 3751 Ut Rd.",Springdale,Arkansas,889-988-7244,195256-6840,2024,"Erin Hewitt","439-7974 Eu, Road",Jonesboro,Arkansas,830-107-1004,190-55-03,561419AD-07B2-FF2B-1FD1-77C70172B742
237,"LA MADELEINE","2848 Tortor Rd.",Fayetteville,Arkansas,693-408-7304,027174-2033,2024,"Erin Hewitt","439-7974 Eu, Road",Jonesboro,Arkansas,830-107-1004,190-55-03,561419AD-07B2-FF2B-1FD1-77C70172B742
85,"L'Avant Comptoir de la Mer","139-9166 Sociis Rd.",Fayetteville,Arkansas,852-145-9715,972787-2484,2045,"Alexandra Dillon","177-357 A Ave",Jonesboro,Arkansas,108-194-1869,409-69-09,74C705E5-FED3-F3E7-47B3-DE89946F8274
92,"DOCK OF THE BAY","6134 Non, Rd.","Little Rock",Arkansas,790-526-9983,835167-6583,2045,"Alexandra Dillon","177-357 A Ave",Jonesboro,Arkansas,108-194-1869,409-69-09,74C705E5-FED3-F3E7-47B3-DE89946F8274
98,"METRO CLUB","P.O. Box 753, 9068 In, Avenue","Little Rock",Arkansas,505-442-3555,289884-2378,2045,"Alexandra Dillon","177-357 A Ave",Jonesboro,Arkansas,108-194-1869,409-69-09,74C705E5-FED3-F3E7-47B3-DE89946F8274
165,"CRISFIELD SEAFOOD RESTAURANT","P.O. Box 522, 3751 Ut Rd.",Springdale,Arkansas,889-988-7244,195256-6840,2045,"Alexandra Dillon","177-357 A Ave",Jonesboro,Arkansas,108-194-1869,409-69-09,74C705E5-FED3-F3E7-47B3-DE89946F8274
237,"LA MADELEINE","2848 Tortor Rd.",Fayetteville,Arkansas,693-408-7304,027174-2033,2045,"Alexandra Dillon","177-357 A Ave",Jonesboro,Arkansas,108-194-1869,409-69-09,74C705E5-FED3-F3E7-47B3-DE89946F8274
85,"L'Avant Comptoir de la Mer","139-9166 Sociis Rd.",Fayetteville,Arkansas,852-145-9715,972787-2484,2083,"Blythe Kennedy","9957 Fringilla Av.","Fort Smith",Arkansas,334-648-7465,889-84-08,6B4113FB-A29F-A0FC-CF88-9E14D14C9D46
92,"DOCK OF THE BAY","6134 Non, Rd.","Little Rock",Arkansas,790-526-9983,835167-6583,2083,"Blythe Kennedy","9957 Fringilla Av.","Fort Smith",Arkansas,334-648-7465,889-84-08,6B4113FB-A29F-A0FC-CF88-9E14D14C9D46
98,"METRO CLUB","P.O. Box 753, 9068 In, Avenue","Little Rock",Arkansas,505-442-3555,289884-2378,2083,"Blythe Kennedy","9957 Fringilla Av.","Fort Smith",Arkansas,334-648-7465,889-84-08,6B4113FB-A29F-A0FC-CF88-9E14D14C9D46
165,"CRISFIELD SEAFOOD RESTAURANT","P.O. Box 522, 3751 Ut Rd.",Springdale,Arkansas,889-988-7244,195256-6840,2083,"Blythe Kennedy","9957 Fringilla Av.","Fort Smith",Arkansas,334-648-7465,889-84-08,6B4113FB-A29F-A0FC-CF88-9E14D14C9D46
237,"LA MADELEINE","2848 Tortor Rd.",Fayetteville,Arkansas,693-408-7304,027174-2033,2083,"Blythe Kennedy","9957 Fringilla Av.","Fort Smith",Arkansas,334-648-7465,889-84-08,6B4113FB-A29F-A0FC-CF88-9E14D14C9D46
85,"L'Avant Comptoir de la Mer","139-9166 Sociis Rd.",Fayetteville,Arkansas,852-145-9715,972787-2484,2084,"James Glenn","Ap #774-7548 Fames Avenue",Jonesboro,Arkansas,233-242-1718,153-90-05,1BF778BD-CE68-9787-BB7D-911CAAD0F51E
92,"DOCK OF THE BAY","6134 Non, Rd.","Little Rock",Arkansas,790-526-9983,835167-6583,2084,"James Glenn","Ap #774-7548 Fames Avenue",Jonesboro,Arkansas,233-242-1718,153-90-05,1BF778BD-CE68-9787-BB7D-911CAAD0F51E
98,"METRO CLUB","P.O. Box 753, 9068 In, Avenue","Little Rock",Arkansas,505-442-3555,289884-2378,2084,"James Glenn","Ap #774-7548 Fames Avenue",Jonesboro,Arkansas,233-242-1718,153-90-05,1BF778BD-CE68-9787-BB7D-911CAAD0F51E
165,"CRISFIELD SEAFOOD RESTAURANT","P.O. Box 522, 3751 Ut Rd.",Springdale,Arkansas,889-988-7244,195256-6840,2084,"James Glenn","Ap #774-7548 Fames Avenue",Jonesboro,Arkansas,233-242-1718,153-90-05,1BF778BD-CE68-9787-BB7D-911CAAD0F51E
237,"LA MADELEINE","2848 Tortor Rd.",Fayetteville,Arkansas,693-408-7304,027174-2033,2084,"James Glenn","Ap #774-7548 Fames Avenue",Jonesboro,Arkansas,233-242-1718,153-90-05,1BF778BD-CE68-9787-BB7D-911CAAD0F51E
85,"L'Avant Comptoir de la Mer","139-9166 Sociis Rd.",Fayetteville,Arkansas,852-145-9715,972787-2484,2093,"Alexander Watson","Ap #765-7084 Metus. St.","Fort Smith",Arkansas,121-123-6567,032-45-04,318AD994-A1ED-C72D-0701-9B218371017E
92,"DOCK OF THE BAY","6134 Non, Rd.","Little Rock",Arkansas,790-526-9983,835167-6583,2093,"Alexander Watson","Ap #765-7084 Metus. St.","Fort Smith",Arkansas,121-123-6567,032-45-04,318AD994-A1ED-C72D-0701-9B218371017E
98,"METRO CLUB","P.O. Box 753, 9068 In, Avenue","Little Rock",Arkansas,505-442-3555,289884-2378,2093,"Alexander Watson","Ap #765-7084 Metus. St.","Fort Smith",Arkansas,121-123-6567,032-45-04,318AD994-A1ED-C72D-0701-9B218371017E
165,"CRISFIELD SEAFOOD RESTAURANT","P.O. Box 522, 3751 Ut Rd.",Springdale,Arkansas,889-988-7244,195256-6840,2093,"Alexander Watson","Ap #765-7084 Metus. St.","Fort Smith",Arkansas,121-123-6567,032-45-04,318AD994-A1ED-C72D-0701-9B218371017E
237,"LA MADELEINE","2848 Tortor Rd.",Fayetteville,Arkansas,693-408-7304,027174-2033,2093,"Alexander Watson","Ap #765-7084 Metus. St.","Fort Smith",Arkansas,121-123-6567,032-45-04,318AD994-A1ED-C72D-0701-9B218371017E
85,"L'Avant Comptoir de la Mer","139-9166 Sociis Rd.",Fayetteville,Arkansas,852-145-9715,972787-2484,2102,"Anne Coffey","P.O. Box 138, 5733 Nibh St.","Little Rock",Arkansas,739-695-8801,243-93-05,25CD0F45-828C-1A6C-07DE-7231A54CE83B
92,"DOCK OF THE BAY","6134 Non, Rd.","Little Rock",Arkansas,790-526-9983,835167-6583,2102,"Anne Coffey","P.O. Box 138, 5733 Nibh St.","Little Rock",Arkansas,739-695-8801,243-93-05,25CD0F45-828C-1A6C-07DE-7231A54CE83B
98,"METRO CLUB","P.O. Box 753, 9068 In, Avenue","Little Rock",Arkansas,505-442-3555,289884-2378,2102,"Anne Coffey","P.O. Box 138, 5733 Nibh St.","Little Rock",Arkansas,739-695-8801,243-93-05,25CD0F45-828C-1A6C-07DE-7231A54CE83B
165,"CRISFIELD SEAFOOD RESTAURANT","P.O. Box 522, 3751 Ut Rd.",Springdale,Arkansas,889-988-7244,195256-6840,2102,"Anne Coffey","P.O. Box 138, 5733 Nibh St.","Little Rock",Arkansas,739-695-8801,243-93-05,25CD0F45-828C-1A6C-07DE-7231A54CE83B
237,"LA MADELEINE","2848 Tortor Rd.",Fayetteville,Arkansas,693-408-7304,027174-2033,2102,"Anne Coffey","P.O. Box 138, 5733 Nibh St.","Little Rock",Arkansas,739-695-8801,243-93-05,25CD0F45-828C-1A6C-07DE-7231A54CE83B
85,"L'Avant Comptoir de la Mer","139-9166 Sociis Rd.",Fayetteville,Arkansas,852-145-9715,972787-2484,2122,"Clare William","Ap #895-6705 Enim Rd.","Fort Smith",Arkansas,502-492-8320,612-68-04,712B984D-3535-8987-87CB-9AEDDD472F58
92,"DOCK OF THE BAY","6134 Non, Rd.","Little Rock",Arkansas,790-526-9983,835167-6583,2122,"Clare William","Ap #895-6705 Enim Rd.","Fort Smith",Arkansas,502-492-8320,612-68-04,712B984D-3535-8987-87CB-9AEDDD472F58
98,"METRO CLUB","P.O. Box 753, 9068 In, Avenue","Little Rock",Arkansas,505-442-3555,289884-2378,2122,"Clare William","Ap #895-6705 Enim Rd.","Fort Smith",Arkansas,502-492-8320,612-68-04,712B984D-3535-8987-87CB-9AEDDD472F58
165,"CRISFIELD SEAFOOD RESTAURANT","P.O. Box 522, 3751 Ut Rd.",Springdale,Arkansas,889-988-7244,195256-6840,2122,"Clare William","Ap #895-6705 Enim Rd.","Fort Smith",Arkansas,502-492-8320,612-68-04,712B984D-3535-8987-87CB-9AEDDD472F58
237,"LA MADELEINE","2848 Tortor Rd.",Fayetteville,Arkansas,693-408-7304,027174-2033,2122,"Clare William","Ap #895-6705 Enim Rd.","Fort Smith",Arkansas,502-492-8320,612-68-04,712B984D-3535-8987-87CB-9AEDDD472F58
85,"L'Avant Comptoir de la Mer","139-9166 Sociis Rd.",Fayetteville,Arkansas,852-145-9715,972787-2484,2156,"Chancellor Salas","Ap #263-6957 Lacus. Street","Little Rock",Arkansas,370-108-3232,815-81-09,324AE6CC-6524-A156-56BF-A08451DFC524
92,"DOCK OF THE BAY","6134 Non, Rd.","Little Rock",Arkansas,790-526-9983,835167-6583,2156,"Chancellor Salas","Ap #263-6957 Lacus. Street","Little Rock",Arkansas,370-108-3232,815-81-09,324AE6CC-6524-A156-56BF-A08451DFC524
98,"METRO CLUB","P.O. Box 753, 9068 In, Avenue","Little Rock",Arkansas,505-442-3555,289884-2378,2156,"Chancellor Salas","Ap #263-6957 Lacus. Street","Little Rock",Arkansas,370-108-3232,815-81-09,324AE6CC-6524-A156-56BF-A08451DFC524
165,"CRISFIELD SEAFOOD RESTAURANT","P.O. Box 522, 3751 Ut Rd.",Springdale,Arkansas,889-988-7244,195256-6840,2156,"Chancellor Salas","Ap #263-6957 Lacus. Street","Little Rock",Arkansas,370-108-3232,815-81-09,324AE6CC-6524-A156-56BF-A08451DFC524
237,"LA MADELEINE","2848 Tortor Rd.",Fayetteville,Arkansas,693-408-7304,027174-2033,2156,"Chancellor Salas","Ap #263-6957 Lacus. Street","Little Rock",Arkansas,370-108-3232,815-81-09,324AE6CC-6524-A156-56BF-A08451DFC524
85,"L'Avant Comptoir de la Mer","139-9166 Sociis Rd.",Fayetteville,Arkansas,852-145-9715,972787-2484,2198,"Veda Bridges","8186 Ac Rd.",Springdale,Arkansas,514-842-9329,556-92-06,9B940AC2-3BFE-2207-1E06-0690C6069589
92,"DOCK OF THE BAY","6134 Non, Rd.","Little Rock",Arkansas,790-526-9983,835167-6583,2198,"Veda Bridges","8186 Ac Rd.",Springdale,Arkansas,514-842-9329,556-92-06,9B940AC2-3BFE-2207-1E06-0690C6069589
98,"METRO CLUB","P.O. Box 753, 9068 In, Avenue","Little Rock",Arkansas,505-442-3555,289884-2378,2198,"Veda Bridges","8186 Ac Rd.",Springdale,Arkansas,514-842-9329,556-92-06,9B940AC2-3BFE-2207-1E06-0690C6069589
165,"CRISFIELD SEAFOOD RESTAURANT","P.O. Box 522, 3751 Ut Rd.",Springdale,Arkansas,889-988-7244,195256-6840,2198,"Veda Bridges","8186 Ac Rd.",Springdale,Arkansas,514-842-9329,556-92-06,9B940AC2-3BFE-2207-1E06-0690C6069589
237,"LA MADELEINE","2848 Tortor Rd.",Fayetteville,Arkansas,693-408-7304,027174-2033,2198,"Veda Bridges","8186 Ac Rd.",Springdale,Arkansas,514-842-9329,556-92-06,9B940AC2-3BFE-2207-1E06-0690C6069589
85,"L'Avant Comptoir de la Mer","139-9166 Sociis Rd.",Fayetteville,Arkansas,852-145-9715,972787-2484,2221,"Adam Austin","P.O. Box 442, 980 Egestas St.",Fayetteville,Arkansas,630-490-0751,647-56-03,178DE125-FD34-553C-7249-FBAE067532DD
92,"DOCK OF THE BAY","6134 Non, Rd.","Little Rock",Arkansas,790-526-9983,835167-6583,2221,"Adam Austin","P.O. Box 442, 980 Egestas St.",Fayetteville,Arkansas,630-490-0751,647-56-03,178DE125-FD34-553C-7249-FBAE067532DD
98,"METRO CLUB","P.O. Box 753, 9068 In, Avenue","Little Rock",Arkansas,505-442-3555,289884-2378,2221,"Adam Austin","P.O. Box 442, 980 Egestas St.",Fayetteville,Arkansas,630-490-0751,647-56-03,178DE125-FD34-553C-7249-FBAE067532DD
165,"CRISFIELD SEAFOOD RESTAURANT","P.O. Box 522, 3751 Ut Rd.",Springdale,Arkansas,889-988-7244,195256-6840,2221,"Adam Austin","P.O. Box 442, 980 Egestas St.",Fayetteville,Arkansas,630-490-0751,647-56-03,178DE125-FD34-553C-7249-FBAE067532DD
237,"LA MADELEINE","2848 Tortor Rd.",Fayetteville,Arkansas,693-408-7304,027174-2033,2221,"Adam Austin","P.O. Box 442, 980 Egestas St.",Fayetteville,Arkansas,630-490-0751,647-56-03,178DE125-FD34-553C-7249-FBAE067532DD
85,"L'Avant Comptoir de la Mer","139-9166 Sociis Rd.",Fayetteville,Arkansas,852-145-9715,972787-2484,2245,"Blythe Robertson","Ap #676-3946 Auctor. Av.","Fort Smith",Arkansas,115-524-6479,233-19-03,343599B7-2570-31E3-B631-BB8AB1088A0D
92,"DOCK OF THE BAY","6134 Non, Rd.","Little Rock",Arkansas,790-526-9983,835167-6583,2245,"Blythe Robertson","Ap #676-3946 Auctor. Av.","Fort Smith",Arkansas,115-524-6479,233-19-03,343599B7-2570-31E3-B631-BB8AB1088A0D
98,"METRO CLUB","P.O. Box 753, 9068 In, Avenue","Little Rock",Arkansas,505-442-3555,289884-2378,2245,"Blythe Robertson","Ap #676-3946 Auctor. Av.","Fort Smith",Arkansas,115-524-6479,233-19-03,343599B7-2570-31E3-B631-BB8AB1088A0D
165,"CRISFIELD SEAFOOD RESTAURANT","P.O. Box 522, 3751 Ut Rd.",Springdale,Arkansas,889-988-7244,195256-6840,2245,"Blythe Robertson","Ap #676-3946 Auctor. Av.","Fort Smith",Arkansas,115-524-6479,233-19-03,343599B7-2570-31E3-B631-BB8AB1088A0D
237,"LA MADELEINE","2848 Tortor Rd.",Fayetteville,Arkansas,693-408-7304,027174-2033,2245,"Blythe Robertson","Ap #676-3946 Auctor. Av.","Fort Smith",Arkansas,115-524-6479,233-19-03,343599B7-2570-31E3-B631-BB8AB1088A0D
85,"L'Avant Comptoir de la Mer","139-9166 Sociis Rd.",Fayetteville,Arkansas,852-145-9715,972787-2484,2286,"Vivien Richardson","606-2597 Donec Av.",Springdale,Arkansas,926-473-0112,053-44-01,E9E269A3-B2A3-302F-86C2-EE32E07D9B2B
92,"DOCK OF THE BAY","6134 Non, Rd.","Little Rock",Arkansas,790-526-9983,835167-6583,2286,"Vivien Richardson","606-2597 Donec Av.",Springdale,Arkansas,926-473-0112,053-44-01,E9E269A3-B2A3-302F-86C2-EE32E07D9B2B
98,"METRO CLUB","P.O. Box 753, 9068 In, Avenue","Little Rock",Arkansas,505-442-3555,289884-2378,2286,"Vivien Richardson","606-2597 Donec Av.",Springdale,Arkansas,926-473-0112,053-44-01,E9E269A3-B2A3-302F-86C2-EE32E07D9B2B
165,"CRISFIELD SEAFOOD RESTAURANT","P.O. Box 522, 3751 Ut Rd.",Springdale,Arkansas,889-988-7244,195256-6840,2286,"Vivien Richardson","606-2597 Donec Av.",Springdale,Arkansas,926-473-0112,053-44-01,E9E269A3-B2A3-302F-86C2-EE32E07D9B2B
237,"LA MADELEINE","2848 Tortor Rd.",Fayetteville,Arkansas,693-408-7304,027174-2033,2286,"Vivien Richardson","606-2597 Donec Av.",Springdale,Arkansas,926-473-0112,053-44-01,E9E269A3-B2A3-302F-86C2-EE32E07D9B2B
85,"L'Avant Comptoir de la Mer","139-9166 Sociis Rd.",Fayetteville,Arkansas,852-145-9715,972787-2484,2346,"Gavin Hayes","Ap #226-7624 Magna Ave","Fort Smith",Arkansas,584-453-5577,087-96-02,0349AC9D-4DE9-444F-7836-43E848C296E8
92,"DOCK OF THE BAY","6134 Non, Rd.","Little Rock",Arkansas,790-526-9983,835167-6583,2346,"Gavin Hayes","Ap #226-7624 Magna Ave","Fort Smith",Arkansas,584-453-5577,087-96-02,0349AC9D-4DE9-444F-7836-43E848C296E8
98,"METRO CLUB","P.O. Box 753, 9068 In, Avenue","Little Rock",Arkansas,505-442-3555,289884-2378,2346,"Gavin Hayes","Ap #226-7624 Magna Ave","Fort Smith",Arkansas,584-453-5577,087-96-02,0349AC9D-4DE9-444F-7836-43E848C296E8
165,"CRISFIELD SEAFOOD RESTAURANT","P.O. Box 522, 3751 Ut Rd.",Springdale,Arkansas,889-988-7244,195256-6840,2346,"Gavin Hayes","Ap #226-7624 Magna Ave","Fort Smith",Arkansas,584-453-5577,087-96-02,0349AC9D-4DE9-444F-7836-43E848C296E8
237,"LA MADELEINE","2848 Tortor Rd.",Fayetteville,Arkansas,693-408-7304,027174-2033,2346,"Gavin Hayes","Ap #226-7624 Magna Ave","Fort Smith",Arkansas,584-453-5577,087-96-02,0349AC9D-4DE9-444F-7836-43E848C296E8
85,"L'Avant Comptoir de la Mer","139-9166 Sociis Rd.",Fayetteville,Arkansas,852-145-9715,972787-2484,2365,"Akeem Mcbride","P.O. Box 481, 5629 Congue Road",Springdale,Arkansas,885-580-0166,470-55-02,1E5D80CF-227E-6626-0F18-E12949FC020B
92,"DOCK OF THE BAY","6134 Non, Rd.","Little Rock",Arkansas,790-526-9983,835167-6583,2365,"Akeem Mcbride","P.O. Box 481, 5629 Congue Road",Springdale,Arkansas,885-580-0166,470-55-02,1E5D80CF-227E-6626-0F18-E12949FC020B
98,"METRO CLUB","P.O. Box 753, 9068 In, Avenue","Little Rock",Arkansas,505-442-3555,289884-2378,2365,"Akeem Mcbride","P.O. Box 481, 5629 Congue Road",Springdale,Arkansas,885-580-0166,470-55-02,1E5D80CF-227E-6626-0F18-E12949FC020B
165,"CRISFIELD SEAFOOD RESTAURANT","P.O. Box 522, 3751 Ut Rd.",Springdale,Arkansas,889-988-7244,195256-6840,2365,"Akeem Mcbride","P.O. Box 481, 5629 Congue Road",Springdale,Arkansas,885-580-0166,470-55-02,1E5D80CF-227E-6626-0F18-E12949FC020B
237,"LA MADELEINE","2848 Tortor Rd.",Fayetteville,Arkansas,693-408-7304,027174-2033,2365,"Akeem Mcbride","P.O. Box 481, 5629 Congue Road",Springdale,Arkansas,885-580-0166,470-55-02,1E5D80CF-227E-6626-0F18-E12949FC020B
85,"L'Avant Comptoir de la Mer","139-9166 Sociis Rd.",Fayetteville,Arkansas,852-145-9715,972787-2484,2433,"Carolyn Hendrix","528 Lacinia St.","Fort Smith",Arkansas,184-771-9555,662-34-08,AEA2162A-78FF-B31C-A90E-1DEF2556EF28
92,"DOCK OF THE BAY","6134 Non, Rd.","Little Rock",Arkansas,790-526-9983,835167-6583,2433,"Carolyn Hendrix","528 Lacinia St.","Fort Smith",Arkansas,184-771-9555,662-34-08,AEA2162A-78FF-B31C-A90E-1DEF2556EF28
98,"METRO CLUB","P.O. Box 753, 9068 In, Avenue","Little Rock",Arkansas,505-442-3555,289884-2378,2433,"Carolyn Hendrix","528 Lacinia St.","Fort Smith",Arkansas,184-771-9555,662-34-08,AEA2162A-78FF-B31C-A90E-1DEF2556EF28
165,"CRISFIELD SEAFOOD RESTAURANT","P.O. Box 522, 3751 Ut Rd.",Springdale,Arkansas,889-988-7244,195256-6840,2433,"Carolyn Hendrix","528 Lacinia St.","Fort Smith",Arkansas,184-771-9555,662-34-08,AEA2162A-78FF-B31C-A90E-1DEF2556EF28
237,"LA MADELEINE","2848 Tortor Rd.",Fayetteville,Arkansas,693-408-7304,027174-2033,2433,"Carolyn Hendrix","528 Lacinia St.","Fort Smith",Arkansas,184-771-9555,662-34-08,AEA2162A-78FF-B31C-A90E-1DEF2556EF28
85,"L'Avant Comptoir de la Mer","139-9166 Sociis Rd.",Fayetteville,Arkansas,852-145-9715,972787-2484,2553,"Regina Nichols","791-3617 Diam. Avenue","Little Rock",Arkansas,180-318-1596,527-37-06,E235F5F7-ED30-7985-C8B0-A2264D0F26A5
92,"DOCK OF THE BAY","6134 Non, Rd.","Little Rock",Arkansas,790-526-9983,835167-6583,2553,"Regina Nichols","791-3617 Diam. Avenue","Little Rock",Arkansas,180-318-1596,527-37-06,E235F5F7-ED30-7985-C8B0-A2264D0F26A5
98,"METRO CLUB","P.O. Box 753, 9068 In, Avenue","Little Rock",Arkansas,505-442-3555,289884-2378,2553,"Regina Nichols","791-3617 Diam. Avenue","Little Rock",Arkansas,180-318-1596,527-37-06,E235F5F7-ED30-7985-C8B0-A2264D0F26A5
165,"CRISFIELD SEAFOOD RESTAURANT","P.O. Box 522, 3751 Ut Rd.",Springdale,Arkansas,889-988-7244,195256-6840,2553,"Regina Nichols","791-3617 Diam. Avenue","Little Rock",Arkansas,180-318-1596,527-37-06,E235F5F7-ED30-7985-C8B0-A2264D0F26A5
237,"LA MADELEINE","2848 Tortor Rd.",Fayetteville,Arkansas,693-408-7304,027174-2033,2553,"Regina Nichols","791-3617 Diam. Avenue","Little Rock",Arkansas,180-318-1596,527-37-06,E235F5F7-ED30-7985-C8B0-A2264D0F26A5
85,"L'Avant Comptoir de la Mer","139-9166 Sociis Rd.",Fayetteville,Arkansas,852-145-9715,972787-2484,2566,"Devin Bishop","464 In Rd.",Jonesboro,Arkansas,808-378-3585,482-74-03,FEC12507-D58E-F11D-06D0-AA09734B3CCC
92,"DOCK OF THE BAY","6134 Non, Rd.","Little Rock",Arkansas,790-526-9983,835167-6583,2566,"Devin Bishop","464 In Rd.",Jonesboro,Arkansas,808-378-3585,482-74-03,FEC12507-D58E-F11D-06D0-AA09734B3CCC
98,"METRO CLUB","P.O. Box 753, 9068 In, Avenue","Little Rock",Arkansas,505-442-3555,289884-2378,2566,"Devin Bishop","464 In Rd.",Jonesboro,Arkansas,808-378-3585,482-74-03,FEC12507-D58E-F11D-06D0-AA09734B3CCC
165,"CRISFIELD SEAFOOD RESTAURANT","P.O. Box 522, 3751 Ut Rd.",Springdale,Arkansas,889-988-7244,195256-6840,2566,"Devin Bishop","464 In Rd.",Jonesboro,Arkansas,808-378-3585,482-74-03,FEC12507-D58E-F11D-06D0-AA09734B3CCC
237,"LA MADELEINE","2848 Tortor Rd.",Fayetteville,Arkansas,693-408-7304,027174-2033,2566,"Devin Bishop","464 In Rd.",Jonesboro,Arkansas,808-378-3585,482-74-03,FEC12507-D58E-F11D-06D0-AA09734B3CCC
85,"L'Avant Comptoir de la Mer","139-9166 Sociis Rd.",Fayetteville,Arkansas,852-145-9715,972787-2484,2601,"Giacomo Melton","Ap #743-6982 Tempus Street","Fort Smith",Arkansas,543-799-7520,840-70-04,79724824-CF24-EF6B-BC13-864EC105A5BF
92,"DOCK OF THE BAY","6134 Non, Rd.","Little Rock",Arkansas,790-526-9983,835167-6583,2601,"Giacomo Melton","Ap #743-6982 Tempus Street","Fort Smith",Arkansas,543-799-7520,840-70-04,79724824-CF24-EF6B-BC13-864EC105A5BF
98,"METRO CLUB","P.O. Box 753, 9068 In, Avenue","Little Rock",Arkansas,505-442-3555,289884-2378,2601,"Giacomo Melton","Ap #743-6982 Tempus Street","Fort Smith",Arkansas,543-799-7520,840-70-04,79724824-CF24-EF6B-BC13-864EC105A5BF
165,"CRISFIELD SEAFOOD RESTAURANT","P.O. Box 522, 3751 Ut Rd.",Springdale,Arkansas,889-988-7244,195256-6840,2601,"Giacomo Melton","Ap #743-6982 Tempus Street","Fort Smith",Arkansas,543-799-7520,840-70-04,79724824-CF24-EF6B-BC13-864EC105A5BF
237,"LA MADELEINE","2848 Tortor Rd.",Fayetteville,Arkansas,693-408-7304,027174-2033,2601,"Giacomo Melton","Ap #743-6982 Tempus Street","Fort Smith",Arkansas,543-799-7520,840-70-04,79724824-CF24-EF6B-BC13-864EC105A5BF
85,"L'Avant Comptoir de la Mer","139-9166 Sociis Rd.",Fayetteville,Arkansas,852-145-9715,972787-2484,2630,"Lucius Simpson","3062 Porttitor Rd.","Little Rock",Arkansas,700-117-8839,627-60-07,DB97F2C3-6EBF-D58A-E364-0499D490795E
92,"DOCK OF THE BAY","6134 Non, Rd.","Little Rock",Arkansas,790-526-9983,835167-6583,2630,"Lucius Simpson","3062 Porttitor Rd.","Little Rock",Arkansas,700-117-8839,627-60-07,DB97F2C3-6EBF-D58A-E364-0499D490795E
98,"METRO CLUB","P.O. Box 753, 9068 In, Avenue","Little Rock",Arkansas,505-442-3555,289884-2378,2630,"Lucius Simpson","3062 Porttitor Rd.","Little Rock",Arkansas,700-117-8839,627-60-07,DB97F2C3-6EBF-D58A-E364-0499D490795E
165,"CRISFIELD SEAFOOD RESTAURANT","P.O. Box 522, 3751 Ut Rd.",Springdale,Arkansas,889-988-7244,195256-6840,2630,"Lucius Simpson","3062 Porttitor Rd.","Little Rock",Arkansas,700-117-8839,627-60-07,DB97F2C3-6EBF-D58A-E364-0499D490795E
237,"LA MADELEINE","2848 Tortor Rd.",Fayetteville,Arkansas,693-408-7304,027174-2033,2630,"Lucius Simpson","3062 Porttitor Rd.","Little Rock",Arkansas,700-117-8839,627-60-07,DB97F2C3-6EBF-D58A-E364-0499D490795E
85,"L'Avant Comptoir de la Mer","139-9166 Sociis Rd.",Fayetteville,Arkansas,852-145-9715,972787-2484,2734,"Kendall Pitts","952-6456 Maecenas Road","Little Rock",Arkansas,434-717-9375,610-27-03,98566D41-C060-A79C-24B4-C647F8886BBD
92,"DOCK OF THE BAY","6134 Non, Rd.","Little Rock",Arkansas,790-526-9983,835167-6583,2734,"Kendall Pitts","952-6456 Maecenas Road","Little Rock",Arkansas,434-717-9375,610-27-03,98566D41-C060-A79C-24B4-C647F8886BBD
98,"METRO CLUB","P.O. Box 753, 9068 In, Avenue","Little Rock",Arkansas,505-442-3555,289884-2378,2734,"Kendall Pitts","952-6456 Maecenas Road","Little Rock",Arkansas,434-717-9375,610-27-03,98566D41-C060-A79C-24B4-C647F8886BBD
165,"CRISFIELD SEAFOOD RESTAURANT","P.O. Box 522, 3751 Ut Rd.",Springdale,Arkansas,889-988-7244,195256-6840,2734,"Kendall Pitts","952-6456 Maecenas Road","Little Rock",Arkansas,434-717-9375,610-27-03,98566D41-C060-A79C-24B4-C647F8886BBD
237,"LA MADELEINE","2848 Tortor Rd.",Fayetteville,Arkansas,693-408-7304,027174-2033,2734,"Kendall Pitts","952-6456 Maecenas Road","Little Rock",Arkansas,434-717-9375,610-27-03,98566D41-C060-A79C-24B4-C647F8886BBD
85,"L'Avant Comptoir de la Mer","139-9166 Sociis Rd.",Fayetteville,Arkansas,852-145-9715,972787-2484,2766,"Carolyn Joseph","7654 Fringilla, Rd.",Springdale,Arkansas,191-575-1767,264-96-08,6C0801BD-5321-58B2-09E6-1F869C3691A5
92,"DOCK OF THE BAY","6134 Non, Rd.","Little Rock",Arkansas,790-526-9983,835167-6583,2766,"Carolyn Joseph","7654 Fringilla, Rd.",Springdale,Arkansas,191-575-1767,264-96-08,6C0801BD-5321-58B2-09E6-1F869C3691A5
98,"METRO CLUB","P.O. Box 753, 9068 In, Avenue","Little Rock",Arkansas,505-442-3555,289884-2378,2766,"Carolyn Joseph","7654 Fringilla, Rd.",Springdale,Arkansas,191-575-1767,264-96-08,6C0801BD-5321-58B2-09E6-1F869C3691A5
165,"CRISFIELD SEAFOOD RESTAURANT","P.O. Box 522, 3751 Ut Rd.",Springdale,Arkansas,889-988-7244,195256-6840,2766,"Carolyn Joseph","7654 Fringilla, Rd.",Springdale,Arkansas,191-575-1767,264-96-08,6C0801BD-5321-58B2-09E6-1F869C3691A5
237,"LA MADELEINE","2848 Tortor Rd.",Fayetteville,Arkansas,693-408-7304,027174-2033,2766,"Carolyn Joseph","7654 Fringilla, Rd.",Springdale,Arkansas,191-575-1767,264-96-08,6C0801BD-5321-58B2-09E6-1F869C3691A5
85,"L'Avant Comptoir de la Mer","139-9166 Sociis Rd.",Fayetteville,Arkansas,852-145-9715,972787-2484,2886,"Harrison Baxter","192-8872 Cubilia Av.",Springdale,Arkansas,796-792-2555,385-85-03,20C179EC-BD9F-2644-449E-570E7CB70094
92,"DOCK OF THE BAY","6134 Non, Rd.","Little Rock",Arkansas,790-526-9983,835167-6583,2886,"Harrison Baxter","192-8872 Cubilia Av.",Springdale,Arkansas,796-792-2555,385-85-03,20C179EC-BD9F-2644-449E-570E7CB70094
98,"METRO CLUB","P.O. Box 753, 9068 In, Avenue","Little Rock",Arkansas,505-442-3555,289884-2378,2886,"Harrison Baxter","192-8872 Cubilia Av.",Springdale,Arkansas,796-792-2555,385-85-03,20C179EC-BD9F-2644-449E-570E7CB70094
165,"CRISFIELD SEAFOOD RESTAURANT","P.O. Box 522, 3751 Ut Rd.",Springdale,Arkansas,889-988-7244,195256-6840,2886,"Harrison Baxter","192-8872 Cubilia Av.",Springdale,Arkansas,796-792-2555,385-85-03,20C179EC-BD9F-2644-449E-570E7CB70094
237,"LA MADELEINE","2848 Tortor Rd.",Fayetteville,Arkansas,693-408-7304,027174-2033,2886,"Harrison Baxter","192-8872 Cubilia Av.",Springdale,Arkansas,796-792-2555,385-85-03,20C179EC-BD9F-2644-449E-570E7CB70094
85,"L'Avant Comptoir de la Mer","139-9166 Sociis Rd.",Fayetteville,Arkansas,852-145-9715,972787-2484,2928,"Mohammad Garza","Ap #909-6310 Mi. Ave","Fort Smith",Arkansas,800-954-5607,278-58-07,281B5938-8F60-8BED-B657-892F565B73A3
92,"DOCK OF THE BAY","6134 Non, Rd.","Little Rock",Arkansas,790-526-9983,835167-6583,2928,"Mohammad Garza","Ap #909-6310 Mi. Ave","Fort Smith",Arkansas,800-954-5607,278-58-07,281B5938-8F60-8BED-B657-892F565B73A3
98,"METRO CLUB","P.O. Box 753, 9068 In, Avenue","Little Rock",Arkansas,505-442-3555,289884-2378,2928,"Mohammad Garza","Ap #909-6310 Mi. Ave","Fort Smith",Arkansas,800-954-5607,278-58-07,281B5938-8F60-8BED-B657-892F565B73A3
165,"CRISFIELD SEAFOOD RESTAURANT","P.O. Box 522, 3751 Ut Rd.",Springdale,Arkansas,889-988-7244,195256-6840,2928,"Mohammad Garza","Ap #909-6310 Mi. Ave","Fort Smith",Arkansas,800-954-5607,278-58-07,281B5938-8F60-8BED-B657-892F565B73A3
237,"LA MADELEINE","2848 Tortor Rd.",Fayetteville,Arkansas,693-408-7304,027174-2033,2928,"Mohammad Garza","Ap #909-6310 Mi. Ave","Fort Smith",Arkansas,800-954-5607,278-58-07,281B5938-8F60-8BED-B657-892F565B73A3
85,"L'Avant Comptoir de la Mer","139-9166 Sociis Rd.",Fayetteville,Arkansas,852-145-9715,972787-2484,2969,"Shea Ball","1984 Ultrices Street",Jonesboro,Arkansas,762-970-6508,828-80-08,E1597D37-1431-B869-9AE0-15C25E314AF9
92,"DOCK OF THE BAY","6134 Non, Rd.","Little Rock",Arkansas,790-526-9983,835167-6583,2969,"Shea Ball","1984 Ultrices Street",Jonesboro,Arkansas,762-970-6508,828-80-08,E1597D37-1431-B869-9AE0-15C25E314AF9
98,"METRO CLUB","P.O. Box 753, 9068 In, Avenue","Little Rock",Arkansas,505-442-3555,289884-2378,2969,"Shea Ball","1984 Ultrices Street",Jonesboro,Arkansas,762-970-6508,828-80-08,E1597D37-1431-B869-9AE0-15C25E314AF9
165,"CRISFIELD SEAFOOD RESTAURANT","P.O. Box 522, 3751 Ut Rd.",Springdale,Arkansas,889-988-7244,195256-6840,2969,"Shea Ball","1984 Ultrices Street",Jonesboro,Arkansas,762-970-6508,828-80-08,E1597D37-1431-B869-9AE0-15C25E314AF9
237,"LA MADELEINE","2848 Tortor Rd.",Fayetteville,Arkansas,693-408-7304,027174-2033,2969,"Shea Ball","1984 Ultrices Street",Jonesboro,Arkansas,762-970-6508,828-80-08,E1597D37-1431-B869-9AE0-15C25E314AF9
85,"L'Avant Comptoir de la Mer","139-9166 Sociis Rd.",Fayetteville,Arkansas,852-145-9715,972787-2484,2980,"Ashton Howard","P.O. Box 354, 4901 Aenean St.","Little Rock",Arkansas,321-958-5699,170-14-02,A2D09C19-0471-5FA7-B01F-3BE9D113A0B9
92,"DOCK OF THE BAY","6134 Non, Rd.","Little Rock",Arkansas,790-526-9983,835167-6583,2980,"Ashton Howard","P.O. Box 354, 4901 Aenean St.","Little Rock",Arkansas,321-958-5699,170-14-02,A2D09C19-0471-5FA7-B01F-3BE9D113A0B9
98,"METRO CLUB","P.O. Box 753, 9068 In, Avenue","Little Rock",Arkansas,505-442-3555,289884-2378,2980,"Ashton Howard","P.O. Box 354, 4901 Aenean St.","Little Rock",Arkansas,321-958-5699,170-14-02,A2D09C19-0471-5FA7-B01F-3BE9D113A0B9
165,"CRISFIELD SEAFOOD RESTAURANT","P.O. Box 522, 3751 Ut Rd.",Springdale,Arkansas,889-988-7244,195256-6840,2980,"Ashton Howard","P.O. Box 354, 4901 Aenean St.","Little Rock",Arkansas,321-958-5699,170-14-02,A2D09C19-0471-5FA7-B01F-3BE9D113A0B9
237,"LA MADELEINE","2848 Tortor Rd.",Fayetteville,Arkansas,693-408-7304,027174-2033,2980,"Ashton Howard","P.O. Box 354, 4901 Aenean St.","Little Rock",Arkansas,321-958-5699,170-14-02,A2D09C19-0471-5FA7-B01F-3BE9D113A0B9
85,"L'Avant Comptoir de la Mer","139-9166 Sociis Rd.",Fayetteville,Arkansas,852-145-9715,972787-2484,3043,"Cyrus Miles","Ap #460-6628 Ornare, St.",Springdale,Arkansas,139-742-2325,763-69-05,2BCB50DE-DA1E-721E-FA2C-90AD32754311
92,"DOCK OF THE BAY","6134 Non, Rd.","Little Rock",Arkansas,790-526-9983,835167-6583,3043,"Cyrus Miles","Ap #460-6628 Ornare, St.",Springdale,Arkansas,139-742-2325,763-69-05,2BCB50DE-DA1E-721E-FA2C-90AD32754311
98,"METRO CLUB","P.O. Box 753, 9068 In, Avenue","Little Rock",Arkansas,505-442-3555,289884-2378,3043,"Cyrus Miles","Ap #460-6628 Ornare, St.",Springdale,Arkansas,139-742-2325,763-69-05,2BCB50DE-DA1E-721E-FA2C-90AD32754311
165,"CRISFIELD SEAFOOD RESTAURANT","P.O. Box 522, 3751 Ut Rd.",Springdale,Arkansas,889-988-7244,195256-6840,3043,"Cyrus Miles","Ap #460-6628 Ornare, St.",Springdale,Arkansas,139-742-2325,763-69-05,2BCB50DE-DA1E-721E-FA2C-90AD32754311
237,"LA MADELEINE","2848 Tortor Rd.",Fayetteville,Arkansas,693-408-7304,027174-2033,3043,"Cyrus Miles","Ap #460-6628 Ornare, St.",Springdale,Arkansas,139-742-2325,763-69-05,2BCB50DE-DA1E-721E-FA2C-90AD32754311
85,"L'Avant Comptoir de la Mer","139-9166 Sociis Rd.",Fayetteville,Arkansas,852-145-9715,972787-2484,3076,"Brenna Nunez","4130 In Avenue","Little Rock",Arkansas,706-110-1667,457-81-05,F5ACCA69-0EF9-502D-5C3E-5A84C6E2FDCC
92,"DOCK OF THE BAY","6134 Non, Rd.","Little Rock",Arkansas,790-526-9983,835167-6583,3076,"Brenna Nunez","4130 In Avenue","Little Rock",Arkansas,706-110-1667,457-81-05,F5ACCA69-0EF9-502D-5C3E-5A84C6E2FDCC
98,"METRO CLUB","P.O. Box 753, 9068 In, Avenue","Little Rock",Arkansas,505-442-3555,289884-2378,3076,"Brenna Nunez","4130 In Avenue","Little Rock",Arkansas,706-110-1667,457-81-05,F5ACCA69-0EF9-502D-5C3E-5A84C6E2FDCC
165,"CRISFIELD SEAFOOD RESTAURANT","P.O. Box 522, 3751 Ut Rd.",Springdale,Arkansas,889-988-7244,195256-6840,3076,"Brenna Nunez","4130 In Avenue","Little Rock",Arkansas,706-110-1667,457-81-05,F5ACCA69-0EF9-502D-5C3E-5A84C6E2FDCC
237,"LA MADELEINE","2848 Tortor Rd.",Fayetteville,Arkansas,693-408-7304,027174-2033,3076,"Brenna Nunez","4130 In Avenue","Little Rock",Arkansas,706-110-1667,457-81-05,F5ACCA69-0EF9-502D-5C3E-5A84C6E2FDCC
85,"L'Avant Comptoir de la Mer","139-9166 Sociis Rd.",Fayetteville,Arkansas,852-145-9715,972787-2484,3084,"Orlando Miranda","P.O. Box 318, 7352 Placerat. Avenue",Jonesboro,Arkansas,442-572-4809,750-24-01,E323B045-DF08-4B74-10DE-E3DB70E7D378
92,"DOCK OF THE BAY","6134 Non, Rd.","Little Rock",Arkansas,790-526-9983,835167-6583,3084,"Orlando Miranda","P.O. Box 318, 7352 Placerat. Avenue",Jonesboro,Arkansas,442-572-4809,750-24-01,E323B045-DF08-4B74-10DE-E3DB70E7D378
98,"METRO CLUB","P.O. Box 753, 9068 In, Avenue","Little Rock",Arkansas,505-442-3555,289884-2378,3084,"Orlando Miranda","P.O. Box 318, 7352 Placerat. Avenue",Jonesboro,Arkansas,442-572-4809,750-24-01,E323B045-DF08-4B74-10DE-E3DB70E7D378
165,"CRISFIELD SEAFOOD RESTAURANT","P.O. Box 522, 3751 Ut Rd.",Springdale,Arkansas,889-988-7244,195256-6840,3084,"Orlando Miranda","P.O. Box 318, 7352 Placerat. Avenue",Jonesboro,Arkansas,442-572-4809,750-24-01,E323B045-DF08-4B74-10DE-E3DB70E7D378
237,"LA MADELEINE","2848 Tortor Rd.",Fayetteville,Arkansas,693-408-7304,027174-2033,3084,"Orlando Miranda","P.O. Box 318, 7352 Placerat. Avenue",Jonesboro,Arkansas,442-572-4809,750-24-01,E323B045-DF08-4B74-10DE-E3DB70E7D378
85,"L'Avant Comptoir de la Mer","139-9166 Sociis Rd.",Fayetteville,Arkansas,852-145-9715,972787-2484,3099,"Donovan Charles","9376 Suspendisse St.","Little Rock",Arkansas,148-134-3568,525-59-04,DD986C58-7888-DD4D-7221-3DEFB67EFB2C
92,"DOCK OF THE BAY","6134 Non, Rd.","Little Rock",Arkansas,790-526-9983,835167-6583,3099,"Donovan Charles","9376 Suspendisse St.","Little Rock",Arkansas,148-134-3568,525-59-04,DD986C58-7888-DD4D-7221-3DEFB67EFB2C
98,"METRO CLUB","P.O. Box 753, 9068 In, Avenue","Little Rock",Arkansas,505-442-3555,289884-2378,3099,"Donovan Charles","9376 Suspendisse St.","Little Rock",Arkansas,148-134-3568,525-59-04,DD986C58-7888-DD4D-7221-3DEFB67EFB2C
165,"CRISFIELD SEAFOOD RESTAURANT","P.O. Box 522, 3751 Ut Rd.",Springdale,Arkansas,889-988-7244,195256-6840,3099,"Donovan Charles","9376 Suspendisse St.","Little Rock",Arkansas,148-134-3568,525-59-04,DD986C58-7888-DD4D-7221-3DEFB67EFB2C
237,"LA MADELEINE","2848 Tortor Rd.",Fayetteville,Arkansas,693-408-7304,027174-2033,3099,"Donovan Charles","9376 Suspendisse St.","Little Rock",Arkansas,148-134-3568,525-59-04,DD986C58-7888-DD4D-7221-3DEFB67EFB2C
85,"L'Avant Comptoir de la Mer","139-9166 Sociis Rd.",Fayetteville,Arkansas,852-145-9715,972787-2484,3143,"Troy Bryan","P.O. Box 446, 5086 Arcu. St.",Springdale,Arkansas,988-374-7092,216-27-07,B64B7D51-34C1-1CEE-C276-3A43F7AA235C
92,"DOCK OF THE BAY","6134 Non, Rd.","Little Rock",Arkansas,790-526-9983,835167-6583,3143,"Troy Bryan","P.O. Box 446, 5086 Arcu. St.",Springdale,Arkansas,988-374-7092,216-27-07,B64B7D51-34C1-1CEE-C276-3A43F7AA235C
98,"METRO CLUB","P.O. Box 753, 9068 In, Avenue","Little Rock",Arkansas,505-442-3555,289884-2378,3143,"Troy Bryan","P.O. Box 446, 5086 Arcu. St.",Springdale,Arkansas,988-374-7092,216-27-07,B64B7D51-34C1-1CEE-C276-3A43F7AA235C
165,"CRISFIELD SEAFOOD RESTAURANT","P.O. Box 522, 3751 Ut Rd.",Springdale,Arkansas,889-988-7244,195256-6840,3143,"Troy Bryan","P.O. Box 446, 5086 Arcu. St.",Springdale,Arkansas,988-374-7092,216-27-07,B64B7D51-34C1-1CEE-C276-3A43F7AA235C
237,"LA MADELEINE","2848 Tortor Rd.",Fayetteville,Arkansas,693-408-7304,027174-2033,3143,"Troy Bryan","P.O. Box 446, 5086 Arcu. St.",Springdale,Arkansas,988-374-7092,216-27-07,B64B7D51-34C1-1CEE-C276-3A43F7AA235C
85,"L'Avant Comptoir de la Mer","139-9166 Sociis Rd.",Fayetteville,Arkansas,852-145-9715,972787-2484,3182,"Quinlan Cruz","Ap #181-8335 Tincidunt. St.","Fort Smith",Arkansas,767-513-4151,640-09-00,357774C6-CA95-98CC-4394-555D361864E8
92,"DOCK OF THE BAY","6134 Non, Rd.","Little Rock",Arkansas,790-526-9983,835167-6583,3182,"Quinlan Cruz","Ap #181-8335 Tincidunt. St.","Fort Smith",Arkansas,767-513-4151,640-09-00,357774C6-CA95-98CC-4394-555D361864E8
98,"METRO CLUB","P.O. Box 753, 9068 In, Avenue","Little Rock",Arkansas,505-442-3555,289884-2378,3182,"Quinlan Cruz","Ap #181-8335 Tincidunt. St.","Fort Smith",Arkansas,767-513-4151,640-09-00,357774C6-CA95-98CC-4394-555D361864E8
165,"CRISFIELD SEAFOOD RESTAURANT","P.O. Box 522, 3751 Ut Rd.",Springdale,Arkansas,889-988-7244,195256-6840,3182,"Quinlan Cruz","Ap #181-8335 Tincidunt. St.","Fort Smith",Arkansas,767-513-4151,640-09-00,357774C6-CA95-98CC-4394-555D361864E8
237,"LA MADELEINE","2848 Tortor Rd.",Fayetteville,Arkansas,693-408-7304,027174-2033,3182,"Quinlan Cruz","Ap #181-8335 Tincidunt. St.","Fort Smith",Arkansas,767-513-4151,640-09-00,357774C6-CA95-98CC-4394-555D361864E8
85,"L'Avant Comptoir de la Mer","139-9166 Sociis Rd.",Fayetteville,Arkansas,852-145-9715,972787-2484,3200,"Dieter Padilla","Ap #539-8783 Scelerisque St.",Fayetteville,Arkansas,939-877-9698,895-94-03,AFF54A3C-0ACB-4AAD-2EA9-2350B0323D1D
92,"DOCK OF THE BAY","6134 Non, Rd.","Little Rock",Arkansas,790-526-9983,835167-6583,3200,"Dieter Padilla","Ap #539-8783 Scelerisque St.",Fayetteville,Arkansas,939-877-9698,895-94-03,AFF54A3C-0ACB-4AAD-2EA9-2350B0323D1D
98,"METRO CLUB","P.O. Box 753, 9068 In, Avenue","Little Rock",Arkansas,505-442-3555,289884-2378,3200,"Dieter Padilla","Ap #539-8783 Scelerisque St.",Fayetteville,Arkansas,939-877-9698,895-94-03,AFF54A3C-0ACB-4AAD-2EA9-2350B0323D1D
165,"CRISFIELD SEAFOOD RESTAURANT","P.O. Box 522, 3751 Ut Rd.",Springdale,Arkansas,889-988-7244,195256-6840,3200,"Dieter Padilla","Ap #539-8783 Scelerisque St.",Fayetteville,Arkansas,939-877-9698,895-94-03,AFF54A3C-0ACB-4AAD-2EA9-2350B0323D1D
237,"LA MADELEINE","2848 Tortor Rd.",Fayetteville,Arkansas,693-408-7304,027174-2033,3200,"Dieter Padilla","Ap #539-8783 Scelerisque St.",Fayetteville,Arkansas,939-877-9698,895-94-03,AFF54A3C-0ACB-4AAD-2EA9-2350B0323D1D
85,"L'Avant Comptoir de la Mer","139-9166 Sociis Rd.",Fayetteville,Arkansas,852-145-9715,972787-2484,3254,"Yetta Kent","Ap #505-3308 Sit Av.",Fayetteville,Arkansas,743-945-9846,615-92-05,06B0EE72-E3BD-5C80-FC40-FD75AB6E54EB
92,"DOCK OF THE BAY","6134 Non, Rd.","Little Rock",Arkansas,790-526-9983,835167-6583,3254,"Yetta Kent","Ap #505-3308 Sit Av.",Fayetteville,Arkansas,743-945-9846,615-92-05,06B0EE72-E3BD-5C80-FC40-FD75AB6E54EB
98,"METRO CLUB","P.O. Box 753, 9068 In, Avenue","Little Rock",Arkansas,505-442-3555,289884-2378,3254,"Yetta Kent","Ap #505-3308 Sit Av.",Fayetteville,Arkansas,743-945-9846,615-92-05,06B0EE72-E3BD-5C80-FC40-FD75AB6E54EB
165,"CRISFIELD SEAFOOD RESTAURANT","P.O. Box 522, 3751 Ut Rd.",Springdale,Arkansas,889-988-7244,195256-6840,3254,"Yetta Kent","Ap #505-3308 Sit Av.",Fayetteville,Arkansas,743-945-9846,615-92-05,06B0EE72-E3BD-5C80-FC40-FD75AB6E54EB
237,"LA MADELEINE","2848 Tortor Rd.",Fayetteville,Arkansas,693-408-7304,027174-2033,3254,"Yetta Kent","Ap #505-3308 Sit Av.",Fayetteville,Arkansas,743-945-9846,615-92-05,06B0EE72-E3BD-5C80-FC40-FD75AB6E54EB
85,"L'Avant Comptoir de la Mer","139-9166 Sociis Rd.",Fayetteville,Arkansas,852-145-9715,972787-2484,3290,"Reagan Barnett","Ap #220-2721 Rhoncus. Rd.",Jonesboro,Arkansas,764-545-9510,413-69-06,69D949EC-C88D-B834-DF12-909FD3A1EE8B
92,"DOCK OF THE BAY","6134 Non, Rd.","Little Rock",Arkansas,790-526-9983,835167-6583,3290,"Reagan Barnett","Ap #220-2721 Rhoncus. Rd.",Jonesboro,Arkansas,764-545-9510,413-69-06,69D949EC-C88D-B834-DF12-909FD3A1EE8B
98,"METRO CLUB","P.O. Box 753, 9068 In, Avenue","Little Rock",Arkansas,505-442-3555,289884-2378,3290,"Reagan Barnett","Ap #220-2721 Rhoncus. Rd.",Jonesboro,Arkansas,764-545-9510,413-69-06,69D949EC-C88D-B834-DF12-909FD3A1EE8B
165,"CRISFIELD SEAFOOD RESTAURANT","P.O. Box 522, 3751 Ut Rd.",Springdale,Arkansas,889-988-7244,195256-6840,3290,"Reagan Barnett","Ap #220-2721 Rhoncus. Rd.",Jonesboro,Arkansas,764-545-9510,413-69-06,69D949EC-C88D-B834-DF12-909FD3A1EE8B
237,"LA MADELEINE","2848 Tortor Rd.",Fayetteville,Arkansas,693-408-7304,027174-2033,3290,"Reagan Barnett","Ap #220-2721 Rhoncus. Rd.",Jonesboro,Arkansas,764-545-9510,413-69-06,69D949EC-C88D-B834-DF12-909FD3A1EE8B
85,"L'Avant Comptoir de la Mer","139-9166 Sociis Rd.",Fayetteville,Arkansas,852-145-9715,972787-2484,3305,"Zenia Santos","6809 Ante Rd.","Little Rock",Arkansas,271-569-4029,138-78-02,83763A8E-6B6C-0662-B9BF-DCF0B3D7EAB4
92,"DOCK OF THE BAY","6134 Non, Rd.","Little Rock",Arkansas,790-526-9983,835167-6583,3305,"Zenia Santos","6809 Ante Rd.","Little Rock",Arkansas,271-569-4029,138-78-02,83763A8E-6B6C-0662-B9BF-DCF0B3D7EAB4
98,"METRO CLUB","P.O. Box 753, 9068 In, Avenue","Little Rock",Arkansas,505-442-3555,289884-2378,3305,"Zenia Santos","6809 Ante Rd.","Little Rock",Arkansas,271-569-4029,138-78-02,83763A8E-6B6C-0662-B9BF-DCF0B3D7EAB4
165,"CRISFIELD SEAFOOD RESTAURANT","P.O. Box 522, 3751 Ut Rd.",Springdale,Arkansas,889-988-7244,195256-6840,3305,"Zenia Santos","6809 Ante Rd.","Little Rock",Arkansas,271-569-4029,138-78-02,83763A8E-6B6C-0662-B9BF-DCF0B3D7EAB4
237,"LA MADELEINE","2848 Tortor Rd.",Fayetteville,Arkansas,693-408-7304,027174-2033,3305,"Zenia Santos","6809 Ante Rd.","Little Rock",Arkansas,271-569-4029,138-78-02,83763A8E-6B6C-0662-B9BF-DCF0B3D7EAB4
85,"L'Avant Comptoir de la Mer","139-9166 Sociis Rd.",Fayetteville,Arkansas,852-145-9715,972787-2484,3321,"May Mcknight","876-1295 Vel Road",Springdale,Arkansas,202-653-0717,115-22-05,109D9A7C-7DEC-CA57-7598-3DF97774B38E
92,"DOCK OF THE BAY","6134 Non, Rd.","Little Rock",Arkansas,790-526-9983,835167-6583,3321,"May Mcknight","876-1295 Vel Road",Springdale,Arkansas,202-653-0717,115-22-05,109D9A7C-7DEC-CA57-7598-3DF97774B38E
98,"METRO CLUB","P.O. Box 753, 9068 In, Avenue","Little Rock",Arkansas,505-442-3555,289884-2378,3321,"May Mcknight","876-1295 Vel Road",Springdale,Arkansas,202-653-0717,115-22-05,109D9A7C-7DEC-CA57-7598-3DF97774B38E
165,"CRISFIELD SEAFOOD RESTAURANT","P.O. Box 522, 3751 Ut Rd.",Springdale,Arkansas,889-988-7244,195256-6840,3321,"May Mcknight","876-1295 Vel Road",Springdale,Arkansas,202-653-0717,115-22-05,109D9A7C-7DEC-CA57-7598-3DF97774B38E
237,"LA MADELEINE","2848 Tortor Rd.",Fayetteville,Arkansas,693-408-7304,027174-2033,3321,"May Mcknight","876-1295 Vel Road",Springdale,Arkansas,202-653-0717,115-22-05,109D9A7C-7DEC-CA57-7598-3DF97774B38E
85,"L'Avant Comptoir de la Mer","139-9166 Sociis Rd.",Fayetteville,Arkansas,852-145-9715,972787-2484,3330,"Aidan Sparks","Ap #227-2667 Ut, Street",Jonesboro,Arkansas,866-613-7653,176-97-04,8E45663B-594E-D9A0-4161-4F1CA1C031C5
92,"DOCK OF THE BAY","6134 Non, Rd.","Little Rock",Arkansas,790-526-9983,835167-6583,3330,"Aidan Sparks","Ap #227-2667 Ut, Street",Jonesboro,Arkansas,866-613-7653,176-97-04,8E45663B-594E-D9A0-4161-4F1CA1C031C5
98,"METRO CLUB","P.O. Box 753, 9068 In, Avenue","Little Rock",Arkansas,505-442-3555,289884-2378,3330,"Aidan Sparks","Ap #227-2667 Ut, Street",Jonesboro,Arkansas,866-613-7653,176-97-04,8E45663B-594E-D9A0-4161-4F1CA1C031C5
165,"CRISFIELD SEAFOOD RESTAURANT","P.O. Box 522, 3751 Ut Rd.",Springdale,Arkansas,889-988-7244,195256-6840,3330,"Aidan Sparks","Ap #227-2667 Ut, Street",Jonesboro,Arkansas,866-613-7653,176-97-04,8E45663B-594E-D9A0-4161-4F1CA1C031C5
237,"LA MADELEINE","2848 Tortor Rd.",Fayetteville,Arkansas,693-408-7304,027174-2033,3330,"Aidan Sparks","Ap #227-2667 Ut, Street",Jonesboro,Arkansas,866-613-7653,176-97-04,8E45663B-594E-D9A0-4161-4F1CA1C031C5
85,"L'Avant Comptoir de la Mer","139-9166 Sociis Rd.",Fayetteville,Arkansas,852-145-9715,972787-2484,3347,"Mia Olson","4791 Magna Road",Jonesboro,Arkansas,507-715-5770,481-48-01,8434F6BF-835D-9766-69D9-0BB6D6B0F99D
92,"DOCK OF THE BAY","6134 Non, Rd.","Little Rock",Arkansas,790-526-9983,835167-6583,3347,"Mia Olson","4791 Magna Road",Jonesboro,Arkansas,507-715-5770,481-48-01,8434F6BF-835D-9766-69D9-0BB6D6B0F99D
98,"METRO CLUB","P.O. Box 753, 9068 In, Avenue","Little Rock",Arkansas,505-442-3555,289884-2378,3347,"Mia Olson","4791 Magna Road",Jonesboro,Arkansas,507-715-5770,481-48-01,8434F6BF-835D-9766-69D9-0BB6D6B0F99D
165,"CRISFIELD SEAFOOD RESTAURANT","P.O. Box 522, 3751 Ut Rd.",Springdale,Arkansas,889-988-7244,195256-6840,3347,"Mia Olson","4791 Magna Road",Jonesboro,Arkansas,507-715-5770,481-48-01,8434F6BF-835D-9766-69D9-0BB6D6B0F99D
237,"LA MADELEINE","2848 Tortor Rd.",Fayetteville,Arkansas,693-408-7304,027174-2033,3347,"Mia Olson","4791 Magna Road",Jonesboro,Arkansas,507-715-5770,481-48-01,8434F6BF-835D-9766-69D9-0BB6D6B0F99D
85,"L'Avant Comptoir de la Mer","139-9166 Sociis Rd.",Fayetteville,Arkansas,852-145-9715,972787-2484,3449,"Hilel Anderson","Ap #190-9814 Sit Rd.","Fort Smith",Arkansas,108-765-3481,627-74-07,842A8305-1675-BC09-AD65-0ABE345F25D2
92,"DOCK OF THE BAY","6134 Non, Rd.","Little Rock",Arkansas,790-526-9983,835167-6583,3449,"Hilel Anderson","Ap #190-9814 Sit Rd.","Fort Smith",Arkansas,108-765-3481,627-74-07,842A8305-1675-BC09-AD65-0ABE345F25D2
98,"METRO CLUB","P.O. Box 753, 9068 In, Avenue","Little Rock",Arkansas,505-442-3555,289884-2378,3449,"Hilel Anderson","Ap #190-9814 Sit Rd.","Fort Smith",Arkansas,108-765-3481,627-74-07,842A8305-1675-BC09-AD65-0ABE345F25D2
165,"CRISFIELD SEAFOOD RESTAURANT","P.O. Box 522, 3751 Ut Rd.",Springdale,Arkansas,889-988-7244,195256-6840,3449,"Hilel Anderson","Ap #190-9814 Sit Rd.","Fort Smith",Arkansas,108-765-3481,627-74-07,842A8305-1675-BC09-AD65-0ABE345F25D2
237,"LA MADELEINE","2848 Tortor Rd.",Fayetteville,Arkansas,693-408-7304,027174-2033,3449,"Hilel Anderson","Ap #190-9814 Sit Rd.","Fort Smith",Arkansas,108-765-3481,627-74-07,842A8305-1675-BC09-AD65-0ABE345F25D2
85,"L'Avant Comptoir de la Mer","139-9166 Sociis Rd.",Fayetteville,Arkansas,852-145-9715,972787-2484,3450,"Catherine Owens","P.O. Box 499, 5734 Sodales St.","Little Rock",Arkansas,788-901-5940,546-13-00,9E3E7FF9-89E3-ABD1-BEC4-8335AF8B47F6
92,"DOCK OF THE BAY","6134 Non, Rd.","Little Rock",Arkansas,790-526-9983,835167-6583,3450,"Catherine Owens","P.O. Box 499, 5734 Sodales St.","Little Rock",Arkansas,788-901-5940,546-13-00,9E3E7FF9-89E3-ABD1-BEC4-8335AF8B47F6
98,"METRO CLUB","P.O. Box 753, 9068 In, Avenue","Little Rock",Arkansas,505-442-3555,289884-2378,3450,"Catherine Owens","P.O. Box 499, 5734 Sodales St.","Little Rock",Arkansas,788-901-5940,546-13-00,9E3E7FF9-89E3-ABD1-BEC4-8335AF8B47F6
165,"CRISFIELD SEAFOOD RESTAURANT","P.O. Box 522, 3751 Ut Rd.",Springdale,Arkansas,889-988-7244,195256-6840,3450,"Catherine Owens","P.O. Box 499, 5734 Sodales St.","Little Rock",Arkansas,788-901-5940,546-13-00,9E3E7FF9-89E3-ABD1-BEC4-8335AF8B47F6
237,"LA MADELEINE","2848 Tortor Rd.",Fayetteville,Arkansas,693-408-7304,027174-2033,3450,"Catherine Owens","P.O. Box 499, 5734 Sodales St.","Little Rock",Arkansas,788-901-5940,546-13-00,9E3E7FF9-89E3-ABD1-BEC4-8335AF8B47F6
85,"L'Avant Comptoir de la Mer","139-9166 Sociis Rd.",Fayetteville,Arkansas,852-145-9715,972787-2484,3475,"Allen Allison","3117 Rutrum Rd.","Little Rock",Arkansas,528-583-0841,593-28-08,676DFE3E-A8B8-C85B-B789-DE68E3EB9D1D
92,"DOCK OF THE BAY","6134 Non, Rd.","Little Rock",Arkansas,790-526-9983,835167-6583,3475,"Allen Allison","3117 Rutrum Rd.","Little Rock",Arkansas,528-583-0841,593-28-08,676DFE3E-A8B8-C85B-B789-DE68E3EB9D1D
98,"METRO CLUB","P.O. Box 753, 9068 In, Avenue","Little Rock",Arkansas,505-442-3555,289884-2378,3475,"Allen Allison","3117 Rutrum Rd.","Little Rock",Arkansas,528-583-0841,593-28-08,676DFE3E-A8B8-C85B-B789-DE68E3EB9D1D
165,"CRISFIELD SEAFOOD RESTAURANT","P.O. Box 522, 3751 Ut Rd.",Springdale,Arkansas,889-988-7244,195256-6840,3475,"Allen Allison","3117 Rutrum Rd.","Little Rock",Arkansas,528-583-0841,593-28-08,676DFE3E-A8B8-C85B-B789-DE68E3EB9D1D
237,"LA MADELEINE","2848 Tortor Rd.",Fayetteville,Arkansas,693-408-7304,027174-2033,3475,"Allen Allison","3117 Rutrum Rd.","Little Rock",Arkansas,528-583-0841,593-28-08,676DFE3E-A8B8-C85B-B789-DE68E3EB9D1D
85,"L'Avant Comptoir de la Mer","139-9166 Sociis Rd.",Fayetteville,Arkansas,852-145-9715,972787-2484,3556,"Brielle Henry","P.O. Box 152, 7828 Lorem, Rd.",Jonesboro,Arkansas,412-848-2969,703-97-02,947327AA-E82D-68D1-B183-45DF727213A2
92,"DOCK OF THE BAY","6134 Non, Rd.","Little Rock",Arkansas,790-526-9983,835167-6583,3556,"Brielle Henry","P.O. Box 152, 7828 Lorem, Rd.",Jonesboro,Arkansas,412-848-2969,703-97-02,947327AA-E82D-68D1-B183-45DF727213A2
98,"METRO CLUB","P.O. Box 753, 9068 In, Avenue","Little Rock",Arkansas,505-442-3555,289884-2378,3556,"Brielle Henry","P.O. Box 152, 7828 Lorem, Rd.",Jonesboro,Arkansas,412-848-2969,703-97-02,947327AA-E82D-68D1-B183-45DF727213A2
165,"CRISFIELD SEAFOOD RESTAURANT","P.O. Box 522, 3751 Ut Rd.",Springdale,Arkansas,889-988-7244,195256-6840,3556,"Brielle Henry","P.O. Box 152, 7828 Lorem, Rd.",Jonesboro,Arkansas,412-848-2969,703-97-02,947327AA-E82D-68D1-B183-45DF727213A2
237,"LA MADELEINE","2848 Tortor Rd.",Fayetteville,Arkansas,693-408-7304,027174-2033,3556,"Brielle Henry","P.O. Box 152, 7828 Lorem, Rd.",Jonesboro,Arkansas,412-848-2969,703-97-02,947327AA-E82D-68D1-B183-45DF727213A2
85,"L'Avant Comptoir de la Mer","139-9166 Sociis Rd.",Fayetteville,Arkansas,852-145-9715,972787-2484,3563,"Jordan Morrison","7697 Semper Street",Fayetteville,Arkansas,634-775-5543,870-84-01,DF1B4FAE-715D-15E0-52DA-EF86308125FE
92,"DOCK OF THE BAY","6134 Non, Rd.","Little Rock",Arkansas,790-526-9983,835167-6583,3563,"Jordan Morrison","7697 Semper Street",Fayetteville,Arkansas,634-775-5543,870-84-01,DF1B4FAE-715D-15E0-52DA-EF86308125FE
98,"METRO CLUB","P.O. Box 753, 9068 In, Avenue","Little Rock",Arkansas,505-442-3555,289884-2378,3563,"Jordan Morrison","7697 Semper Street",Fayetteville,Arkansas,634-775-5543,870-84-01,DF1B4FAE-715D-15E0-52DA-EF86308125FE
165,"CRISFIELD SEAFOOD RESTAURANT","P.O. Box 522, 3751 Ut Rd.",Springdale,Arkansas,889-988-7244,195256-6840,3563,"Jordan Morrison","7697 Semper Street",Fayetteville,Arkansas,634-775-5543,870-84-01,DF1B4FAE-715D-15E0-52DA-EF86308125FE
237,"LA MADELEINE","2848 Tortor Rd.",Fayetteville,Arkansas,693-408-7304,027174-2033,3563,"Jordan Morrison","7697 Semper Street",Fayetteville,Arkansas,634-775-5543,870-84-01,DF1B4FAE-715D-15E0-52DA-EF86308125FE
85,"L'Avant Comptoir de la Mer","139-9166 Sociis Rd.",Fayetteville,Arkansas,852-145-9715,972787-2484,3574,"Belle Padilla","Ap #120-9825 Consectetuer Road","Fort Smith",Arkansas,131-334-7393,285-69-04,6871F7DD-5B2D-EC17-C76E-8413F23C7A13
92,"DOCK OF THE BAY","6134 Non, Rd.","Little Rock",Arkansas,790-526-9983,835167-6583,3574,"Belle Padilla","Ap #120-9825 Consectetuer Road","Fort Smith",Arkansas,131-334-7393,285-69-04,6871F7DD-5B2D-EC17-C76E-8413F23C7A13
98,"METRO CLUB","P.O. Box 753, 9068 In, Avenue","Little Rock",Arkansas,505-442-3555,289884-2378,3574,"Belle Padilla","Ap #120-9825 Consectetuer Road","Fort Smith",Arkansas,131-334-7393,285-69-04,6871F7DD-5B2D-EC17-C76E-8413F23C7A13
165,"CRISFIELD SEAFOOD RESTAURANT","P.O. Box 522, 3751 Ut Rd.",Springdale,Arkansas,889-988-7244,195256-6840,3574,"Belle Padilla","Ap #120-9825 Consectetuer Road","Fort Smith",Arkansas,131-334-7393,285-69-04,6871F7DD-5B2D-EC17-C76E-8413F23C7A13
237,"LA MADELEINE","2848 Tortor Rd.",Fayetteville,Arkansas,693-408-7304,027174-2033,3574,"Belle Padilla","Ap #120-9825 Consectetuer Road","Fort Smith",Arkansas,131-334-7393,285-69-04,6871F7DD-5B2D-EC17-C76E-8413F23C7A13
85,"L'Avant Comptoir de la Mer","139-9166 Sociis Rd.",Fayetteville,Arkansas,852-145-9715,972787-2484,3587,"Cally Moran","243-1396 Magna. Avenue",Fayetteville,Arkansas,701-259-3976,793-29-08,DA4D4E75-BAEF-EEA4-19AF-FD18CE8FB7DB
92,"DOCK OF THE BAY","6134 Non, Rd.","Little Rock",Arkansas,790-526-9983,835167-6583,3587,"Cally Moran","243-1396 Magna. Avenue",Fayetteville,Arkansas,701-259-3976,793-29-08,DA4D4E75-BAEF-EEA4-19AF-FD18CE8FB7DB
98,"METRO CLUB","P.O. Box 753, 9068 In, Avenue","Little Rock",Arkansas,505-442-3555,289884-2378,3587,"Cally Moran","243-1396 Magna. Avenue",Fayetteville,Arkansas,701-259-3976,793-29-08,DA4D4E75-BAEF-EEA4-19AF-FD18CE8FB7DB
165,"CRISFIELD SEAFOOD RESTAURANT","P.O. Box 522, 3751 Ut Rd.",Springdale,Arkansas,889-988-7244,195256-6840,3587,"Cally Moran","243-1396 Magna. Avenue",Fayetteville,Arkansas,701-259-3976,793-29-08,DA4D4E75-BAEF-EEA4-19AF-FD18CE8FB7DB
237,"LA MADELEINE","2848 Tortor Rd.",Fayetteville,Arkansas,693-408-7304,027174-2033,3587,"Cally Moran","243-1396 Magna. Avenue",Fayetteville,Arkansas,701-259-3976,793-29-08,DA4D4E75-BAEF-EEA4-19AF-FD18CE8FB7DB
85,"L'Avant Comptoir de la Mer","139-9166 Sociis Rd.",Fayetteville,Arkansas,852-145-9715,972787-2484,3590,"Leo York","3281 Fringilla, Rd.",Springdale,Arkansas,457-333-3079,835-43-02,B02D1D13-7023-C8EC-D440-4CCB0DFCEC00
92,"DOCK OF THE BAY","6134 Non, Rd.","Little Rock",Arkansas,790-526-9983,835167-6583,3590,"Leo York","3281 Fringilla, Rd.",Springdale,Arkansas,457-333-3079,835-43-02,B02D1D13-7023-C8EC-D440-4CCB0DFCEC00
98,"METRO CLUB","P.O. Box 753, 9068 In, Avenue","Little Rock",Arkansas,505-442-3555,289884-2378,3590,"Leo York","3281 Fringilla, Rd.",Springdale,Arkansas,457-333-3079,835-43-02,B02D1D13-7023-C8EC-D440-4CCB0DFCEC00
165,"CRISFIELD SEAFOOD RESTAURANT","P.O. Box 522, 3751 Ut Rd.",Springdale,Arkansas,889-988-7244,195256-6840,3590,"Leo York","3281 Fringilla, Rd.",Springdale,Arkansas,457-333-3079,835-43-02,B02D1D13-7023-C8EC-D440-4CCB0DFCEC00
237,"LA MADELEINE","2848 Tortor Rd.",Fayetteville,Arkansas,693-408-7304,027174-2033,3590,"Leo York","3281 Fringilla, Rd.",Springdale,Arkansas,457-333-3079,835-43-02,B02D1D13-7023-C8EC-D440-4CCB0DFCEC00
85,"L'Avant Comptoir de la Mer","139-9166 Sociis Rd.",Fayetteville,Arkansas,852-145-9715,972787-2484,3628,"Dane Gilliam","6566 Semper, Rd.",Fayetteville,Arkansas,425-735-1678,052-60-06,E6516AA1-064E-B45E-E7D2-6CCC3213CC99
92,"DOCK OF THE BAY","6134 Non, Rd.","Little Rock",Arkansas,790-526-9983,835167-6583,3628,"Dane Gilliam","6566 Semper, Rd.",Fayetteville,Arkansas,425-735-1678,052-60-06,E6516AA1-064E-B45E-E7D2-6CCC3213CC99
98,"METRO CLUB","P.O. Box 753, 9068 In, Avenue","Little Rock",Arkansas,505-442-3555,289884-2378,3628,"Dane Gilliam","6566 Semper, Rd.",Fayetteville,Arkansas,425-735-1678,052-60-06,E6516AA1-064E-B45E-E7D2-6CCC3213CC99
165,"CRISFIELD SEAFOOD RESTAURANT","P.O. Box 522, 3751 Ut Rd.",Springdale,Arkansas,889-988-7244,195256-6840,3628,"Dane Gilliam","6566 Semper, Rd.",Fayetteville,Arkansas,425-735-1678,052-60-06,E6516AA1-064E-B45E-E7D2-6CCC3213CC99
237,"LA MADELEINE","2848 Tortor Rd.",Fayetteville,Arkansas,693-408-7304,027174-2033,3628,"Dane Gilliam","6566 Semper, Rd.",Fayetteville,Arkansas,425-735-1678,052-60-06,E6516AA1-064E-B45E-E7D2-6CCC3213CC99
85,"L'Avant Comptoir de la Mer","139-9166 Sociis Rd.",Fayetteville,Arkansas,852-145-9715,972787-2484,3657,"Carissa Parks","P.O. Box 713, 7354 Sagittis. St.",Fayetteville,Arkansas,270-601-3562,246-17-01,AD160A5C-7D1B-8531-4B47-028DC1EEC462
92,"DOCK OF THE BAY","6134 Non, Rd.","Little Rock",Arkansas,790-526-9983,835167-6583,3657,"Carissa Parks","P.O. Box 713, 7354 Sagittis. St.",Fayetteville,Arkansas,270-601-3562,246-17-01,AD160A5C-7D1B-8531-4B47-028DC1EEC462
98,"METRO CLUB","P.O. Box 753, 9068 In, Avenue","Little Rock",Arkansas,505-442-3555,289884-2378,3657,"Carissa Parks","P.O. Box 713, 7354 Sagittis. St.",Fayetteville,Arkansas,270-601-3562,246-17-01,AD160A5C-7D1B-8531-4B47-028DC1EEC462
165,"CRISFIELD SEAFOOD RESTAURANT","P.O. Box 522, 3751 Ut Rd.",Springdale,Arkansas,889-988-7244,195256-6840,3657,"Carissa Parks","P.O. Box 713, 7354 Sagittis. St.",Fayetteville,Arkansas,270-601-3562,246-17-01,AD160A5C-7D1B-8531-4B47-028DC1EEC462
237,"LA MADELEINE","2848 Tortor Rd.",Fayetteville,Arkansas,693-408-7304,027174-2033,3657,"Carissa Parks","P.O. Box 713, 7354 Sagittis. St.",Fayetteville,Arkansas,270-601-3562,246-17-01,AD160A5C-7D1B-8531-4B47-028DC1EEC462
85,"L'Avant Comptoir de la Mer","139-9166 Sociis Rd.",Fayetteville,Arkansas,852-145-9715,972787-2484,3704,"Robin Burns","714-5332 In, St.","Fort Smith",Arkansas,303-625-1484,180-90-03,05665551-725E-BBE1-7924-3FBEB87636B0
92,"DOCK OF THE BAY","6134 Non, Rd.","Little Rock",Arkansas,790-526-9983,835167-6583,3704,"Robin Burns","714-5332 In, St.","Fort Smith",Arkansas,303-625-1484,180-90-03,05665551-725E-BBE1-7924-3FBEB87636B0
98,"METRO CLUB","P.O. Box 753, 9068 In, Avenue","Little Rock",Arkansas,505-442-3555,289884-2378,3704,"Robin Burns","714-5332 In, St.","Fort Smith",Arkansas,303-625-1484,180-90-03,05665551-725E-BBE1-7924-3FBEB87636B0
165,"CRISFIELD SEAFOOD RESTAURANT","P.O. Box 522, 3751 Ut Rd.",Springdale,Arkansas,889-988-7244,195256-6840,3704,"Robin Burns","714-5332 In, St.","Fort Smith",Arkansas,303-625-1484,180-90-03,05665551-725E-BBE1-7924-3FBEB87636B0
237,"LA MADELEINE","2848 Tortor Rd.",Fayetteville,Arkansas,693-408-7304,027174-2033,3704,"Robin Burns","714-5332 In, St.","Fort Smith",Arkansas,303-625-1484,180-90-03,05665551-725E-BBE1-7924-3FBEB87636B0
85,"L'Avant Comptoir de la Mer","139-9166 Sociis Rd.",Fayetteville,Arkansas,852-145-9715,972787-2484,3808,"Sonia Franklin","P.O. Box 499, 2385 Ligula. Rd.",Fayetteville,Arkansas,968-805-1572,002-04-01,86B08236-15F3-8158-A485-C1603B0A37D2
92,"DOCK OF THE BAY","6134 Non, Rd.","Little Rock",Arkansas,790-526-9983,835167-6583,3808,"Sonia Franklin","P.O. Box 499, 2385 Ligula. Rd.",Fayetteville,Arkansas,968-805-1572,002-04-01,86B08236-15F3-8158-A485-C1603B0A37D2
98,"METRO CLUB","P.O. Box 753, 9068 In, Avenue","Little Rock",Arkansas,505-442-3555,289884-2378,3808,"Sonia Franklin","P.O. Box 499, 2385 Ligula. Rd.",Fayetteville,Arkansas,968-805-1572,002-04-01,86B08236-15F3-8158-A485-C1603B0A37D2
165,"CRISFIELD SEAFOOD RESTAURANT","P.O. Box 522, 3751 Ut Rd.",Springdale,Arkansas,889-988-7244,195256-6840,3808,"Sonia Franklin","P.O. Box 499, 2385 Ligula. Rd.",Fayetteville,Arkansas,968-805-1572,002-04-01,86B08236-15F3-8158-A485-C1603B0A37D2
237,"LA MADELEINE","2848 Tortor Rd.",Fayetteville,Arkansas,693-408-7304,027174-2033,3808,"Sonia Franklin","P.O. Box 499, 2385 Ligula. Rd.",Fayetteville,Arkansas,968-805-1572,002-04-01,86B08236-15F3-8158-A485-C1603B0A37D2
85,"L'Avant Comptoir de la Mer","139-9166 Sociis Rd.",Fayetteville,Arkansas,852-145-9715,972787-2484,3902,"Hadley Stevenson","511-5154 Sociosqu Av.","Little Rock",Arkansas,275-867-5263,008-55-02,4805D77E-722F-AFF1-21EF-1D038AA3A4EB
92,"DOCK OF THE BAY","6134 Non, Rd.","Little Rock",Arkansas,790-526-9983,835167-6583,3902,"Hadley Stevenson","511-5154 Sociosqu Av.","Little Rock",Arkansas,275-867-5263,008-55-02,4805D77E-722F-AFF1-21EF-1D038AA3A4EB
98,"METRO CLUB","P.O. Box 753, 9068 In, Avenue","Little Rock",Arkansas,505-442-3555,289884-2378,3902,"Hadley Stevenson","511-5154 Sociosqu Av.","Little Rock",Arkansas,275-867-5263,008-55-02,4805D77E-722F-AFF1-21EF-1D038AA3A4EB
165,"CRISFIELD SEAFOOD RESTAURANT","P.O. Box 522, 3751 Ut Rd.",Springdale,Arkansas,889-988-7244,195256-6840,3902,"Hadley Stevenson","511-5154 Sociosqu Av.","Little Rock",Arkansas,275-867-5263,008-55-02,4805D77E-722F-AFF1-21EF-1D038AA3A4EB
237,"LA MADELEINE","2848 Tortor Rd.",Fayetteville,Arkansas,693-408-7304,027174-2033,3902,"Hadley Stevenson","511-5154 Sociosqu Av.","Little Rock",Arkansas,275-867-5263,008-55-02,4805D77E-722F-AFF1-21EF-1D038AA3A4EB
85,"L'Avant Comptoir de la Mer","139-9166 Sociis Rd.",Fayetteville,Arkansas,852-145-9715,972787-2484,3923,"Mara Blackwell","Ap #326-8800 Donec St.",Fayetteville,Arkansas,238-126-5571,575-88-09,9979FE4F-2578-737F-2F4D-861353588A85
92,"DOCK OF THE BAY","6134 Non, Rd.","Little Rock",Arkansas,790-526-9983,835167-6583,3923,"Mara Blackwell","Ap #326-8800 Donec St.",Fayetteville,Arkansas,238-126-5571,575-88-09,9979FE4F-2578-737F-2F4D-861353588A85
98,"METRO CLUB","P.O. Box 753, 9068 In, Avenue","Little Rock",Arkansas,505-442-3555,289884-2378,3923,"Mara Blackwell","Ap #326-8800 Donec St.",Fayetteville,Arkansas,238-126-5571,575-88-09,9979FE4F-2578-737F-2F4D-861353588A85
165,"CRISFIELD SEAFOOD RESTAURANT","P.O. Box 522, 3751 Ut Rd.",Springdale,Arkansas,889-988-7244,195256-6840,3923,"Mara Blackwell","Ap #326-8800 Donec St.",Fayetteville,Arkansas,238-126-5571,575-88-09,9979FE4F-2578-737F-2F4D-861353588A85
237,"LA MADELEINE","2848 Tortor Rd.",Fayetteville,Arkansas,693-408-7304,027174-2033,3923,"Mara Blackwell","Ap #326-8800 Donec St.",Fayetteville,Arkansas,238-126-5571,575-88-09,9979FE4F-2578-737F-2F4D-861353588A85
85,"L'Avant Comptoir de la Mer","139-9166 Sociis Rd.",Fayetteville,Arkansas,852-145-9715,972787-2484,3944,"Callie Wilkinson","9090 Quisque Road",Springdale,Arkansas,189-484-4189,264-70-07,89E16C02-B895-1049-C369-48CCB5358108
92,"DOCK OF THE BAY","6134 Non, Rd.","Little Rock",Arkansas,790-526-9983,835167-6583,3944,"Callie Wilkinson","9090 Quisque Road",Springdale,Arkansas,189-484-4189,264-70-07,89E16C02-B895-1049-C369-48CCB5358108
98,"METRO CLUB","P.O. Box 753, 9068 In, Avenue","Little Rock",Arkansas,505-442-3555,289884-2378,3944,"Callie Wilkinson","9090 Quisque Road",Springdale,Arkansas,189-484-4189,264-70-07,89E16C02-B895-1049-C369-48CCB5358108
165,"CRISFIELD SEAFOOD RESTAURANT","P.O. Box 522, 3751 Ut Rd.",Springdale,Arkansas,889-988-7244,195256-6840,3944,"Callie Wilkinson","9090 Quisque Road",Springdale,Arkansas,189-484-4189,264-70-07,89E16C02-B895-1049-C369-48CCB5358108
237,"LA MADELEINE","2848 Tortor Rd.",Fayetteville,Arkansas,693-408-7304,027174-2033,3944,"Callie Wilkinson","9090 Quisque Road",Springdale,Arkansas,189-484-4189,264-70-07,89E16C02-B895-1049-C369-48CCB5358108
85,"L'Avant Comptoir de la Mer","139-9166 Sociis Rd.",Fayetteville,Arkansas,852-145-9715,972787-2484,3947,"Chancellor Sharpe","Ap #538-4856 Quis Road",Fayetteville,Arkansas,756-150-3304,539-75-06,1B66F8B8-AD26-E8CF-7BFD-9A987E89DCE9
92,"DOCK OF THE BAY","6134 Non, Rd.","Little Rock",Arkansas,790-526-9983,835167-6583,3947,"Chancellor Sharpe","Ap #538-4856 Quis Road",Fayetteville,Arkansas,756-150-3304,539-75-06,1B66F8B8-AD26-E8CF-7BFD-9A987E89DCE9
98,"METRO CLUB","P.O. Box 753, 9068 In, Avenue","Little Rock",Arkansas,505-442-3555,289884-2378,3947,"Chancellor Sharpe","Ap #538-4856 Quis Road",Fayetteville,Arkansas,756-150-3304,539-75-06,1B66F8B8-AD26-E8CF-7BFD-9A987E89DCE9
165,"CRISFIELD SEAFOOD RESTAURANT","P.O. Box 522, 3751 Ut Rd.",Springdale,Arkansas,889-988-7244,195256-6840,3947,"Chancellor Sharpe","Ap #538-4856 Quis Road",Fayetteville,Arkansas,756-150-3304,539-75-06,1B66F8B8-AD26-E8CF-7BFD-9A987E89DCE9
237,"LA MADELEINE","2848 Tortor Rd.",Fayetteville,Arkansas,693-408-7304,027174-2033,3947,"Chancellor Sharpe","Ap #538-4856 Quis Road",Fayetteville,Arkansas,756-150-3304,539-75-06,1B66F8B8-AD26-E8CF-7BFD-9A987E89DCE9
85,"L'Avant Comptoir de la Mer","139-9166 Sociis Rd.",Fayetteville,Arkansas,852-145-9715,972787-2484,4034,"Colorado Strong","P.O. Box 922, 3060 Dictum Rd.","Fort Smith",Arkansas,934-100-4453,893-38-08,3606C4F7-8CD8-64AA-497E-66C0C74755CB
92,"DOCK OF THE BAY","6134 Non, Rd.","Little Rock",Arkansas,790-526-9983,835167-6583,4034,"Colorado Strong","P.O. Box 922, 3060 Dictum Rd.","Fort Smith",Arkansas,934-100-4453,893-38-08,3606C4F7-8CD8-64AA-497E-66C0C74755CB
98,"METRO CLUB","P.O. Box 753, 9068 In, Avenue","Little Rock",Arkansas,505-442-3555,289884-2378,4034,"Colorado Strong","P.O. Box 922, 3060 Dictum Rd.","Fort Smith",Arkansas,934-100-4453,893-38-08,3606C4F7-8CD8-64AA-497E-66C0C74755CB
165,"CRISFIELD SEAFOOD RESTAURANT","P.O. Box 522, 3751 Ut Rd.",Springdale,Arkansas,889-988-7244,195256-6840,4034,"Colorado Strong","P.O. Box 922, 3060 Dictum Rd.","Fort Smith",Arkansas,934-100-4453,893-38-08,3606C4F7-8CD8-64AA-497E-66C0C74755CB
237,"LA MADELEINE","2848 Tortor Rd.",Fayetteville,Arkansas,693-408-7304,027174-2033,4034,"Colorado Strong","P.O. Box 922, 3060 Dictum Rd.","Fort Smith",Arkansas,934-100-4453,893-38-08,3606C4F7-8CD8-64AA-497E-66C0C74755CB
85,"L'Avant Comptoir de la Mer","139-9166 Sociis Rd.",Fayetteville,Arkansas,852-145-9715,972787-2484,4105,"Phillip Hunt","Ap #466-664 Nunc St.",Springdale,Arkansas,842-556-7001,063-28-00,801389CB-30AE-AC1A-3955-FA854A944370
92,"DOCK OF THE BAY","6134 Non, Rd.","Little Rock",Arkansas,790-526-9983,835167-6583,4105,"Phillip Hunt","Ap #466-664 Nunc St.",Springdale,Arkansas,842-556-7001,063-28-00,801389CB-30AE-AC1A-3955-FA854A944370
98,"METRO CLUB","P.O. Box 753, 9068 In, Avenue","Little Rock",Arkansas,505-442-3555,289884-2378,4105,"Phillip Hunt","Ap #466-664 Nunc St.",Springdale,Arkansas,842-556-7001,063-28-00,801389CB-30AE-AC1A-3955-FA854A944370
165,"CRISFIELD SEAFOOD RESTAURANT","P.O. Box 522, 3751 Ut Rd.",Springdale,Arkansas,889-988-7244,195256-6840,4105,"Phillip Hunt","Ap #466-664 Nunc St.",Springdale,Arkansas,842-556-7001,063-28-00,801389CB-30AE-AC1A-3955-FA854A944370
237,"LA MADELEINE","2848 Tortor Rd.",Fayetteville,Arkansas,693-408-7304,027174-2033,4105,"Phillip Hunt","Ap #466-664 Nunc St.",Springdale,Arkansas,842-556-7001,063-28-00,801389CB-30AE-AC1A-3955-FA854A944370
85,"L'Avant Comptoir de la Mer","139-9166 Sociis Rd.",Fayetteville,Arkansas,852-145-9715,972787-2484,4129,"Rose Alford","P.O. Box 180, 1972 Mauris Av.","Fort Smith",Arkansas,979-877-1237,109-04-07,906FEC57-2392-6AE0-ECDC-EA645463E08F
92,"DOCK OF THE BAY","6134 Non, Rd.","Little Rock",Arkansas,790-526-9983,835167-6583,4129,"Rose Alford","P.O. Box 180, 1972 Mauris Av.","Fort Smith",Arkansas,979-877-1237,109-04-07,906FEC57-2392-6AE0-ECDC-EA645463E08F
98,"METRO CLUB","P.O. Box 753, 9068 In, Avenue","Little Rock",Arkansas,505-442-3555,289884-2378,4129,"Rose Alford","P.O. Box 180, 1972 Mauris Av.","Fort Smith",Arkansas,979-877-1237,109-04-07,906FEC57-2392-6AE0-ECDC-EA645463E08F
165,"CRISFIELD SEAFOOD RESTAURANT","P.O. Box 522, 3751 Ut Rd.",Springdale,Arkansas,889-988-7244,195256-6840,4129,"Rose Alford","P.O. Box 180, 1972 Mauris Av.","Fort Smith",Arkansas,979-877-1237,109-04-07,906FEC57-2392-6AE0-ECDC-EA645463E08F
237,"LA MADELEINE","2848 Tortor Rd.",Fayetteville,Arkansas,693-408-7304,027174-2033,4129,"Rose Alford","P.O. Box 180, 1972 Mauris Av.","Fort Smith",Arkansas,979-877-1237,109-04-07,906FEC57-2392-6AE0-ECDC-EA645463E08F
85,"L'Avant Comptoir de la Mer","139-9166 Sociis Rd.",Fayetteville,Arkansas,852-145-9715,972787-2484,4176,"Brady Hart","9322 Vulputate, Ave","Fort Smith",Arkansas,886-873-3591,730-94-08,2B821D4D-4148-281B-0920-702DB5AFC3FD
92,"DOCK OF THE BAY","6134 Non, Rd.","Little Rock",Arkansas,790-526-9983,835167-6583,4176,"Brady Hart","9322 Vulputate, Ave","Fort Smith",Arkansas,886-873-3591,730-94-08,2B821D4D-4148-281B-0920-702DB5AFC3FD
98,"METRO CLUB","P.O. Box 753, 9068 In, Avenue","Little Rock",Arkansas,505-442-3555,289884-2378,4176,"Brady Hart","9322 Vulputate, Ave","Fort Smith",Arkansas,886-873-3591,730-94-08,2B821D4D-4148-281B-0920-702DB5AFC3FD
165,"CRISFIELD SEAFOOD RESTAURANT","P.O. Box 522, 3751 Ut Rd.",Springdale,Arkansas,889-988-7244,195256-6840,4176,"Brady Hart","9322 Vulputate, Ave","Fort Smith",Arkansas,886-873-3591,730-94-08,2B821D4D-4148-281B-0920-702DB5AFC3FD
237,"LA MADELEINE","2848 Tortor Rd.",Fayetteville,Arkansas,693-408-7304,027174-2033,4176,"Brady Hart","9322 Vulputate, Ave","Fort Smith",Arkansas,886-873-3591,730-94-08,2B821D4D-4148-281B-0920-702DB5AFC3FD
85,"L'Avant Comptoir de la Mer","139-9166 Sociis Rd.",Fayetteville,Arkansas,852-145-9715,972787-2484,4282,"Gil Phelps","4342 Pede. St.",Fayetteville,Arkansas,489-176-7520,756-81-00,7B222198-516E-6F3A-888D-91D630B53402
92,"DOCK OF THE BAY","6134 Non, Rd.","Little Rock",Arkansas,790-526-9983,835167-6583,4282,"Gil Phelps","4342 Pede. St.",Fayetteville,Arkansas,489-176-7520,756-81-00,7B222198-516E-6F3A-888D-91D630B53402
98,"METRO CLUB","P.O. Box 753, 9068 In, Avenue","Little Rock",Arkansas,505-442-3555,289884-2378,4282,"Gil Phelps","4342 Pede. St.",Fayetteville,Arkansas,489-176-7520,756-81-00,7B222198-516E-6F3A-888D-91D630B53402
165,"CRISFIELD SEAFOOD RESTAURANT","P.O. Box 522, 3751 Ut Rd.",Springdale,Arkansas,889-988-7244,195256-6840,4282,"Gil Phelps","4342 Pede. St.",Fayetteville,Arkansas,489-176-7520,756-81-00,7B222198-516E-6F3A-888D-91D630B53402
237,"LA MADELEINE","2848 Tortor Rd.",Fayetteville,Arkansas,693-408-7304,027174-2033,4282,"Gil Phelps","4342 Pede. St.",Fayetteville,Arkansas,489-176-7520,756-81-00,7B222198-516E-6F3A-888D-91D630B53402
85,"L'Avant Comptoir de la Mer","139-9166 Sociis Rd.",Fayetteville,Arkansas,852-145-9715,972787-2484,4295,"Hyacinth Frost","P.O. Box 915, 2877 Dictum. St.",Fayetteville,Arkansas,145-782-7758,067-28-08,83BDF705-5366-7B37-3D25-FE9984CF34E5
92,"DOCK OF THE BAY","6134 Non, Rd.","Little Rock",Arkansas,790-526-9983,835167-6583,4295,"Hyacinth Frost","P.O. Box 915, 2877 Dictum. St.",Fayetteville,Arkansas,145-782-7758,067-28-08,83BDF705-5366-7B37-3D25-FE9984CF34E5
98,"METRO CLUB","P.O. Box 753, 9068 In, Avenue","Little Rock",Arkansas,505-442-3555,289884-2378,4295,"Hyacinth Frost","P.O. Box 915, 2877 Dictum. St.",Fayetteville,Arkansas,145-782-7758,067-28-08,83BDF705-5366-7B37-3D25-FE9984CF34E5
165,"CRISFIELD SEAFOOD RESTAURANT","P.O. Box 522, 3751 Ut Rd.",Springdale,Arkansas,889-988-7244,195256-6840,4295,"Hyacinth Frost","P.O. Box 915, 2877 Dictum. St.",Fayetteville,Arkansas,145-782-7758,067-28-08,83BDF705-5366-7B37-3D25-FE9984CF34E5
237,"LA MADELEINE","2848 Tortor Rd.",Fayetteville,Arkansas,693-408-7304,027174-2033,4295,"Hyacinth Frost","P.O. Box 915, 2877 Dictum. St.",Fayetteville,Arkansas,145-782-7758,067-28-08,83BDF705-5366-7B37-3D25-FE9984CF34E5
85,"L'Avant Comptoir de la Mer","139-9166 Sociis Rd.",Fayetteville,Arkansas,852-145-9715,972787-2484,4372,"Keegan Chambers","P.O. Box 187, 1492 Morbi Ave",Fayetteville,Arkansas,365-198-5371,621-89-04,1D9A007E-C316-EF47-09B4-33B84AF91368
92,"DOCK OF THE BAY","6134 Non, Rd.","Little Rock",Arkansas,790-526-9983,835167-6583,4372,"Keegan Chambers","P.O. Box 187, 1492 Morbi Ave",Fayetteville,Arkansas,365-198-5371,621-89-04,1D9A007E-C316-EF47-09B4-33B84AF91368
98,"METRO CLUB","P.O. Box 753, 9068 In, Avenue","Little Rock",Arkansas,505-442-3555,289884-2378,4372,"Keegan Chambers","P.O. Box 187, 1492 Morbi Ave",Fayetteville,Arkansas,365-198-5371,621-89-04,1D9A007E-C316-EF47-09B4-33B84AF91368
165,"CRISFIELD SEAFOOD RESTAURANT","P.O. Box 522, 3751 Ut Rd.",Springdale,Arkansas,889-988-7244,195256-6840,4372,"Keegan Chambers","P.O. Box 187, 1492 Morbi Ave",Fayetteville,Arkansas,365-198-5371,621-89-04,1D9A007E-C316-EF47-09B4-33B84AF91368
237,"LA MADELEINE","2848 Tortor Rd.",Fayetteville,Arkansas,693-408-7304,027174-2033,4372,"Keegan Chambers","P.O. Box 187, 1492 Morbi Ave",Fayetteville,Arkansas,365-198-5371,621-89-04,1D9A007E-C316-EF47-09B4-33B84AF91368
85,"L'Avant Comptoir de la Mer","139-9166 Sociis Rd.",Fayetteville,Arkansas,852-145-9715,972787-2484,4380,"Lysandra Garrison","Ap #420-8934 Placerat Ave",Springdale,Arkansas,926-757-0108,559-79-05,07E35C93-578A-1D24-831E-10EF86D31FAE
92,"DOCK OF THE BAY","6134 Non, Rd.","Little Rock",Arkansas,790-526-9983,835167-6583,4380,"Lysandra Garrison","Ap #420-8934 Placerat Ave",Springdale,Arkansas,926-757-0108,559-79-05,07E35C93-578A-1D24-831E-10EF86D31FAE
98,"METRO CLUB","P.O. Box 753, 9068 In, Avenue","Little Rock",Arkansas,505-442-3555,289884-2378,4380,"Lysandra Garrison","Ap #420-8934 Placerat Ave",Springdale,Arkansas,926-757-0108,559-79-05,07E35C93-578A-1D24-831E-10EF86D31FAE
165,"CRISFIELD SEAFOOD RESTAURANT","P.O. Box 522, 3751 Ut Rd.",Springdale,Arkansas,889-988-7244,195256-6840,4380,"Lysandra Garrison","Ap #420-8934 Placerat Ave",Springdale,Arkansas,926-757-0108,559-79-05,07E35C93-578A-1D24-831E-10EF86D31FAE
237,"LA MADELEINE","2848 Tortor Rd.",Fayetteville,Arkansas,693-408-7304,027174-2033,4380,"Lysandra Garrison","Ap #420-8934 Placerat Ave",Springdale,Arkansas,926-757-0108,559-79-05,07E35C93-578A-1D24-831E-10EF86D31FAE
85,"L'Avant Comptoir de la Mer","139-9166 Sociis Rd.",Fayetteville,Arkansas,852-145-9715,972787-2484,4489,"Mona Waters","8088 Molestie Avenue","Fort Smith",Arkansas,121-890-4476,870-51-03,0B24127C-1E20-6039-A1EA-F15342F7DEA6
92,"DOCK OF THE BAY","6134 Non, Rd.","Little Rock",Arkansas,790-526-9983,835167-6583,4489,"Mona Waters","8088 Molestie Avenue","Fort Smith",Arkansas,121-890-4476,870-51-03,0B24127C-1E20-6039-A1EA-F15342F7DEA6
98,"METRO CLUB","P.O. Box 753, 9068 In, Avenue","Little Rock",Arkansas,505-442-3555,289884-2378,4489,"Mona Waters","8088 Molestie Avenue","Fort Smith",Arkansas,121-890-4476,870-51-03,0B24127C-1E20-6039-A1EA-F15342F7DEA6
165,"CRISFIELD SEAFOOD RESTAURANT","P.O. Box 522, 3751 Ut Rd.",Springdale,Arkansas,889-988-7244,195256-6840,4489,"Mona Waters","8088 Molestie Avenue","Fort Smith",Arkansas,121-890-4476,870-51-03,0B24127C-1E20-6039-A1EA-F15342F7DEA6
237,"LA MADELEINE","2848 Tortor Rd.",Fayetteville,Arkansas,693-408-7304,027174-2033,4489,"Mona Waters","8088 Molestie Avenue","Fort Smith",Arkansas,121-890-4476,870-51-03,0B24127C-1E20-6039-A1EA-F15342F7DEA6
85,"L'Avant Comptoir de la Mer","139-9166 Sociis Rd.",Fayetteville,Arkansas,852-145-9715,972787-2484,4503,"Venus Roth","579-4389 Commodo Rd.",Jonesboro,Arkansas,167-738-3722,468-97-00,CDA39358-8BE4-D943-8E82-8A99B3BD7B9B
92,"DOCK OF THE BAY","6134 Non, Rd.","Little Rock",Arkansas,790-526-9983,835167-6583,4503,"Venus Roth","579-4389 Commodo Rd.",Jonesboro,Arkansas,167-738-3722,468-97-00,CDA39358-8BE4-D943-8E82-8A99B3BD7B9B
98,"METRO CLUB","P.O. Box 753, 9068 In, Avenue","Little Rock",Arkansas,505-442-3555,289884-2378,4503,"Venus Roth","579-4389 Commodo Rd.",Jonesboro,Arkansas,167-738-3722,468-97-00,CDA39358-8BE4-D943-8E82-8A99B3BD7B9B
165,"CRISFIELD SEAFOOD RESTAURANT","P.O. Box 522, 3751 Ut Rd.",Springdale,Arkansas,889-988-7244,195256-6840,4503,"Venus Roth","579-4389 Commodo Rd.",Jonesboro,Arkansas,167-738-3722,468-97-00,CDA39358-8BE4-D943-8E82-8A99B3BD7B9B
237,"LA MADELEINE","2848 Tortor Rd.",Fayetteville,Arkansas,693-408-7304,027174-2033,4503,"Venus Roth","579-4389 Commodo Rd.",Jonesboro,Arkansas,167-738-3722,468-97-00,CDA39358-8BE4-D943-8E82-8A99B3BD7B9B
85,"L'Avant Comptoir de la Mer","139-9166 Sociis Rd.",Fayetteville,Arkansas,852-145-9715,972787-2484,4546,"Adrienne Berry","P.O. Box 476, 4393 Aliquet Avenue",Springdale,Arkansas,973-916-5130,073-86-08,1A60A531-AFFD-4F05-1A3C-AFA94D6816A8
92,"DOCK OF THE BAY","6134 Non, Rd.","Little Rock",Arkansas,790-526-9983,835167-6583,4546,"Adrienne Berry","P.O. Box 476, 4393 Aliquet Avenue",Springdale,Arkansas,973-916-5130,073-86-08,1A60A531-AFFD-4F05-1A3C-AFA94D6816A8
98,"METRO CLUB","P.O. Box 753, 9068 In, Avenue","Little Rock",Arkansas,505-442-3555,289884-2378,4546,"Adrienne Berry","P.O. Box 476, 4393 Aliquet Avenue",Springdale,Arkansas,973-916-5130,073-86-08,1A60A531-AFFD-4F05-1A3C-AFA94D6816A8
165,"CRISFIELD SEAFOOD RESTAURANT","P.O. Box 522, 3751 Ut Rd.",Springdale,Arkansas,889-988-7244,195256-6840,4546,"Adrienne Berry","P.O. Box 476, 4393 Aliquet Avenue",Springdale,Arkansas,973-916-5130,073-86-08,1A60A531-AFFD-4F05-1A3C-AFA94D6816A8
237,"LA MADELEINE","2848 Tortor Rd.",Fayetteville,Arkansas,693-408-7304,027174-2033,4546,"Adrienne Berry","P.O. Box 476, 4393 Aliquet Avenue",Springdale,Arkansas,973-916-5130,073-86-08,1A60A531-AFFD-4F05-1A3C-AFA94D6816A8
85,"L'Avant Comptoir de la Mer","139-9166 Sociis Rd.",Fayetteville,Arkansas,852-145-9715,972787-2484,4562,"Breanna Hoover","221-698 Tellus. St.","Fort Smith",Arkansas,943-563-8513,464-81-07,80717CA6-2AC1-42FF-23ED-90A4C101842A
92,"DOCK OF THE BAY","6134 Non, Rd.","Little Rock",Arkansas,790-526-9983,835167-6583,4562,"Breanna Hoover","221-698 Tellus. St.","Fort Smith",Arkansas,943-563-8513,464-81-07,80717CA6-2AC1-42FF-23ED-90A4C101842A
98,"METRO CLUB","P.O. Box 753, 9068 In, Avenue","Little Rock",Arkansas,505-442-3555,289884-2378,4562,"Breanna Hoover","221-698 Tellus. St.","Fort Smith",Arkansas,943-563-8513,464-81-07,80717CA6-2AC1-42FF-23ED-90A4C101842A
165,"CRISFIELD SEAFOOD RESTAURANT","P.O. Box 522, 3751 Ut Rd.",Springdale,Arkansas,889-988-7244,195256-6840,4562,"Breanna Hoover","221-698 Tellus. St.","Fort Smith",Arkansas,943-563-8513,464-81-07,80717CA6-2AC1-42FF-23ED-90A4C101842A
237,"LA MADELEINE","2848 Tortor Rd.",Fayetteville,Arkansas,693-408-7304,027174-2033,4562,"Breanna Hoover","221-698 Tellus. St.","Fort Smith",Arkansas,943-563-8513,464-81-07,80717CA6-2AC1-42FF-23ED-90A4C101842A
85,"L'Avant Comptoir de la Mer","139-9166 Sociis Rd.",Fayetteville,Arkansas,852-145-9715,972787-2484,4603,"Fredericka Vincent","9695 Felis Rd.","Little Rock",Arkansas,655-668-1090,407-15-00,B8DD2D57-F3CD-7E27-0DA4-E3B876431D3C
92,"DOCK OF THE BAY","6134 Non, Rd.","Little Rock",Arkansas,790-526-9983,835167-6583,4603,"Fredericka Vincent","9695 Felis Rd.","Little Rock",Arkansas,655-668-1090,407-15-00,B8DD2D57-F3CD-7E27-0DA4-E3B876431D3C
98,"METRO CLUB","P.O. Box 753, 9068 In, Avenue","Little Rock",Arkansas,505-442-3555,289884-2378,4603,"Fredericka Vincent","9695 Felis Rd.","Little Rock",Arkansas,655-668-1090,407-15-00,B8DD2D57-F3CD-7E27-0DA4-E3B876431D3C
165,"CRISFIELD SEAFOOD RESTAURANT","P.O. Box 522, 3751 Ut Rd.",Springdale,Arkansas,889-988-7244,195256-6840,4603,"Fredericka Vincent","9695 Felis Rd.","Little Rock",Arkansas,655-668-1090,407-15-00,B8DD2D57-F3CD-7E27-0DA4-E3B876431D3C
237,"LA MADELEINE","2848 Tortor Rd.",Fayetteville,Arkansas,693-408-7304,027174-2033,4603,"Fredericka Vincent","9695 Felis Rd.","Little Rock",Arkansas,655-668-1090,407-15-00,B8DD2D57-F3CD-7E27-0DA4-E3B876431D3C
85,"L'Avant Comptoir de la Mer","139-9166 Sociis Rd.",Fayetteville,Arkansas,852-145-9715,972787-2484,4799,"Bianca Fowler","348-6377 Donec Av.","Little Rock",Arkansas,479-532-7907,465-98-03,AD002D89-C278-EAD8-F94E-A80DC00031C5
92,"DOCK OF THE BAY","6134 Non, Rd.","Little Rock",Arkansas,790-526-9983,835167-6583,4799,"Bianca Fowler","348-6377 Donec Av.","Little Rock",Arkansas,479-532-7907,465-98-03,AD002D89-C278-EAD8-F94E-A80DC00031C5
98,"METRO CLUB","P.O. Box 753, 9068 In, Avenue","Little Rock",Arkansas,505-442-3555,289884-2378,4799,"Bianca Fowler","348-6377 Donec Av.","Little Rock",Arkansas,479-532-7907,465-98-03,AD002D89-C278-EAD8-F94E-A80DC00031C5
165,"CRISFIELD SEAFOOD RESTAURANT","P.O. Box 522, 3751 Ut Rd.",Springdale,Arkansas,889-988-7244,195256-6840,4799,"Bianca Fowler","348-6377 Donec Av.","Little Rock",Arkansas,479-532-7907,465-98-03,AD002D89-C278-EAD8-F94E-A80DC00031C5
237,"LA MADELEINE","2848 Tortor Rd.",Fayetteville,Arkansas,693-408-7304,027174-2033,4799,"Bianca Fowler","348-6377 Donec Av.","Little Rock",Arkansas,479-532-7907,465-98-03,AD002D89-C278-EAD8-F94E-A80DC00031C5
85,"L'Avant Comptoir de la Mer","139-9166 Sociis Rd.",Fayetteville,Arkansas,852-145-9715,972787-2484,4805,"Celeste Bond","Ap #491-6649 Nonummy Road",Fayetteville,Arkansas,860-750-0941,342-47-01,F02D022C-361B-5700-86A9-6E1D9A1827D7
92,"DOCK OF THE BAY","6134 Non, Rd.","Little Rock",Arkansas,790-526-9983,835167-6583,4805,"Celeste Bond","Ap #491-6649 Nonummy Road",Fayetteville,Arkansas,860-750-0941,342-47-01,F02D022C-361B-5700-86A9-6E1D9A1827D7
98,"METRO CLUB","P.O. Box 753, 9068 In, Avenue","Little Rock",Arkansas,505-442-3555,289884-2378,4805,"Celeste Bond","Ap #491-6649 Nonummy Road",Fayetteville,Arkansas,860-750-0941,342-47-01,F02D022C-361B-5700-86A9-6E1D9A1827D7
165,"CRISFIELD SEAFOOD RESTAURANT","P.O. Box 522, 3751 Ut Rd.",Springdale,Arkansas,889-988-7244,195256-6840,4805,"Celeste Bond","Ap #491-6649 Nonummy Road",Fayetteville,Arkansas,860-750-0941,342-47-01,F02D022C-361B-5700-86A9-6E1D9A1827D7
237,"LA MADELEINE","2848 Tortor Rd.",Fayetteville,Arkansas,693-408-7304,027174-2033,4805,"Celeste Bond","Ap #491-6649 Nonummy Road",Fayetteville,Arkansas,860-750-0941,342-47-01,F02D022C-361B-5700-86A9-6E1D9A1827D7
85,"L'Avant Comptoir de la Mer","139-9166 Sociis Rd.",Fayetteville,Arkansas,852-145-9715,972787-2484,4866,"Boris Jefferson","105-2288 Velit St.",Springdale,Arkansas,882-329-9419,717-02-08,A9332687-5EC6-A333-10EE-0D3C597064D9
92,"DOCK OF THE BAY","6134 Non, Rd.","Little Rock",Arkansas,790-526-9983,835167-6583,4866,"Boris Jefferson","105-2288 Velit St.",Springdale,Arkansas,882-329-9419,717-02-08,A9332687-5EC6-A333-10EE-0D3C597064D9
98,"METRO CLUB","P.O. Box 753, 9068 In, Avenue","Little Rock",Arkansas,505-442-3555,289884-2378,4866,"Boris Jefferson","105-2288 Velit St.",Springdale,Arkansas,882-329-9419,717-02-08,A9332687-5EC6-A333-10EE-0D3C597064D9
165,"CRISFIELD SEAFOOD RESTAURANT","P.O. Box 522, 3751 Ut Rd.",Springdale,Arkansas,889-988-7244,195256-6840,4866,"Boris Jefferson","105-2288 Velit St.",Springdale,Arkansas,882-329-9419,717-02-08,A9332687-5EC6-A333-10EE-0D3C597064D9
237,"LA MADELEINE","2848 Tortor Rd.",Fayetteville,Arkansas,693-408-7304,027174-2033,4866,"Boris Jefferson","105-2288 Velit St.",Springdale,Arkansas,882-329-9419,717-02-08,A9332687-5EC6-A333-10EE-0D3C597064D9
85,"L'Avant Comptoir de la Mer","139-9166 Sociis Rd.",Fayetteville,Arkansas,852-145-9715,972787-2484,4874,"Ferdinand Rutledge","2347 In St.","Fort Smith",Arkansas,250-554-4255,763-45-08,CD57D07F-361B-64B1-B50D-4345B6A4C807
92,"DOCK OF THE BAY","6134 Non, Rd.","Little Rock",Arkansas,790-526-9983,835167-6583,4874,"Ferdinand Rutledge","2347 In St.","Fort Smith",Arkansas,250-554-4255,763-45-08,CD57D07F-361B-64B1-B50D-4345B6A4C807
98,"METRO CLUB","P.O. Box 753, 9068 In, Avenue","Little Rock",Arkansas,505-442-3555,289884-2378,4874,"Ferdinand Rutledge","2347 In St.","Fort Smith",Arkansas,250-554-4255,763-45-08,CD57D07F-361B-64B1-B50D-4345B6A4C807
165,"CRISFIELD SEAFOOD RESTAURANT","P.O. Box 522, 3751 Ut Rd.",Springdale,Arkansas,889-988-7244,195256-6840,4874,"Ferdinand Rutledge","2347 In St.","Fort Smith",Arkansas,250-554-4255,763-45-08,CD57D07F-361B-64B1-B50D-4345B6A4C807
237,"LA MADELEINE","2848 Tortor Rd.",Fayetteville,Arkansas,693-408-7304,027174-2033,4874,"Ferdinand Rutledge","2347 In St.","Fort Smith",Arkansas,250-554-4255,763-45-08,CD57D07F-361B-64B1-B50D-4345B6A4C807
85,"L'Avant Comptoir de la Mer","139-9166 Sociis Rd.",Fayetteville,Arkansas,852-145-9715,972787-2484,4877,"Laith Hanson","3586 Magna Ave",Fayetteville,Arkansas,525-189-3204,507-11-07,8127B5AE-5D7D-B620-5E25-6F1FB83888A2
92,"DOCK OF THE BAY","6134 Non, Rd.","Little Rock",Arkansas,790-526-9983,835167-6583,4877,"Laith Hanson","3586 Magna Ave",Fayetteville,Arkansas,525-189-3204,507-11-07,8127B5AE-5D7D-B620-5E25-6F1FB83888A2
98,"METRO CLUB","P.O. Box 753, 9068 In, Avenue","Little Rock",Arkansas,505-442-3555,289884-2378,4877,"Laith Hanson","3586 Magna Ave",Fayetteville,Arkansas,525-189-3204,507-11-07,8127B5AE-5D7D-B620-5E25-6F1FB83888A2
165,"CRISFIELD SEAFOOD RESTAURANT","P.O. Box 522, 3751 Ut Rd.",Springdale,Arkansas,889-988-7244,195256-6840,4877,"Laith Hanson","3586 Magna Ave",Fayetteville,Arkansas,525-189-3204,507-11-07,8127B5AE-5D7D-B620-5E25-6F1FB83888A2
237,"LA MADELEINE","2848 Tortor Rd.",Fayetteville,Arkansas,693-408-7304,027174-2033,4877,"Laith Hanson","3586 Magna Ave",Fayetteville,Arkansas,525-189-3204,507-11-07,8127B5AE-5D7D-B620-5E25-6F1FB83888A2
85,"L'Avant Comptoir de la Mer","139-9166 Sociis Rd.",Fayetteville,Arkansas,852-145-9715,972787-2484,4909,"Ignatius Stein","763-2051 Lacus Ave","Little Rock",Arkansas,234-158-9598,077-73-03,134C045E-0B28-28F0-6C6E-152C000F7C4C
92,"DOCK OF THE BAY","6134 Non, Rd.","Little Rock",Arkansas,790-526-9983,835167-6583,4909,"Ignatius Stein","763-2051 Lacus Ave","Little Rock",Arkansas,234-158-9598,077-73-03,134C045E-0B28-28F0-6C6E-152C000F7C4C
98,"METRO CLUB","P.O. Box 753, 9068 In, Avenue","Little Rock",Arkansas,505-442-3555,289884-2378,4909,"Ignatius Stein","763-2051 Lacus Ave","Little Rock",Arkansas,234-158-9598,077-73-03,134C045E-0B28-28F0-6C6E-152C000F7C4C
165,"CRISFIELD SEAFOOD RESTAURANT","P.O. Box 522, 3751 Ut Rd.",Springdale,Arkansas,889-988-7244,195256-6840,4909,"Ignatius Stein","763-2051 Lacus Ave","Little Rock",Arkansas,234-158-9598,077-73-03,134C045E-0B28-28F0-6C6E-152C000F7C4C
237,"LA MADELEINE","2848 Tortor Rd.",Fayetteville,Arkansas,693-408-7304,027174-2033,4909,"Ignatius Stein","763-2051 Lacus Ave","Little Rock",Arkansas,234-158-9598,077-73-03,134C045E-0B28-28F0-6C6E-152C000F7C4C
85,"L'Avant Comptoir de la Mer","139-9166 Sociis Rd.",Fayetteville,Arkansas,852-145-9715,972787-2484,4999,"Hammett Blair","614-4940 Pellentesque Street",Jonesboro,Arkansas,650-564-0967,316-87-02,F0F44658-2D6E-6885-CECE-28E701545DE8
92,"DOCK OF THE BAY","6134 Non, Rd.","Little Rock",Arkansas,790-526-9983,835167-6583,4999,"Hammett Blair","614-4940 Pellentesque Street",Jonesboro,Arkansas,650-564-0967,316-87-02,F0F44658-2D6E-6885-CECE-28E701545DE8
98,"METRO CLUB","P.O. Box 753, 9068 In, Avenue","Little Rock",Arkansas,505-442-3555,289884-2378,4999,"Hammett Blair","614-4940 Pellentesque Street",Jonesboro,Arkansas,650-564-0967,316-87-02,F0F44658-2D6E-6885-CECE-28E701545DE8
165,"CRISFIELD SEAFOOD RESTAURANT","P.O. Box 522, 3751 Ut Rd.",Springdale,Arkansas,889-988-7244,195256-6840,4999,"Hammett Blair","614-4940 Pellentesque Street",Jonesboro,Arkansas,650-564-0967,316-87-02,F0F44658-2D6E-6885-CECE-28E701545DE8
237,"LA MADELEINE","2848 Tortor Rd.",Fayetteville,Arkansas,693-408-7304,027174-2033,4999,"Hammett Blair","614-4940 Pellentesque Street",Jonesboro,Arkansas,650-564-0967,316-87-02,F0F44658-2D6E-6885-CECE-28E701545DE8
